{"type": "FeatureCollection", "features": [{"type": "Feature", "id": "ANYN", "properties": {"elevation": 7.0, "sname": "Nauru", "time_domain": "(2019-Now)", "archive_begin": "2019-08-20", "archive_end": null, "state": null, "country": "AU", "climate_site": null, "wfo": null, "tzname": "Pacific/Nauru", "ncdc81": null, "ncei91": null, "ugc_county": null, "ugc_zone": null, "county": null, "sid": "ANYN", "network": "AU__ASOS", "online": true, "synop": 99999, "attributes": {"METAR_RESET_MINUTE": "0", "GHCNH_ID": "NRI0000ANYN"}}, "geometry": {"type": "Point", "coordinates": [166.9191, -0.5475]}}, {"type": "Feature", "id": "NZQN", "properties": {"elevation": 356.0, "sname": "Queenstown", "time_domain": "(2024-Now)", "archive_begin": "2024-03-16", "archive_end": null, "state": "  ", "country": "AU", "climate_site": null, "wfo": null, "tzname": "Pacific/Auckland", "ncdc81": null, "ncei91": null, "ugc_county": null, "ugc_zone": null, "county": null, "sid": "NZQN", "network": "AU__ASOS", "online": true, "synop": null, "attributes": {"METAR_RESET_MINUTE": "30", "HAS_PHOUR": "1"}}, "geometry": {"type": "Point", "coordinates": [168.7392, -45.0211]}}, {"type": "Feature", "id": "YABA", "properties": {"elevation": 67.125595, "sname": "Albany", "time_domain": "(2013-2022)", "archive_begin": "2013-08-16", "archive_end": "2022-11-15", "state": null, "country": "AU", "climate_site": null, "wfo": null, "tzname": "Australia/Perth", "ncdc81": null, "ncei91": null, "ugc_county": null, "ugc_zone": null, "county": null, "sid": "YABA", "network": "AU__ASOS", "online": false, "synop": 9999, "attributes": {"GHCNH_ID": "ASI0000YABA", "METAR_RESET_MINUTE": "0"}}, "geometry": {"type": "Point", "coordinates": [117.8022, -34.9414]}}, {"type": "Feature", "id": "YAMB", "properties": {"elevation": 28.0, "sname": "Amberley", "time_domain": "(2003-Now)", "archive_begin": "2003-10-21", "archive_end": null, "state": null, "country": "AU", "climate_site": null, "wfo": null, "tzname": "Australia/Brisbane", "ncdc81": null, "ncei91": null, "ugc_county": null, "ugc_zone": null, "county": null, "sid": "YAMB", "network": "AU__ASOS", "online": true, "synop": 99999, "attributes": {"GHCNH_ID": "ASI0000YAMB", "HAS_PHOUR": "1", "METAR_RESET_MINUTE": "0"}}, "geometry": {"type": "Point", "coordinates": [152.7111, -27.6297]}}, {"type": "Feature", "id": "YARG", "properties": {"elevation": 157.35588, "sname": "Argyle", "time_domain": "(2013-2022)", "archive_begin": "2013-08-20", "archive_end": "2022-11-15", "state": null, "country": "AU", "climate_site": null, "wfo": null, "tzname": "Australia/Perth", "ncdc81": null, "ncei91": null, "ugc_county": null, "ugc_zone": null, "county": null, "sid": "YARG", "network": "AU__ASOS", "online": false, "synop": 9999, "attributes": {"GHCNH_ID": "ASI0000YARG", "METAR_RESET_MINUTE": "0"}}, "geometry": {"type": "Point", "coordinates": [128.4517, -16.6381]}}, {"type": "Feature", "id": "YAYE", "properties": {"elevation": 496.50107, "sname": "Uluru", "time_domain": "(2002-Now)", "archive_begin": "2002-01-23", "archive_end": null, "state": null, "country": "AU", "climate_site": null, "wfo": null, "tzname": "Australia/Darwin", "ncdc81": null, "ncei91": null, "ugc_county": null, "ugc_zone": null, "county": null, "sid": "YAYE", "network": "AU__ASOS", "online": true, "synop": 9999, "attributes": {"GHCNH_ID": "ASI0000YAYE", "METAR_RESET_MINUTE": "0"}}, "geometry": {"type": "Point", "coordinates": [130.976, -25.1861]}}, {"type": "Feature", "id": "YAYT", "properties": {"elevation": 520.7091, "sname": "Unknown", "time_domain": "(2011-2023)", "archive_begin": "2011-09-23", "archive_end": "2023-02-26", "state": null, "country": "AU", "climate_site": null, "wfo": null, "tzname": "Australia/Adelaide", "ncdc81": null, "ncei91": null, "ugc_county": null, "ugc_zone": null, "county": null, "sid": "YAYT", "network": "AU__ASOS", "online": false, "synop": 9999, "attributes": {"METAR_RESET_MINUTE": "0"}}, "geometry": {"type": "Point", "coordinates": [132.5391, -27.0591]}}, {"type": "Feature", "id": "YBAS", "properties": {"elevation": 541.0, "sname": "Alice Springs", "time_domain": "(1942-Now)", "archive_begin": "1942-12-16", "archive_end": null, "state": null, "country": "AU", "climate_site": null, "wfo": null, "tzname": "Australia/Darwin", "ncdc81": null, "ncei91": null, "ugc_county": null, "ugc_zone": null, "county": null, "sid": "YBAS", "network": "AU__ASOS", "online": true, "synop": 99999, "attributes": {"HAS_PHOUR": "1", "GHCNH_ID": "ASI0000YBAS", "METAR_RESET_MINUTE": "0"}}, "geometry": {"type": "Point", "coordinates": [133.889, -23.7951]}}, {"type": "Feature", "id": "YBBN", "properties": {"elevation": 5.0, "sname": "Brisbane", "time_domain": "(1944-Now)", "archive_begin": "1944-09-30", "archive_end": null, "state": null, "country": "AU", "climate_site": null, "wfo": null, "tzname": "Australia/Brisbane", "ncdc81": null, "ncei91": null, "ugc_county": null, "ugc_zone": null, "county": null, "sid": "YBBN", "network": "AU__ASOS", "online": true, "synop": 99999, "attributes": {"HAS_PHOUR": "1", "METAR_RESET_MINUTE": "0"}}, "geometry": {"type": "Point", "coordinates": [153.1292, -27.3917]}}, {"type": "Feature", "id": "YBCG", "properties": {"elevation": 6.0, "sname": "Coolangatta", "time_domain": "(1990-Now)", "archive_begin": "1990-02-01", "archive_end": null, "state": null, "country": "AU", "climate_site": null, "wfo": null, "tzname": "Australia/Sydney", "ncdc81": null, "ncei91": null, "ugc_county": null, "ugc_zone": null, "county": null, "sid": "YBCG", "network": "AU__ASOS", "online": true, "synop": 99999, "attributes": {"METAR_RESET_MINUTE": "0", "HAS_PHOUR": "1"}}, "geometry": {"type": "Point", "coordinates": [153.5053, -28.1681]}}, {"type": "Feature", "id": "YBCS", "properties": {"elevation": 7.0, "sname": "Cairns", "time_domain": "(1942-Now)", "archive_begin": "1942-12-31", "archive_end": null, "state": null, "country": "AU", "climate_site": null, "wfo": null, "tzname": "Australia/Brisbane", "ncdc81": null, "ncei91": null, "ugc_county": null, "ugc_zone": null, "county": null, "sid": "YBCS", "network": "AU__ASOS", "online": true, "synop": 99999, "attributes": {"HAS_PHOUR": "1", "METAR_RESET_MINUTE": "0"}}, "geometry": {"type": "Point", "coordinates": [145.7458, -16.8736]}}, {"type": "Feature", "id": "YBCV", "properties": {"elevation": 306.16937, "sname": "Charlieville", "time_domain": "(1942-2022)", "archive_begin": "1942-06-30", "archive_end": "2022-11-15", "state": null, "country": "AU", "climate_site": null, "wfo": null, "tzname": "Australia/Brisbane", "ncdc81": null, "ncei91": null, "ugc_county": null, "ugc_zone": null, "county": null, "sid": "YBCV", "network": "AU__ASOS", "online": false, "synop": 9999, "attributes": {"METAR_RESET_MINUTE": "0", "GHCNH_ID": "ASI0000YBCV"}}, "geometry": {"type": "Point", "coordinates": [146.2558, -26.4139]}}, {"type": "Feature", "id": "YBDV", "properties": {"elevation": 47.66856, "sname": "Birdsville", "time_domain": "(2001-2022)", "archive_begin": "2001-09-15", "archive_end": "2022-11-14", "state": null, "country": "AU", "climate_site": null, "wfo": null, "tzname": "Australia/Brisbane", "ncdc81": null, "ncei91": null, "ugc_county": null, "ugc_zone": null, "county": null, "sid": "YBDV", "network": "AU__ASOS", "online": false, "synop": 9999, "attributes": {"METAR_RESET_MINUTE": "0", "GHCNH_ID": "ASI0000YBDV"}}, "geometry": {"type": "Point", "coordinates": [139.3472, -25.8975]}}, {"type": "Feature", "id": "YBHI", "properties": {"elevation": 290.5573, "sname": "Broken Hill", "time_domain": "(2013-2022)", "archive_begin": "2013-10-24", "archive_end": "2022-05-11", "state": null, "country": "AU", "climate_site": null, "wfo": null, "tzname": "Australia/Broken_Hill", "ncdc81": null, "ncei91": null, "ugc_county": null, "ugc_zone": null, "county": null, "sid": "YBHI", "network": "AU__ASOS", "online": false, "synop": 9999, "attributes": {"METAR_RESET_MINUTE": "0", "GHCNH_ID": "ASI0000YBHI"}}, "geometry": {"type": "Point", "coordinates": [141.472, -32.0014]}}, {"type": "Feature", "id": "YBHM", "properties": {"elevation": 5.0, "sname": "Hamilton Island", "time_domain": "(2003-Now)", "archive_begin": "2003-10-21", "archive_end": null, "state": null, "country": "AU", "climate_site": null, "wfo": null, "tzname": "Australia/Lindeman", "ncdc81": null, "ncei91": null, "ugc_county": null, "ugc_zone": null, "county": null, "sid": "YBHM", "network": "AU__ASOS", "online": true, "synop": 99999, "attributes": {"GHCNH_ID": "ASI0000YBHM", "HAS_PHOUR": "1", "METAR_RESET_MINUTE": "0"}}, "geometry": {"type": "Point", "coordinates": [148.9517, -20.3581]}}, {"type": "Feature", "id": "YBLN", "properties": {"elevation": 17.0, "sname": "Busselton", "time_domain": "(2019-Now)", "archive_begin": "2019-09-05", "archive_end": null, "state": "  ", "country": "AU", "climate_site": null, "wfo": null, "tzname": "Australia/Perth", "ncdc81": null, "ncei91": null, "ugc_county": null, "ugc_zone": null, "county": null, "sid": "YBLN", "network": "AU__ASOS", "online": true, "synop": null, "attributes": {"GHCNH_ID": "ASI0000YBLN", "HAS_PHOUR": "1", "METAR_RESET_MINUTE": "0"}}, "geometry": {"type": "Point", "coordinates": [115.4, -33.687]}}, {"type": "Feature", "id": "YBMA", "properties": {"elevation": 344.0, "sname": "Mount Isa", "time_domain": "(1966-Now)", "archive_begin": "1966-11-30", "archive_end": null, "state": null, "country": "AU", "climate_site": null, "wfo": null, "tzname": "Australia/Brisbane", "ncdc81": null, "ncei91": null, "ugc_county": null, "ugc_zone": null, "county": null, "sid": "YBMA", "network": "AU__ASOS", "online": true, "synop": 99999, "attributes": {"METAR_RESET_MINUTE": "0", "HAS_PHOUR": "1", "GHCNH_ID": "ASI0000YBMA"}}, "geometry": {"type": "Point", "coordinates": [139.4875, -20.6778]}}, {"type": "Feature", "id": "YBMK", "properties": {"elevation": 28.180777, "sname": "Mackay", "time_domain": "(2013-Now)", "archive_begin": "2013-10-24", "archive_end": null, "state": null, "country": "AU", "climate_site": null, "wfo": null, "tzname": "Australia/Brisbane", "ncdc81": null, "ncei91": null, "ugc_county": null, "ugc_zone": null, "county": null, "sid": "YBMK", "network": "AU__ASOS", "online": true, "synop": 9999, "attributes": {"METAR_RESET_MINUTE": "0"}}, "geometry": {"type": "Point", "coordinates": [149.2169, -21.1172]}}, {"type": "Feature", "id": "YBNA", "properties": {"elevation": 4.0701337, "sname": "Ballina Byron Bay", "time_domain": "(2013-Now)", "archive_begin": "2013-10-23", "archive_end": null, "state": null, "country": "AU", "climate_site": null, "wfo": null, "tzname": "Australia/Sydney", "ncdc81": null, "ncei91": null, "ugc_county": null, "ugc_zone": null, "county": null, "sid": "YBNA", "network": "AU__ASOS", "online": true, "synop": 9999, "attributes": {"GHCNH_ID": "ASI0000YBNA", "METAR_RESET_MINUTE": "0"}}, "geometry": {"type": "Point", "coordinates": [153.5585, -28.8353]}}, {"type": "Feature", "id": "YBOK", "properties": {"elevation": 406.22464, "sname": "Oakey", "time_domain": "(1973-2022)", "archive_begin": "1973-04-30", "archive_end": "2022-05-11", "state": null, "country": "AU", "climate_site": null, "wfo": null, "tzname": "Australia/Brisbane", "ncdc81": null, "ncei91": null, "ugc_county": null, "ugc_zone": null, "county": null, "sid": "YBOK", "network": "AU__ASOS", "online": false, "synop": 9999, "attributes": {"METAR_RESET_MINUTE": "0", "GHCNH_ID": "ASI0000YBOK"}}, "geometry": {"type": "Point", "coordinates": [151.7413, -27.4034]}}, {"type": "Feature", "id": "YBPN", "properties": {"elevation": 20.765924, "sname": "Prosserpine", "time_domain": "(1989-Now)", "archive_begin": "1989-01-10", "archive_end": null, "state": null, "country": "AU", "climate_site": null, "wfo": null, "tzname": "Australia/Brisbane", "ncdc81": null, "ncei91": null, "ugc_county": null, "ugc_zone": null, "county": null, "sid": "YBPN", "network": "AU__ASOS", "online": true, "synop": 9999, "attributes": {"METAR_RESET_MINUTE": "0"}}, "geometry": {"type": "Point", "coordinates": [148.555, -20.4925]}}, {"type": "Feature", "id": "YBRK", "properties": {"elevation": 14.0, "sname": "Rockhampton", "time_domain": "(1939-Now)", "archive_begin": "1939-03-31", "archive_end": null, "state": null, "country": "AU", "climate_site": null, "wfo": null, "tzname": "Australia/Brisbane", "ncdc81": null, "ncei91": null, "ugc_county": null, "ugc_zone": null, "county": null, "sid": "YBRK", "network": "AU__ASOS", "online": true, "synop": 99999, "attributes": {"HAS_PHOUR": "1", "METAR_RESET_MINUTE": "0"}}, "geometry": {"type": "Point", "coordinates": [150.4775, -23.3753]}}, {"type": "Feature", "id": "YBRM", "properties": {"elevation": 9.0, "sname": "Broome", "time_domain": "(1939-Now)", "archive_begin": "1939-08-10", "archive_end": null, "state": null, "country": "AU", "climate_site": null, "wfo": null, "tzname": "Australia/Perth", "ncdc81": null, "ncei91": null, "ugc_county": null, "ugc_zone": null, "county": null, "sid": "YBRM", "network": "AU__ASOS", "online": true, "synop": 99999, "attributes": {"HAS_PHOUR": "1", "METAR_RESET_MINUTE": "0"}}, "geometry": {"type": "Point", "coordinates": [122.2353, -17.9475]}}, {"type": "Feature", "id": "YBSU", "properties": {"elevation": 3.0, "sname": "Sunshine Coast", "time_domain": "(2022-Now)", "archive_begin": "2022-11-03", "archive_end": null, "state": "  ", "country": "AU", "climate_site": null, "wfo": null, "tzname": "Australia/Brisbane", "ncdc81": null, "ncei91": null, "ugc_county": null, "ugc_zone": null, "county": null, "sid": "YBSU", "network": "AU__ASOS", "online": true, "synop": null, "attributes": {"HAS_PHOUR": "1", "METAR_RESET_MINUTE": "30"}}, "geometry": {"type": "Point", "coordinates": [153.0917, -26.6033]}}, {"type": "Feature", "id": "YBTL", "properties": {"elevation": 6.0, "sname": "Townsville", "time_domain": "(1947-Now)", "archive_begin": "1947-01-01", "archive_end": null, "state": null, "country": "AU", "climate_site": null, "wfo": null, "tzname": "Australia/Brisbane", "ncdc81": null, "ncei91": null, "ugc_county": null, "ugc_zone": null, "county": null, "sid": "YBTL", "network": "AU__ASOS", "online": true, "synop": 99999, "attributes": {"HAS_PHOUR": "1", "METAR_RESET_MINUTE": "0"}}, "geometry": {"type": "Point", "coordinates": [146.7661, -19.2483]}}, {"type": "Feature", "id": "YBUD", "properties": {"elevation": 33.348766, "sname": "Bundaberg", "time_domain": "(2013-2022)", "archive_begin": "2013-08-19", "archive_end": "2022-11-11", "state": null, "country": "AU", "climate_site": null, "wfo": null, "tzname": "Australia/Brisbane", "ncdc81": null, "ncei91": null, "ugc_county": null, "ugc_zone": null, "county": null, "sid": "YBUD", "network": "AU__ASOS", "online": false, "synop": 9999, "attributes": {"METAR_RESET_MINUTE": "0", "GHCNH_ID": "ASI0000YBUD"}}, "geometry": {"type": "Point", "coordinates": [152.323, -24.9069]}}, {"type": "Feature", "id": "YBWP", "properties": {"elevation": 44.433468, "sname": "Weipa", "time_domain": "(1959-2022)", "archive_begin": "1959-01-01", "archive_end": "2022-11-10", "state": null, "country": "AU", "climate_site": null, "wfo": null, "tzname": "Australia/Brisbane", "ncdc81": null, "ncei91": null, "ugc_county": null, "ugc_zone": null, "county": null, "sid": "YBWP", "network": "AU__ASOS", "online": false, "synop": 9999, "attributes": {"METAR_RESET_MINUTE": "0"}}, "geometry": {"type": "Point", "coordinates": [142.0869, -12.6167]}}, {"type": "Feature", "id": "YBWW", "properties": {"elevation": 438.33002, "sname": "Toowoomba Wellcamp", "time_domain": "(2020-Now)", "archive_begin": "2020-11-05", "archive_end": null, "state": "  ", "country": "AU", "climate_site": null, "wfo": null, "tzname": "Australia/Brisbane", "ncdc81": null, "ncei91": null, "ugc_county": null, "ugc_zone": null, "county": null, "sid": "YBWW", "network": "AU__ASOS", "online": true, "synop": null, "attributes": {"HAS_PHOUR": "1", "GHCNH_ID": "ASI0000YBWW", "METAR_RESET_MINUTE": "0"}}, "geometry": {"type": "Point", "coordinates": [151.7933, -27.5583]}}, {"type": "Feature", "id": "YBWX", "properties": {"elevation": 1.2235354, "sname": "Barrow Island", "time_domain": "(2013-2022)", "archive_begin": "2013-09-13", "archive_end": "2022-10-24", "state": null, "country": "AU", "climate_site": null, "wfo": null, "tzname": "Australia/Perth", "ncdc81": null, "ncei91": null, "ugc_county": null, "ugc_zone": null, "county": null, "sid": "YBWX", "network": "AU__ASOS", "online": false, "synop": 9999, "attributes": {"METAR_RESET_MINUTE": "0", "GHCNH_ID": "ASI0000YBWX"}}, "geometry": {"type": "Point", "coordinates": [115.4056, -20.875]}}, {"type": "Feature", "id": "YCAR", "properties": {"elevation": 3.2375424, "sname": "Carnarvon", "time_domain": "(2013-2022)", "archive_begin": "2013-08-27", "archive_end": "2022-11-13", "state": null, "country": "AU", "climate_site": null, "wfo": null, "tzname": "Australia/Perth", "ncdc81": null, "ncei91": null, "ugc_county": null, "ugc_zone": null, "county": null, "sid": "YCAR", "network": "AU__ASOS", "online": false, "synop": 9999, "attributes": {"GHCNH_ID": "ASI0000YCAR", "METAR_RESET_MINUTE": "0"}}, "geometry": {"type": "Point", "coordinates": [113.67, -24.8878]}}, {"type": "Feature", "id": "YCAS", "properties": {"elevation": 20.445202, "sname": "Casion", "time_domain": "(2013-2022)", "archive_begin": "2013-09-02", "archive_end": "2022-11-13", "state": null, "country": "AU", "climate_site": null, "wfo": null, "tzname": "Australia/Sydney", "ncdc81": null, "ncei91": null, "ugc_county": null, "ugc_zone": null, "county": null, "sid": "YCAS", "network": "AU__ASOS", "online": false, "synop": 9999, "attributes": {"METAR_RESET_MINUTE": "0", "GHCNH_ID": "ASI0000YCAS"}}, "geometry": {"type": "Point", "coordinates": [153.0669, -28.8828]}}, {"type": "Feature", "id": "YCBA", "properties": {"elevation": 217.82462, "sname": "Cobar", "time_domain": "(2013-2022)", "archive_begin": "2013-08-28", "archive_end": "2022-11-15", "state": null, "country": "AU", "climate_site": null, "wfo": null, "tzname": "Australia/Sydney", "ncdc81": null, "ncei91": null, "ugc_county": null, "ugc_zone": null, "county": null, "sid": "YCBA", "network": "AU__ASOS", "online": false, "synop": 9999, "attributes": {"METAR_RESET_MINUTE": "0", "GHCNH_ID": "ASI0000YCBA"}}, "geometry": {"type": "Point", "coordinates": [145.794, -31.5383]}}, {"type": "Feature", "id": "YCBB", "properties": {"elevation": 642.92645, "sname": "Coonabarabran", "time_domain": "(2013-2022)", "archive_begin": "2013-08-21", "archive_end": "2022-11-15", "state": null, "country": "AU", "climate_site": null, "wfo": null, "tzname": "Australia/Sydney", "ncdc81": null, "ncei91": null, "ugc_county": null, "ugc_zone": null, "county": null, "sid": "YCBB", "network": "AU__ASOS", "online": false, "synop": 9999, "attributes": {"METAR_RESET_MINUTE": "0", "GHCNH_ID": "ASI0000YCBB"}}, "geometry": {"type": "Point", "coordinates": [149.267, -31.3325]}}, {"type": "Feature", "id": "YCBP", "properties": {"elevation": 226.20448, "sname": "Coober Pedy", "time_domain": "(2013-2022)", "archive_begin": "2013-08-27", "archive_end": "2022-11-13", "state": null, "country": "AU", "climate_site": null, "wfo": null, "tzname": "Australia/Adelaide", "ncdc81": null, "ncei91": null, "ugc_county": null, "ugc_zone": null, "county": null, "sid": "YCBP", "network": "AU__ASOS", "online": false, "synop": 9999, "attributes": {"METAR_RESET_MINUTE": "0", "GHCNH_ID": "ASI0000YCBP"}}, "geometry": {"type": "Point", "coordinates": [134.721, -29.04]}}, {"type": "Feature", "id": "YCCY", "properties": {"elevation": 189.34938, "sname": "Cloncurry", "time_domain": "(2013-2022)", "archive_begin": "2013-08-23", "archive_end": "2022-11-13", "state": null, "country": "AU", "climate_site": null, "wfo": null, "tzname": "Australia/Brisbane", "ncdc81": null, "ncei91": null, "ugc_county": null, "ugc_zone": null, "county": null, "sid": "YCCY", "network": "AU__ASOS", "online": false, "synop": 9999, "attributes": {"METAR_RESET_MINUTE": "0", "GHCNH_ID": "ASI0000YCCY"}}, "geometry": {"type": "Point", "coordinates": [140.504, -20.6686]}}, {"type": "Feature", "id": "YCDU", "properties": {"elevation": 17.200754, "sname": "Ceduna", "time_domain": "(2013-2022)", "archive_begin": "2013-08-18", "archive_end": "2022-11-14", "state": null, "country": "AU", "climate_site": null, "wfo": null, "tzname": "Australia/Adelaide", "ncdc81": null, "ncei91": null, "ugc_county": null, "ugc_zone": null, "county": null, "sid": "YCDU", "network": "AU__ASOS", "online": false, "synop": 9999, "attributes": {"GHCNH_ID": "ASI0000YCDU", "METAR_RESET_MINUTE": "0"}}, "geometry": {"type": "Point", "coordinates": [133.6976, -32.1297]}}, {"type": "Feature", "id": "YCFS", "properties": {"elevation": 5.0, "sname": "COFFS HARBOUR", "time_domain": "(1942-Now)", "archive_begin": "1942-11-30", "archive_end": null, "state": null, "country": "AU", "climate_site": null, "wfo": null, "tzname": "Australia/Sydney", "ncdc81": null, "ncei91": null, "ugc_county": null, "ugc_zone": null, "county": null, "sid": "YCFS", "network": "AU__ASOS", "online": true, "synop": 99999, "attributes": {"HAS_PHOUR": "1", "GHCNH_ID": "ASI0000YCFS", "METAR_RESET_MINUTE": "0"}}, "geometry": {"type": "Point", "coordinates": [153.1187, -30.3107]}}, {"type": "Feature", "id": "YCIN", "properties": {"elevation": 91.0, "sname": "Derby", "time_domain": "(2003-Now)", "archive_begin": "2003-10-21", "archive_end": null, "state": null, "country": "AU", "climate_site": null, "wfo": null, "tzname": "Australia/Perth", "ncdc81": null, "ncei91": null, "ugc_county": null, "ugc_zone": null, "county": null, "sid": "YCIN", "network": "AU__ASOS", "online": true, "synop": 99999, "attributes": {"GHCNH_ID": "ASI0000YCIN", "HAS_PHOUR": "1", "METAR_RESET_MINUTE": "0"}}, "geometry": {"type": "Point", "coordinates": [123.8283, -17.5814]}}, {"type": "Feature", "id": "YCNM", "properties": {"elevation": 183.34807, "sname": "Coonamble", "time_domain": "(2013-2022)", "archive_begin": "2013-08-22", "archive_end": "2022-11-13", "state": null, "country": "AU", "climate_site": null, "wfo": null, "tzname": "Australia/Sydney", "ncdc81": null, "ncei91": null, "ugc_county": null, "ugc_zone": null, "county": null, "sid": "YCNM", "network": "AU__ASOS", "online": false, "synop": 9999, "attributes": {"METAR_RESET_MINUTE": "0", "GHCNH_ID": "ASI0000YCNM"}}, "geometry": {"type": "Point", "coordinates": [148.376, -30.9833]}}, {"type": "Feature", "id": "YCOM", "properties": {"elevation": 937.23193, "sname": "Cooma", "time_domain": "(2013-2022)", "archive_begin": "2013-08-16", "archive_end": "2022-11-15", "state": null, "country": "AU", "climate_site": null, "wfo": null, "tzname": "Australia/Sydney", "ncdc81": null, "ncei91": null, "ugc_county": null, "ugc_zone": null, "county": null, "sid": "YCOM", "network": "AU__ASOS", "online": false, "synop": 9999, "attributes": {"METAR_RESET_MINUTE": "0", "GHCNH_ID": "ASI0000YCOM"}}, "geometry": {"type": "Point", "coordinates": [148.974, -36.3006]}}, {"type": "Feature", "id": "YDBY", "properties": {"elevation": 7.4144206, "sname": "Derby", "time_domain": "(2013-2022)", "archive_begin": "2013-08-21", "archive_end": "2022-11-14", "state": null, "country": "AU", "climate_site": null, "wfo": null, "tzname": "Australia/Perth", "ncdc81": null, "ncei91": null, "ugc_county": null, "ugc_zone": null, "county": null, "sid": "YDBY", "network": "AU__ASOS", "online": false, "synop": 9999, "attributes": {"GHCNH_ID": "ASI0000YDBY", "METAR_RESET_MINUTE": "0"}}, "geometry": {"type": "Point", "coordinates": [123.661, -17.37]}}, {"type": "Feature", "id": "YEML", "properties": {"elevation": 191.69656, "sname": "Emerald", "time_domain": "(2013-2022)", "archive_begin": "2013-09-03", "archive_end": "2022-11-15", "state": null, "country": "AU", "climate_site": null, "wfo": null, "tzname": "Australia/Brisbane", "ncdc81": null, "ncei91": null, "ugc_county": null, "ugc_zone": null, "county": null, "sid": "YEML", "network": "AU__ASOS", "online": false, "synop": 9999, "attributes": {"METAR_RESET_MINUTE": "0", "GHCNH_ID": "ASI0000YEML"}}, "geometry": {"type": "Point", "coordinates": [148.179, -23.5675]}}, {"type": "Feature", "id": "YESP", "properties": {"elevation": 137.26839, "sname": "Esperance", "time_domain": "(2013-Now)", "archive_begin": "2013-08-20", "archive_end": null, "state": null, "country": "AU", "climate_site": null, "wfo": null, "tzname": "Australia/Perth", "ncdc81": null, "ncei91": null, "ugc_county": null, "ugc_zone": null, "county": null, "sid": "YESP", "network": "AU__ASOS", "online": true, "synop": 9999, "attributes": {"GHCNH_ID": "ASI0000YESP", "METAR_RESET_MINUTE": "0"}}, "geometry": {"type": "Point", "coordinates": [121.823, -33.6844]}}, {"type": "Feature", "id": "YFRT", "properties": {"elevation": 156.0, "sname": "Forrest", "time_domain": "(1993-Now)", "archive_begin": "1993-04-30", "archive_end": null, "state": null, "country": "AU", "climate_site": null, "wfo": null, "tzname": "Australia/Perth", "ncdc81": null, "ncei91": null, "ugc_county": null, "ugc_zone": null, "county": null, "sid": "YFRT", "network": "AU__ASOS", "online": true, "synop": 99999, "attributes": {"HAS_PHOUR": "1", "METAR_RESET_MINUTE": "0"}}, "geometry": {"type": "Point", "coordinates": [128.115, -30.8381]}}, {"type": "Feature", "id": "YGEL", "properties": {"elevation": 37.0, "sname": "Geraldton", "time_domain": "(1941-Now)", "archive_begin": "1941-08-17", "archive_end": null, "state": null, "country": "AU", "climate_site": null, "wfo": null, "tzname": "Australia/Perth", "ncdc81": null, "ncei91": null, "ugc_county": null, "ugc_zone": null, "county": null, "sid": "YGEL", "network": "AU__ASOS", "online": true, "synop": 99999, "attributes": {"METAR_RESET_MINUTE": "0", "HAS_PHOUR": "1"}}, "geometry": {"type": "Point", "coordinates": [114.6975, -28.7953]}}, {"type": "Feature", "id": "YGFN", "properties": {"elevation": 28.936058, "sname": "Grafton", "time_domain": "(2013-2022)", "archive_begin": "2013-08-17", "archive_end": "2022-11-15", "state": null, "country": "AU", "climate_site": null, "wfo": null, "tzname": "Australia/Sydney", "ncdc81": null, "ncei91": null, "ugc_county": null, "ugc_zone": null, "county": null, "sid": "YGFN", "network": "AU__ASOS", "online": false, "synop": 9999, "attributes": {"METAR_RESET_MINUTE": "0", "GHCNH_ID": "ASI0000YGFN"}}, "geometry": {"type": "Point", "coordinates": [153.03, -29.7594]}}, {"type": "Feature", "id": "YGLA", "properties": {"elevation": 22.888252, "sname": "Gladstone", "time_domain": "(2013-Now)", "archive_begin": "2013-08-19", "archive_end": null, "state": null, "country": "AU", "climate_site": null, "wfo": null, "tzname": "Australia/Brisbane", "ncdc81": null, "ncei91": null, "ugc_county": null, "ugc_zone": null, "county": null, "sid": "YGLA", "network": "AU__ASOS", "online": true, "synop": 9999, "attributes": {"METAR_RESET_MINUTE": "0", "HAS_PHOUR": "1", "GHCNH_ID": "ASI0000YGLA"}}, "geometry": {"type": "Point", "coordinates": [151.223, -23.8697]}}, {"type": "Feature", "id": "YGTE", "properties": {"elevation": 18.837152, "sname": "Groote Eylandt", "time_domain": "(2001-2022)", "archive_begin": "2001-09-15", "archive_end": "2022-11-14", "state": null, "country": "AU", "climate_site": null, "wfo": null, "tzname": "Australia/Darwin", "ncdc81": null, "ncei91": null, "ugc_county": null, "ugc_zone": null, "county": null, "sid": "YGTE", "network": "AU__ASOS", "online": false, "synop": 9999, "attributes": {"METAR_RESET_MINUTE": "0"}}, "geometry": {"type": "Point", "coordinates": [136.4631, -13.9747]}}, {"type": "Feature", "id": "YGTH", "properties": {"elevation": 130.46596, "sname": "Griffith", "time_domain": "(2013-2022)", "archive_begin": "2013-08-18", "archive_end": "2022-11-14", "state": null, "country": "AU", "climate_site": null, "wfo": null, "tzname": "Australia/Sydney", "ncdc81": null, "ncei91": null, "ugc_county": null, "ugc_zone": null, "county": null, "sid": "YGTH", "network": "AU__ASOS", "online": false, "synop": 9999, "attributes": {"METAR_RESET_MINUTE": "0", "GHCNH_ID": "ASI0000YGTH"}}, "geometry": {"type": "Point", "coordinates": [146.067, -34.2508]}}, {"type": "Feature", "id": "YHBA", "properties": {"elevation": 14.0, "sname": "Hervey Bay", "time_domain": "(2026-Now)", "archive_begin": "2026-07-06", "archive_end": null, "state": "  ", "country": "AU", "climate_site": null, "wfo": null, "tzname": "Australia/Brisbane", "ncdc81": null, "ncei91": null, "ugc_county": null, "ugc_zone": null, "county": null, "sid": "YHBA", "network": "AU__ASOS", "online": true, "synop": null, "attributes": {"": ""}}, "geometry": {"type": "Point", "coordinates": [152.88, -25.3188]}}, {"type": "Feature", "id": "YHID", "properties": {"elevation": 13.0, "sname": "Horn Island", "time_domain": "(1996-Now)", "archive_begin": "1996-12-31", "archive_end": null, "state": null, "country": "AU", "climate_site": null, "wfo": null, "tzname": "Australia/Brisbane", "ncdc81": null, "ncei91": null, "ugc_county": null, "ugc_zone": null, "county": null, "sid": "YHID", "network": "AU__ASOS", "online": true, "synop": 99999, "attributes": {"METAR_RESET_MINUTE": "0", "HAS_PHOUR": "1"}}, "geometry": {"type": "Point", "coordinates": [142.29, -10.5844]}}, {"type": "Feature", "id": "YHUG", "properties": {"elevation": 317.46906, "sname": "Hughenden", "time_domain": "(2013-2022)", "archive_begin": "2013-08-24", "archive_end": "2022-11-13", "state": null, "country": "AU", "climate_site": null, "wfo": null, "tzname": "Australia/Brisbane", "ncdc81": null, "ncei91": null, "ugc_county": null, "ugc_zone": null, "county": null, "sid": "YHUG", "network": "AU__ASOS", "online": false, "synop": 9999, "attributes": {"GHCNH_ID": "ASI0000YHUG", "METAR_RESET_MINUTE": "0"}}, "geometry": {"type": "Point", "coordinates": [144.225, -20.815]}}, {"type": "Feature", "id": "YKRY", "properties": {"elevation": 434.67532, "sname": "Kingaroy", "time_domain": "(1956-2022)", "archive_begin": "1956-12-31", "archive_end": "2022-11-14", "state": null, "country": "AU", "climate_site": null, "wfo": null, "tzname": "Australia/Brisbane", "ncdc81": null, "ncei91": null, "ugc_county": null, "ugc_zone": null, "county": null, "sid": "YKRY", "network": "AU__ASOS", "online": false, "synop": 9999, "attributes": {"METAR_RESET_MINUTE": "0"}}, "geometry": {"type": "Point", "coordinates": [151.8398, -26.5737]}}, {"type": "Feature", "id": "YKSC", "properties": {"elevation": 9.0, "sname": "Kingscote", "time_domain": "(2026-Now)", "archive_begin": "2026-07-06", "archive_end": null, "state": "  ", "country": "AU", "climate_site": null, "wfo": null, "tzname": "Australia/Adelaide", "ncdc81": null, "ncei91": null, "ugc_county": null, "ugc_zone": null, "county": null, "sid": "YKSC", "network": "AU__ASOS", "online": true, "synop": null, "attributes": {"": ""}}, "geometry": {"type": "Point", "coordinates": [137.52, -35.71]}}, {"type": "Feature", "id": "YLEC", "properties": {"elevation": 260.53574, "sname": "Leigh Creek", "time_domain": "(2013-2022)", "archive_begin": "2013-08-22", "archive_end": "2022-11-13", "state": null, "country": "AU", "climate_site": null, "wfo": null, "tzname": "Australia/Adelaide", "ncdc81": null, "ncei91": null, "ugc_county": null, "ugc_zone": null, "county": null, "sid": "YLEC", "network": "AU__ASOS", "online": false, "synop": 9999, "attributes": {"METAR_RESET_MINUTE": "0"}}, "geometry": {"type": "Point", "coordinates": [138.426, -30.5983]}}, {"type": "Feature", "id": "YLHI", "properties": {"elevation": 3.9917824, "sname": "Lord Howe Island", "time_domain": "(2015-Now)", "archive_begin": "2015-04-30", "archive_end": null, "state": null, "country": "AU", "climate_site": null, "wfo": null, "tzname": "Australia/Lord_Howe", "ncdc81": null, "ncei91": null, "ugc_county": null, "ugc_zone": null, "county": null, "sid": "YLHI", "network": "AU__ASOS", "online": true, "synop": null, "attributes": {"HAS_PHOUR": "1", "METAR_RESET_MINUTE": "0", "GHCNH_ID": "ASI0000YLHI"}}, "geometry": {"type": "Point", "coordinates": [159.077, -31.5383]}}, {"type": "Feature", "id": "YLIS", "properties": {"elevation": 6.573712, "sname": "Lismore", "time_domain": "(2013-2022)", "archive_begin": "2013-08-18", "archive_end": "2022-11-15", "state": null, "country": "AU", "climate_site": null, "wfo": null, "tzname": "Australia/Sydney", "ncdc81": null, "ncei91": null, "ugc_county": null, "ugc_zone": null, "county": null, "sid": "YLIS", "network": "AU__ASOS", "online": false, "synop": 9999, "attributes": {"GHCNH_ID": "ASI0000YLIS", "METAR_RESET_MINUTE": "0"}}, "geometry": {"type": "Point", "coordinates": [153.26, -28.8303]}}, {"type": "Feature", "id": "YLRE", "properties": {"elevation": 190.98586, "sname": "Longreach", "time_domain": "(2013-2022)", "archive_begin": "2013-09-02", "archive_end": "2022-11-13", "state": null, "country": "AU", "climate_site": null, "wfo": null, "tzname": "Australia/Brisbane", "ncdc81": null, "ncei91": null, "ugc_county": null, "ugc_zone": null, "county": null, "sid": "YLRE", "network": "AU__ASOS", "online": false, "synop": 9999, "attributes": {"METAR_RESET_MINUTE": "0", "GHCNH_ID": "ASI0000YLRE"}}, "geometry": {"type": "Point", "coordinates": [144.28, -23.4342]}}, {"type": "Feature", "id": "YMAV", "properties": {"elevation": 8.0, "sname": "Avalon", "time_domain": "(2000-Now)", "archive_begin": "2000-01-07", "archive_end": null, "state": null, "country": "AU", "climate_site": null, "wfo": null, "tzname": "Australia/Melbourne", "ncdc81": null, "ncei91": null, "ugc_county": null, "ugc_zone": null, "county": null, "sid": "YMAV", "network": "AU__ASOS", "online": true, "synop": 99999, "attributes": {"GHCNH_ID": "ASI0000YMAV", "HAS_PHOUR": "1", "METAR_RESET_MINUTE": "0"}}, "geometry": {"type": "Point", "coordinates": [144.4783, -38.0287]}}, {"type": "Feature", "id": "YMAY", "properties": {"elevation": 163.08626, "sname": "Albury", "time_domain": "(1990-2022)", "archive_begin": "1990-02-01", "archive_end": "2022-11-14", "state": null, "country": "AU", "climate_site": null, "wfo": null, "tzname": "Australia/Sydney", "ncdc81": null, "ncei91": null, "ugc_county": null, "ugc_zone": null, "county": null, "sid": "YMAY", "network": "AU__ASOS", "online": false, "synop": 9999, "attributes": {"METAR_RESET_MINUTE": "0"}}, "geometry": {"type": "Point", "coordinates": [146.9581, -36.0678]}}, {"type": "Feature", "id": "YMDG", "properties": {"elevation": 464.77148, "sname": "Mudgee", "time_domain": "(2013-2022)", "archive_begin": "2013-08-19", "archive_end": "2022-11-15", "state": null, "country": "AU", "climate_site": null, "wfo": null, "tzname": "Australia/Sydney", "ncdc81": null, "ncei91": null, "ugc_county": null, "ugc_zone": null, "county": null, "sid": "YMDG", "network": "AU__ASOS", "online": false, "synop": 9999, "attributes": {"GHCNH_ID": "ASI0000YMDG", "METAR_RESET_MINUTE": "0"}}, "geometry": {"type": "Point", "coordinates": [149.611, -32.5625]}}, {"type": "Feature", "id": "YMEK", "properties": {"elevation": 518.91925, "sname": "Meekatharra", "time_domain": "(2013-2022)", "archive_begin": "2013-08-24", "archive_end": "2022-11-14", "state": null, "country": "AU", "climate_site": null, "wfo": null, "tzname": "Australia/Perth", "ncdc81": null, "ncei91": null, "ugc_county": null, "ugc_zone": null, "county": null, "sid": "YMEK", "network": "AU__ASOS", "online": false, "synop": 9999, "attributes": {"GHCNH_ID": "ASI0000YMEK", "METAR_RESET_MINUTE": "0"}}, "geometry": {"type": "Point", "coordinates": [118.548, -26.6117]}}, {"type": "Feature", "id": "YMEN", "properties": {"elevation": 77.623436, "sname": "Melbourne", "time_domain": "(1947-2022)", "archive_begin": "1947-12-31", "archive_end": "2022-11-15", "state": null, "country": "AU", "climate_site": null, "wfo": null, "tzname": "Australia/Melbourne", "ncdc81": null, "ncei91": null, "ugc_county": null, "ugc_zone": null, "county": null, "sid": "YMEN", "network": "AU__ASOS", "online": false, "synop": 9999, "attributes": {"METAR_RESET_MINUTE": "0"}}, "geometry": {"type": "Point", "coordinates": [144.9019, -37.7281]}}, {"type": "Feature", "id": "YMER", "properties": {"elevation": 3.724618, "sname": "Merimbula", "time_domain": "(2013-2022)", "archive_begin": "2013-08-18", "archive_end": "2022-11-13", "state": null, "country": "AU", "climate_site": null, "wfo": null, "tzname": "Australia/Sydney", "ncdc81": null, "ncei91": null, "ugc_county": null, "ugc_zone": null, "county": null, "sid": "YMER", "network": "AU__ASOS", "online": false, "synop": 9999, "attributes": {"METAR_RESET_MINUTE": "0", "GHCNH_ID": "ASI0000YMER"}}, "geometry": {"type": "Point", "coordinates": [149.901, -36.9086]}}, {"type": "Feature", "id": "YMHB", "properties": {"elevation": 27.0, "sname": "Hobart", "time_domain": "(1958-Now)", "archive_begin": "1958-05-31", "archive_end": null, "state": null, "country": "AU", "climate_site": null, "wfo": null, "tzname": "Australia/Hobart", "ncdc81": null, "ncei91": null, "ugc_county": null, "ugc_zone": null, "county": null, "sid": "YMHB", "network": "AU__ASOS", "online": true, "synop": 99999, "attributes": {"METAR_RESET_MINUTE": "0", "HAS_PHOUR": "1"}}, "geometry": {"type": "Point", "coordinates": [147.5033, -42.8339]}}, {"type": "Feature", "id": "YMIA", "properties": {"elevation": 54.106075, "sname": "Mildura", "time_domain": "(2013-Now)", "archive_begin": "2013-08-18", "archive_end": null, "state": null, "country": "AU", "climate_site": null, "wfo": null, "tzname": "Australia/Melbourne", "ncdc81": null, "ncei91": null, "ugc_county": null, "ugc_zone": null, "county": null, "sid": "YMIA", "network": "AU__ASOS", "online": true, "synop": 9999, "attributes": {"METAR_RESET_MINUTE": "0"}}, "geometry": {"type": "Point", "coordinates": [142.086, -34.2292]}}, {"type": "Feature", "id": "YMLT", "properties": {"elevation": 178.0, "sname": "Launceston", "time_domain": "(1939-Now)", "archive_begin": "1939-03-31", "archive_end": null, "state": null, "country": "AU", "climate_site": null, "wfo": null, "tzname": "Australia/Hobart", "ncdc81": null, "ncei91": null, "ugc_county": null, "ugc_zone": null, "county": null, "sid": "YMLT", "network": "AU__ASOS", "online": true, "synop": 99999, "attributes": {"GHCNH_ID": "ASI0000YMLT", "HAS_PHOUR": "1", "METAR_RESET_MINUTE": "0"}}, "geometry": {"type": "Point", "coordinates": [147.2142, -41.5453]}}, {"type": "Feature", "id": "YMML", "properties": {"elevation": 141.0, "sname": "Melbourne", "time_domain": "(1972-Now)", "archive_begin": "1972-12-31", "archive_end": null, "state": null, "country": "AU", "climate_site": null, "wfo": null, "tzname": "Australia/Melbourne", "ncdc81": null, "ncei91": null, "ugc_county": null, "ugc_zone": null, "county": null, "sid": "YMML", "network": "AU__ASOS", "online": true, "synop": 99999, "attributes": {"METAR_RESET_MINUTE": "0", "HAS_PHOUR": "1"}}, "geometry": {"type": "Point", "coordinates": [144.8321, -37.6655]}}, {"type": "Feature", "id": "YMOR", "properties": {"elevation": 212.2483, "sname": "Moree", "time_domain": "(2013-2022)", "archive_begin": "2013-08-17", "archive_end": "2022-11-15", "state": null, "country": "AU", "climate_site": null, "wfo": null, "tzname": "Australia/Sydney", "ncdc81": null, "ncei91": null, "ugc_county": null, "ugc_zone": null, "county": null, "sid": "YMOR", "network": "AU__ASOS", "online": false, "synop": 9999, "attributes": {"METAR_RESET_MINUTE": "0", "GHCNH_ID": "ASI0000YMOR"}}, "geometry": {"type": "Point", "coordinates": [149.845, -29.4989]}}, {"type": "Feature", "id": "YMTG", "properties": {"elevation": 65.20627, "sname": "Mount Gambier", "time_domain": "(2013-2022)", "archive_begin": "2013-08-16", "archive_end": "2022-11-14", "state": null, "country": "AU", "climate_site": null, "wfo": null, "tzname": "Australia/Adelaide", "ncdc81": null, "ncei91": null, "ugc_county": null, "ugc_zone": null, "county": null, "sid": "YMTG", "network": "AU__ASOS", "online": false, "synop": 9999, "attributes": {"METAR_RESET_MINUTE": "0", "GHCNH_ID": "ASI0000YMTG"}}, "geometry": {"type": "Point", "coordinates": [140.785, -37.7456]}}, {"type": "Feature", "id": "YNAR", "properties": {"elevation": 142.16574, "sname": "Narrandera", "time_domain": "(1969-2022)", "archive_begin": "1969-12-31", "archive_end": "2022-11-15", "state": null, "country": "AU", "climate_site": null, "wfo": null, "tzname": "Australia/Sydney", "ncdc81": null, "ncei91": null, "ugc_county": null, "ugc_zone": null, "county": null, "sid": "YNAR", "network": "AU__ASOS", "online": false, "synop": 9999, "attributes": {"METAR_RESET_MINUTE": "0"}}, "geometry": {"type": "Point", "coordinates": [146.514, -34.705]}}, {"type": "Feature", "id": "YNBR", "properties": {"elevation": 221.38966, "sname": "Narrabri", "time_domain": "(2013-2022)", "archive_begin": "2013-08-23", "archive_end": "2022-11-14", "state": null, "country": "AU", "climate_site": null, "wfo": null, "tzname": "Australia/Sydney", "ncdc81": null, "ncei91": null, "ugc_county": null, "ugc_zone": null, "county": null, "sid": "YNBR", "network": "AU__ASOS", "online": false, "synop": 9999, "attributes": {"METAR_RESET_MINUTE": "0", "GHCNH_ID": "ASI0000YNBR"}}, "geometry": {"type": "Point", "coordinates": [149.827, -30.3192]}}, {"type": "Feature", "id": "YNTN", "properties": {"elevation": 14.693221, "sname": "Normanton", "time_domain": "(2013-2022)", "archive_begin": "2013-09-03", "archive_end": "2022-11-15", "state": null, "country": "AU", "climate_site": null, "wfo": null, "tzname": "Australia/Brisbane", "ncdc81": null, "ncei91": null, "ugc_county": null, "ugc_zone": null, "county": null, "sid": "YNTN", "network": "AU__ASOS", "online": false, "synop": 9999, "attributes": {"GHCNH_ID": "ASI0000YNTN", "METAR_RESET_MINUTE": "0"}}, "geometry": {"type": "Point", "coordinates": [141.0703, -17.6836]}}, {"type": "Feature", "id": "YNWN", "properties": {"elevation": 525.40076, "sname": "Newman", "time_domain": "(2013-Now)", "archive_begin": "2013-08-26", "archive_end": null, "state": null, "country": "AU", "climate_site": null, "wfo": null, "tzname": "Australia/Perth", "ncdc81": null, "ncei91": null, "ugc_county": null, "ugc_zone": null, "county": null, "sid": "YNWN", "network": "AU__ASOS", "online": true, "synop": 9999, "attributes": {"METAR_RESET_MINUTE": "0", "GHCNH_ID": "ASI0000YNWN"}}, "geometry": {"type": "Point", "coordinates": [119.803, -23.4178]}}, {"type": "Feature", "id": "YOLD", "properties": {"elevation": 101.68595, "sname": "Olympic Dam", "time_domain": "(2013-2022)", "archive_begin": "2013-08-20", "archive_end": "2022-11-13", "state": null, "country": "AU", "climate_site": null, "wfo": null, "tzname": "Australia/Adelaide", "ncdc81": null, "ncei91": null, "ugc_county": null, "ugc_zone": null, "county": null, "sid": "YOLD", "network": "AU__ASOS", "online": false, "synop": 9999, "attributes": {"GHCNH_ID": "ASI0000YOLD", "METAR_RESET_MINUTE": "0"}}, "geometry": {"type": "Point", "coordinates": [136.877, -30.485]}}, {"type": "Feature", "id": "YPAD", "properties": {"elevation": 4.0, "sname": "Adelaide", "time_domain": "(1955-Now)", "archive_begin": "1955-02-15", "archive_end": null, "state": null, "country": "AU", "climate_site": null, "wfo": null, "tzname": "Australia/Adelaide", "ncdc81": null, "ncei91": null, "ugc_county": null, "ugc_zone": null, "county": null, "sid": "YPAD", "network": "AU__ASOS", "online": true, "synop": 99999, "attributes": {"HAS_PHOUR": "1", "METAR_RESET_MINUTE": "0"}}, "geometry": {"type": "Point", "coordinates": [138.5204, -34.9524]}}, {"type": "Feature", "id": "YPBO", "properties": {"elevation": 425.75925, "sname": "Paraburdoo", "time_domain": "(2013-2022)", "archive_begin": "2013-08-24", "archive_end": "2022-11-14", "state": null, "country": "AU", "climate_site": null, "wfo": null, "tzname": "Australia/Perth", "ncdc81": null, "ncei91": null, "ugc_county": null, "ugc_zone": null, "county": null, "sid": "YPBO", "network": "AU__ASOS", "online": false, "synop": 9999, "attributes": {"GHCNH_ID": "ASI0000YPBO", "METAR_RESET_MINUTE": "0"}}, "geometry": {"type": "Point", "coordinates": [117.745, -23.1711]}}, {"type": "Feature", "id": "YPCC", "properties": {"elevation": 3.0, "sname": "Cocos Keeling Island", "time_domain": "(1949-Now)", "archive_begin": "1949-01-03", "archive_end": null, "state": null, "country": "AU", "climate_site": null, "wfo": null, "tzname": "Indian/Christmas", "ncdc81": null, "ncei91": null, "ugc_county": null, "ugc_zone": null, "county": null, "sid": "YPCC", "network": "AU__ASOS", "online": true, "synop": 99999, "attributes": {"METAR_RESET_MINUTE": "0", "HAS_PHOUR": "1"}}, "geometry": {"type": "Point", "coordinates": [96.8344, -12.1892]}}, {"type": "Feature", "id": "YPDN", "properties": {"elevation": 30.0, "sname": "Darwin", "time_domain": "(1941-Now)", "archive_begin": "1941-01-31", "archive_end": null, "state": null, "country": "AU", "climate_site": null, "wfo": null, "tzname": "Australia/Darwin", "ncdc81": null, "ncei91": null, "ugc_county": null, "ugc_zone": null, "county": null, "sid": "YPDN", "network": "AU__ASOS", "online": true, "synop": 99999, "attributes": {"HAS_PHOUR": "1", "METAR_RESET_MINUTE": "0"}}, "geometry": {"type": "Point", "coordinates": [130.8926, -12.424]}}, {"type": "Feature", "id": "YPEA", "properties": {"elevation": 49.0, "sname": "Perth", "time_domain": "(1940-Now)", "archive_begin": "1940-11-01", "archive_end": null, "state": null, "country": "AU", "climate_site": null, "wfo": null, "tzname": "Australia/Perth", "ncdc81": null, "ncei91": null, "ugc_county": null, "ugc_zone": null, "county": null, "sid": "YPEA", "network": "AU__ASOS", "online": true, "synop": 99999, "attributes": {"METAR_RESET_MINUTE": "0", "HAS_PHOUR": "1"}}, "geometry": {"type": "Point", "coordinates": [116.0167, -31.6667]}}, {"type": "Feature", "id": "YPGV", "properties": {"elevation": 55.0, "sname": "Gove", "time_domain": "(2003-Now)", "archive_begin": "2003-10-21", "archive_end": null, "state": null, "country": "AU", "climate_site": null, "wfo": null, "tzname": "Australia/Darwin", "ncdc81": null, "ncei91": null, "ugc_county": null, "ugc_zone": null, "county": null, "sid": "YPGV", "network": "AU__ASOS", "online": true, "synop": 99999, "attributes": {"GHCNH_ID": "ASI0000YPGV", "HAS_PHOUR": "1", "METAR_RESET_MINUTE": "0"}}, "geometry": {"type": "Point", "coordinates": [136.8183, -12.2694]}}, {"type": "Feature", "id": "YPJT", "properties": {"elevation": 30.0, "sname": "Perth", "time_domain": "(1990-Now)", "archive_begin": "1990-02-06", "archive_end": null, "state": null, "country": "AU", "climate_site": null, "wfo": null, "tzname": "Australia/Perth", "ncdc81": null, "ncei91": null, "ugc_county": null, "ugc_zone": null, "county": null, "sid": "YPJT", "network": "AU__ASOS", "online": true, "synop": 99999, "attributes": {"METAR_RESET_MINUTE": "0", "HAS_PHOUR": "1"}}, "geometry": {"type": "Point", "coordinates": [115.8794, -32.1011]}}, {"type": "Feature", "id": "YPKA", "properties": {"elevation": 11.0, "sname": "Karratha", "time_domain": "(2026-Now)", "archive_begin": "2026-07-06", "archive_end": null, "state": "  ", "country": "AU", "climate_site": null, "wfo": null, "tzname": "Australia/Perth", "ncdc81": null, "ncei91": null, "ugc_county": null, "ugc_zone": null, "county": null, "sid": "YPKA", "network": "AU__ASOS", "online": true, "synop": null, "attributes": {"": ""}}, "geometry": {"type": "Point", "coordinates": [116.77, -20.712]}}, {"type": "Feature", "id": "YPKG", "properties": {"elevation": 360.0, "sname": "Kalgoorlie", "time_domain": "(1939-Now)", "archive_begin": "1939-03-21", "archive_end": null, "state": null, "country": "AU", "climate_site": null, "wfo": null, "tzname": "Australia/Perth", "ncdc81": null, "ncei91": null, "ugc_county": null, "ugc_zone": null, "county": null, "sid": "YPKG", "network": "AU__ASOS", "online": true, "synop": 99999, "attributes": {"METAR_RESET_MINUTE": "0", "HAS_PHOUR": "1"}}, "geometry": {"type": "Point", "coordinates": [121.4533, -30.7847]}}, {"type": "Feature", "id": "YPKU", "properties": {"elevation": 45.0, "sname": "Kununurra", "time_domain": "(1990-Now)", "archive_begin": "1990-01-31", "archive_end": null, "state": null, "country": "AU", "climate_site": null, "wfo": null, "tzname": "Australia/Perth", "ncdc81": null, "ncei91": null, "ugc_county": null, "ugc_zone": null, "county": null, "sid": "YPKU", "network": "AU__ASOS", "online": true, "synop": 99999, "attributes": {"METAR_RESET_MINUTE": "0", "GHCNH_ID": "ASI0000YPKU", "HAS_PHOUR": "1"}}, "geometry": {"type": "Point", "coordinates": [128.71, -15.7814]}}, {"type": "Feature", "id": "YPLM", "properties": {"elevation": 6.0, "sname": "Learmonth", "time_domain": "(1975-Now)", "archive_begin": "1975-02-28", "archive_end": null, "state": null, "country": "AU", "climate_site": null, "wfo": null, "tzname": "Australia/Perth", "ncdc81": null, "ncei91": null, "ugc_county": null, "ugc_zone": null, "county": null, "sid": "YPLM", "network": "AU__ASOS", "online": true, "synop": 99999, "attributes": {"METAR_RESET_MINUTE": "0", "HAS_PHOUR": "1"}}, "geometry": {"type": "Point", "coordinates": [114.0967, -22.2406]}}, {"type": "Feature", "id": "YPMQ", "properties": {"elevation": 2.890413, "sname": "Port Macquarie", "time_domain": "(2013-2022)", "archive_begin": "2013-08-21", "archive_end": "2022-11-13", "state": null, "country": "AU", "climate_site": null, "wfo": null, "tzname": "Australia/Sydney", "ncdc81": null, "ncei91": null, "ugc_county": null, "ugc_zone": null, "county": null, "sid": "YPMQ", "network": "AU__ASOS", "online": false, "synop": 9999, "attributes": {"GHCNH_ID": "ASI0000YPMQ", "METAR_RESET_MINUTE": "0"}}, "geometry": {"type": "Point", "coordinates": [152.863, -31.4358]}}, {"type": "Feature", "id": "YPPD", "properties": {"elevation": 6.0, "sname": "Port Hedland", "time_domain": "(1942-Now)", "archive_begin": "1942-07-17", "archive_end": null, "state": null, "country": "AU", "climate_site": null, "wfo": null, "tzname": "Australia/Perth", "ncdc81": null, "ncei91": null, "ugc_county": null, "ugc_zone": null, "county": null, "sid": "YPPD", "network": "AU__ASOS", "online": true, "synop": 99999, "attributes": {"HAS_PHOUR": "1", "METAR_RESET_MINUTE": "0"}}, "geometry": {"type": "Point", "coordinates": [118.6317, -20.3725]}}, {"type": "Feature", "id": "YPPH", "properties": {"elevation": 13.0, "sname": "Perth", "time_domain": "(1947-Now)", "archive_begin": "1947-12-31", "archive_end": null, "state": null, "country": "AU", "climate_site": null, "wfo": null, "tzname": "Australia/Perth", "ncdc81": null, "ncei91": null, "ugc_county": null, "ugc_zone": null, "county": null, "sid": "YPPH", "network": "AU__ASOS", "online": true, "synop": 99999, "attributes": {"METAR_RESET_MINUTE": "0", "HAS_PHOUR": "1"}}, "geometry": {"type": "Point", "coordinates": [115.9761, -31.9275]}}, {"type": "Feature", "id": "YPTN", "properties": {"elevation": 109.0, "sname": "Katherine", "time_domain": "(1990-Now)", "archive_begin": "1990-09-04", "archive_end": null, "state": null, "country": "AU", "climate_site": null, "wfo": null, "tzname": "Australia/Darwin", "ncdc81": null, "ncei91": null, "ugc_county": null, "ugc_zone": null, "county": null, "sid": "YPTN", "network": "AU__ASOS", "online": true, "synop": 99999, "attributes": {"METAR_RESET_MINUTE": "0", "HAS_PHOUR": "1"}}, "geometry": {"type": "Point", "coordinates": [132.3826, -14.5229]}}, {"type": "Feature", "id": "YPWR", "properties": {"elevation": 167.0, "sname": "Woomera", "time_domain": "(1949-Now)", "archive_begin": "1949-03-31", "archive_end": null, "state": null, "country": "AU", "climate_site": null, "wfo": null, "tzname": "Australia/Adelaide", "ncdc81": null, "ncei91": null, "ugc_county": null, "ugc_zone": null, "county": null, "sid": "YPWR", "network": "AU__ASOS", "online": true, "synop": 99999, "attributes": {"HAS_PHOUR": "1", "METAR_RESET_MINUTE": "0"}}, "geometry": {"type": "Point", "coordinates": [136.8054, -31.1558]}}, {"type": "Feature", "id": "YPXM", "properties": {"elevation": 259.0, "sname": "Christmas Island", "time_domain": "(1952-Now)", "archive_begin": "1952-09-30", "archive_end": null, "state": null, "country": "AU", "climate_site": null, "wfo": null, "tzname": "Indian/Christmas", "ncdc81": null, "ncei91": null, "ugc_county": null, "ugc_zone": null, "county": null, "sid": "YPXM", "network": "AU__ASOS", "online": true, "synop": 99999, "attributes": {"HAS_PHOUR": "1", "METAR_RESET_MINUTE": "0"}}, "geometry": {"type": "Point", "coordinates": [105.6875, -10.4528]}}, {"type": "Feature", "id": "YRMD", "properties": {"elevation": 207.0102, "sname": "Richmond", "time_domain": "(2001-2022)", "archive_begin": "2001-09-07", "archive_end": "2022-11-14", "state": null, "country": "AU", "climate_site": null, "wfo": null, "tzname": "Australia/Brisbane", "ncdc81": null, "ncei91": null, "ugc_county": null, "ugc_zone": null, "county": null, "sid": "YRMD", "network": "AU__ASOS", "online": false, "synop": 9999, "attributes": {"METAR_RESET_MINUTE": "0", "GHCNH_ID": "ASI0000YRMD"}}, "geometry": {"type": "Point", "coordinates": [143.1167, -20.7017]}}, {"type": "Feature", "id": "YSCB", "properties": {"elevation": 577.0, "sname": "Canberra", "time_domain": "(1939-Now)", "archive_begin": "1939-02-28", "archive_end": null, "state": null, "country": "AU", "climate_site": null, "wfo": null, "tzname": "Australia/Sydney", "ncdc81": null, "ncei91": null, "ugc_county": null, "ugc_zone": null, "county": null, "sid": "YSCB", "network": "AU__ASOS", "online": true, "synop": 99999, "attributes": {"HAS_PHOUR": "1", "METAR_RESET_MINUTE": "0"}}, "geometry": {"type": "Point", "coordinates": [149.2003, -35.3088]}}, {"type": "Feature", "id": "YSDU", "properties": {"elevation": 275.0, "sname": "Dubbo", "time_domain": "(1956-Now)", "archive_begin": "1956-12-31", "archive_end": null, "state": null, "country": "AU", "climate_site": null, "wfo": null, "tzname": "Australia/Sydney", "ncdc81": null, "ncei91": null, "ugc_county": null, "ugc_zone": null, "county": null, "sid": "YSDU", "network": "AU__ASOS", "online": true, "synop": 99999, "attributes": {"METAR_RESET_MINUTE": "0", "HAS_PHOUR": "1"}}, "geometry": {"type": "Point", "coordinates": [148.5747, -32.2167]}}, {"type": "Feature", "id": "YSNF", "properties": {"elevation": 109.0, "sname": "Norfolk Island", "time_domain": "(1947-Now)", "archive_begin": "1947-12-01", "archive_end": null, "state": null, "country": "AU", "climate_site": null, "wfo": null, "tzname": "Pacific/Norfolk", "ncdc81": null, "ncei91": null, "ugc_county": null, "ugc_zone": null, "county": null, "sid": "YSNF", "network": "AU__ASOS", "online": true, "synop": 99999, "attributes": {"METAR_RESET_MINUTE": "0", "GHCNH_ID": "NFI0000YSNF", "HAS_PHOUR": "1"}}, "geometry": {"type": "Point", "coordinates": [167.9408, -29.0389]}}, {"type": "Feature", "id": "YSNW", "properties": {"elevation": 110.0, "sname": "Nowra", "time_domain": "(1955-2022)", "archive_begin": "1955-11-30", "archive_end": "2022-11-15", "state": null, "country": "AU", "climate_site": null, "wfo": null, "tzname": "Australia/Sydney", "ncdc81": null, "ncei91": null, "ugc_county": null, "ugc_zone": null, "county": null, "sid": "YSNW", "network": "AU__ASOS", "online": false, "synop": 99999, "attributes": {"METAR_RESET_MINUTE": "0"}}, "geometry": {"type": "Point", "coordinates": [150.5353, -34.9469]}}, {"type": "Feature", "id": "YSRI", "properties": {"elevation": 21.0, "sname": "Richmond", "time_domain": "(1939-Now)", "archive_begin": "1939-11-30", "archive_end": null, "state": null, "country": "AU", "climate_site": null, "wfo": null, "tzname": "Australia/Sydney", "ncdc81": null, "ncei91": null, "ugc_county": null, "ugc_zone": null, "county": null, "sid": "YSRI", "network": "AU__ASOS", "online": true, "synop": 99999, "attributes": {"GHCNH_ID": "ASI0000YSRI", "METAR_RESET_MINUTE": "0", "HAS_PHOUR": "1"}}, "geometry": {"type": "Point", "coordinates": [150.7808, -33.6006]}}, {"type": "Feature", "id": "YSSY", "properties": {"elevation": 3.0, "sname": "Sydney", "time_domain": "(1943-Now)", "archive_begin": "1943-09-23", "archive_end": null, "state": null, "country": "AU", "climate_site": null, "wfo": null, "tzname": "Australia/Sydney", "ncdc81": null, "ncei91": null, "ugc_county": null, "ugc_zone": null, "county": null, "sid": "YSSY", "network": "AU__ASOS", "online": true, "synop": 99999, "attributes": {"METAR_RESET_MINUTE": "0", "HAS_PHOUR": "1"}}, "geometry": {"type": "Point", "coordinates": [151.1731, -33.9465]}}, {"type": "Feature", "id": "YSTW", "properties": {"elevation": 410.0, "sname": "Tamworth", "time_domain": "(2003-Now)", "archive_begin": "2003-02-20", "archive_end": null, "state": null, "country": "AU", "climate_site": null, "wfo": null, "tzname": "Australia/Sydney", "ncdc81": null, "ncei91": null, "ugc_county": null, "ugc_zone": null, "county": null, "sid": "YSTW", "network": "AU__ASOS", "online": true, "synop": 99999, "attributes": {"HAS_PHOUR": "1", "METAR_RESET_MINUTE": "0"}}, "geometry": {"type": "Point", "coordinates": [150.8467, -31.0839]}}, {"type": "Feature", "id": "YSWG", "properties": {"elevation": 213.0, "sname": "Wagga Wagga", "time_domain": "(1941-2022)", "archive_begin": "1941-08-17", "archive_end": "2022-11-12", "state": null, "country": "AU", "climate_site": null, "wfo": null, "tzname": "Australia/Sydney", "ncdc81": null, "ncei91": null, "ugc_county": null, "ugc_zone": null, "county": null, "sid": "YSWG", "network": "AU__ASOS", "online": false, "synop": 99999, "attributes": {"METAR_RESET_MINUTE": "0"}}, "geometry": {"type": "Point", "coordinates": [147.4573, -35.1583]}}, {"type": "Feature", "id": "YSWS", "properties": {"elevation": 87.0, "sname": "Western Sydney", "time_domain": "(2026-Now)", "archive_begin": "2026-07-08", "archive_end": null, "state": "  ", "country": "AU", "climate_site": null, "wfo": null, "tzname": "Australia/Sydney", "ncdc81": null, "ncei91": null, "ugc_county": null, "ugc_zone": null, "county": null, "sid": "YSWS", "network": "AU__ASOS", "online": true, "synop": null, "attributes": {"": ""}}, "geometry": {"type": "Point", "coordinates": [150.7147, -33.888]}}, {"type": "Feature", "id": "YTEF", "properties": {"elevation": 296.0, "sname": "Telfer", "time_domain": "(2003-2022)", "archive_begin": "2003-02-26", "archive_end": "2022-11-14", "state": null, "country": "AU", "climate_site": null, "wfo": null, "tzname": "Australia/Perth", "ncdc81": null, "ncei91": null, "ugc_county": null, "ugc_zone": null, "county": null, "sid": "YTEF", "network": "AU__ASOS", "online": false, "synop": 99999, "attributes": {"GHCNH_ID": "ASI0000YTEF", "METAR_RESET_MINUTE": "0"}}, "geometry": {"type": "Point", "coordinates": [122.2286, -21.715]}}, {"type": "Feature", "id": "YTNK", "properties": {"elevation": 377.0, "sname": "Tennant Creek", "time_domain": "(2003-2022)", "archive_begin": "2003-02-20", "archive_end": "2022-11-14", "state": null, "country": "AU", "climate_site": null, "wfo": null, "tzname": "Australia/Darwin", "ncdc81": null, "ncei91": null, "ugc_county": null, "ugc_zone": null, "county": null, "sid": "YTNK", "network": "AU__ASOS", "online": false, "synop": 99999, "attributes": {"GHCNH_ID": "ASI0000YTNK", "METAR_RESET_MINUTE": "0"}}, "geometry": {"type": "Point", "coordinates": [134.1833, -19.6333]}}, {"type": "Feature", "id": "YTRE", "properties": {"elevation": 12.0, "sname": "Taree", "time_domain": "(2003-2022)", "archive_begin": "2003-02-20", "archive_end": "2022-11-14", "state": null, "country": "AU", "climate_site": null, "wfo": null, "tzname": "Australia/Sydney", "ncdc81": null, "ncei91": null, "ugc_county": null, "ugc_zone": null, "county": null, "sid": "YTRE", "network": "AU__ASOS", "online": false, "synop": 99999, "attributes": {"METAR_RESET_MINUTE": "0", "GHCNH_ID": "ASI0000YTRE"}}, "geometry": {"type": "Point", "coordinates": [152.5139, -31.8886]}}, {"type": "Feature", "id": "YWGT", "properties": {"elevation": 153.0, "sname": "WANGARATTA", "time_domain": "(2003-2022)", "archive_begin": "2003-02-20", "archive_end": "2022-11-13", "state": null, "country": "AU", "climate_site": null, "wfo": null, "tzname": "Australia/Melbourne", "ncdc81": null, "ncei91": null, "ugc_county": null, "ugc_zone": null, "county": null, "sid": "YWGT", "network": "AU__ASOS", "online": false, "synop": 99999, "attributes": {"GHCNH_ID": "ASI0000YWGT", "METAR_RESET_MINUTE": "0"}}, "geometry": {"type": "Point", "coordinates": [146.3069, -36.4158]}}, {"type": "Feature", "id": "YWHA", "properties": {"elevation": 13.0, "sname": "Whyalla", "time_domain": "(1992-2022)", "archive_begin": "1992-07-31", "archive_end": "2022-11-15", "state": null, "country": "AU", "climate_site": null, "wfo": null, "tzname": "Australia/Adelaide", "ncdc81": null, "ncei91": null, "ugc_county": null, "ugc_zone": null, "county": null, "sid": "YWHA", "network": "AU__ASOS", "online": false, "synop": 99999, "attributes": {"METAR_RESET_MINUTE": "0"}}, "geometry": {"type": "Point", "coordinates": [137.5205, -33.0539]}}, {"type": "Feature", "id": "YWLM", "properties": {"elevation": 9.0, "sname": "Newcastle", "time_domain": "(1942-Now)", "archive_begin": "1942-09-09", "archive_end": null, "state": null, "country": "AU", "climate_site": null, "wfo": null, "tzname": "Australia/Sydney", "ncdc81": null, "ncei91": null, "ugc_county": null, "ugc_zone": null, "county": null, "sid": "YWLM", "network": "AU__ASOS", "online": true, "synop": 99999, "attributes": {"HAS_PHOUR": "1", "METAR_RESET_MINUTE": "0"}}, "geometry": {"type": "Point", "coordinates": [151.8344, -32.795]}}], "generated_at": "2026-08-19T08:51:12Z", "count": 108}