{"type": "FeatureCollection", "features": [{"type": "Feature", "id": "EGAA", "properties": {"elevation": 81.0, "sname": "Belfast", "time_domain": "(1930-Now)", "archive_begin": "1930-02-28", "archive_end": null, "state": null, "country": "GB", "climate_site": null, "wfo": null, "tzname": "Europe/London", "ncdc81": null, "ncei91": null, "ugc_county": null, "ugc_zone": null, "county": null, "sid": "EGAA", "network": "GB__ASOS", "online": true, "synop": 99999, "attributes": {"HAS_PHOUR": "1", "METAR_RESET_MINUTE": "50"}}, "geometry": {"type": "Point", "coordinates": [-6.2258, 54.6633]}}, {"type": "Feature", "id": "EGAC", "properties": {"elevation": 5.0, "sname": "Belfast", "time_domain": "(1973-Now)", "archive_begin": "1973-01-01", "archive_end": null, "state": null, "country": "GB", "climate_site": null, "wfo": null, "tzname": "Europe/London", "ncdc81": null, "ncei91": null, "ugc_county": null, "ugc_zone": null, "county": null, "sid": "EGAC", "network": "GB__ASOS", "online": true, "synop": 99999, "attributes": {"METAR_RESET_MINUTE": "50", "HAS_PHOUR": "1", "GHCNH_ID": "UKI0000EGAC"}}, "geometry": {"type": "Point", "coordinates": [-5.8735, 54.6135]}}, {"type": "Feature", "id": "EGAE", "properties": {"elevation": 9.0, "sname": "Londonderry", "time_domain": "(1990-Now)", "archive_begin": "1990-04-24", "archive_end": null, "state": null, "country": "GB", "climate_site": null, "wfo": null, "tzname": "Europe/London", "ncdc81": null, "ncei91": null, "ugc_county": null, "ugc_zone": null, "county": null, "sid": "EGAE", "network": "GB__ASOS", "online": true, "synop": 99999, "attributes": {"METAR_RESET_MINUTE": "50", "HAS_PHOUR": "1"}}, "geometry": {"type": "Point", "coordinates": [-7.1611, 55.0428]}}, {"type": "Feature", "id": "EGBB", "properties": {"elevation": 99.0, "sname": "Birmingham", "time_domain": "(1972-Now)", "archive_begin": "1972-12-31", "archive_end": null, "state": null, "country": "GB", "climate_site": null, "wfo": null, "tzname": "Europe/London", "ncdc81": null, "ncei91": null, "ugc_county": null, "ugc_zone": null, "county": null, "sid": "EGBB", "network": "GB__ASOS", "online": true, "synop": 99999, "attributes": {"HAS_PHOUR": "1", "METAR_RESET_MINUTE": "50"}}, "geometry": {"type": "Point", "coordinates": [-1.7576, 52.4602]}}, {"type": "Feature", "id": "EGBE", "properties": {"elevation": 82.0, "sname": "Coventry", "time_domain": "(1988-2017)", "archive_begin": "1988-01-05", "archive_end": "2017-07-18", "state": null, "country": "GB", "climate_site": null, "wfo": null, "tzname": "Europe/London", "ncdc81": null, "ncei91": null, "ugc_county": null, "ugc_zone": null, "county": null, "sid": "EGBE", "network": "GB__ASOS", "online": false, "synop": 99999, "attributes": {"METAR_RESET_MINUTE": "50", "GHCNH_ID": "UKI0000EGBE"}}, "geometry": {"type": "Point", "coordinates": [-1.4797, 52.3697]}}, {"type": "Feature", "id": "EGBJ", "properties": {"elevation": 29.0, "sname": "Gloucestershire", "time_domain": "(1977-Now)", "archive_begin": "1977-10-01", "archive_end": null, "state": "  ", "country": "GB", "climate_site": null, "wfo": null, "tzname": "Europe/London", "ncdc81": null, "ncei91": null, "ugc_county": null, "ugc_zone": null, "county": null, "sid": "EGBJ", "network": "GB__ASOS", "online": true, "synop": null, "attributes": {"GHCNH_ID": "UKI0000EGBJ", "METAR_RESET_MINUTE": "50", "HAS_PHOUR": "1"}}, "geometry": {"type": "Point", "coordinates": [-2.1608, 51.8923]}}, {"type": "Feature", "id": "EGCC", "properties": {"elevation": 78.0, "sname": "Manchester", "time_domain": "(1933-Now)", "archive_begin": "1933-09-30", "archive_end": null, "state": null, "country": "GB", "climate_site": null, "wfo": null, "tzname": "Europe/London", "ncdc81": null, "ncei91": null, "ugc_county": null, "ugc_zone": null, "county": null, "sid": "EGCC", "network": "GB__ASOS", "online": true, "synop": 99999, "attributes": {"HAS_PHOUR": "1", "METAR_RESET_MINUTE": "50", "GHCNH_ID": "UKI0000EGCC"}}, "geometry": {"type": "Point", "coordinates": [-2.275, 53.3537]}}, {"type": "Feature", "id": "EGCK", "properties": {"elevation": 4.0, "sname": "Caernarfon", "time_domain": "(2017-Now)", "archive_begin": "2017-09-30", "archive_end": null, "state": "  ", "country": "GB", "climate_site": null, "wfo": null, "tzname": "Europe/London", "ncdc81": null, "ncei91": null, "ugc_county": null, "ugc_zone": null, "county": null, "sid": "EGCK", "network": "GB__ASOS", "online": true, "synop": null, "attributes": {"HAS_PHOUR": "1", "METAR_RESET_MINUTE": "50", "GHCNH_ID": "UKI0000EGCK"}}, "geometry": {"type": "Point", "coordinates": [-4.3403, 53.1042]}}, {"type": "Feature", "id": "EGCN", "properties": {"elevation": 17.0, "sname": "Doncaster  Sheffield", "time_domain": "(2005-2022)", "archive_begin": "2005-05-07", "archive_end": "2022-11-30", "state": null, "country": "GB", "climate_site": null, "wfo": null, "tzname": "Europe/London", "ncdc81": null, "ncei91": null, "ugc_county": null, "ugc_zone": null, "county": null, "sid": "EGCN", "network": "GB__ASOS", "online": false, "synop": 99999, "attributes": {"METAR_RESET_MINUTE": "50"}}, "geometry": {"type": "Point", "coordinates": [-1.0044, 53.4747]}}, {"type": "Feature", "id": "EGDG", "properties": {"elevation": 102.0, "sname": "Saint Mawgan", "time_domain": "(2000-2008)", "archive_begin": "2000-01-07", "archive_end": "2008-12-01", "state": "  ", "country": "GB", "climate_site": null, "wfo": null, "tzname": "Europe/London", "ncdc81": null, "ncei91": null, "ugc_county": null, "ugc_zone": null, "county": null, "sid": "EGDG", "network": "GB__ASOS", "online": false, "synop": null, "attributes": {"METAR_RESET_MINUTE": "50"}}, "geometry": {"type": "Point", "coordinates": [-4.9976, 50.4385]}}, {"type": "Feature", "id": "EGDL", "properties": {"elevation": 156.0, "sname": "Lyneham", "time_domain": "(1972-2013)", "archive_begin": "1972-12-31", "archive_end": "2013-06-21", "state": null, "country": "GB", "climate_site": null, "wfo": null, "tzname": "Europe/London", "ncdc81": null, "ncei91": null, "ugc_county": null, "ugc_zone": null, "county": null, "sid": "EGDL", "network": "GB__ASOS", "online": false, "synop": 99999, "attributes": {"METAR_RESET_MINUTE": "0"}}, "geometry": {"type": "Point", "coordinates": [-1.9924, 51.5032]}}, {"type": "Feature", "id": "EGDM", "properties": {"elevation": 124.0, "sname": "Boscombe Down", "time_domain": "(1931-Now)", "archive_begin": "1931-01-01", "archive_end": null, "state": null, "country": "GB", "climate_site": null, "wfo": null, "tzname": "Europe/London", "ncdc81": null, "ncei91": null, "ugc_county": null, "ugc_zone": null, "county": null, "sid": "EGDM", "network": "GB__ASOS", "online": true, "synop": 99999, "attributes": {"METAR_RESET_MINUTE": "50", "HAS_PHOUR": "1", "GHCNH_ID": "UKI0000EGDM"}}, "geometry": {"type": "Point", "coordinates": [-1.7546, 51.1618]}}, {"type": "Feature", "id": "EGDR", "properties": {"elevation": 82.0, "sname": "Culdrose", "time_domain": "(1972-Now)", "archive_begin": "1972-12-31", "archive_end": null, "state": null, "country": "GB", "climate_site": null, "wfo": null, "tzname": "Europe/London", "ncdc81": null, "ncei91": null, "ugc_county": null, "ugc_zone": null, "county": null, "sid": "EGDR", "network": "GB__ASOS", "online": true, "synop": 99999, "attributes": {"HAS_PHOUR": "1", "METAR_RESET_MINUTE": "50"}}, "geometry": {"type": "Point", "coordinates": [-5.2571, 50.0843]}}, {"type": "Feature", "id": "EGDX", "properties": {"elevation": 50.0, "sname": "St. Athan", "time_domain": "(2001-2019)", "archive_begin": "2001-07-06", "archive_end": "2019-04-01", "state": null, "country": "GB", "climate_site": null, "wfo": null, "tzname": "Europe/London", "ncdc81": null, "ncei91": null, "ugc_county": null, "ugc_zone": null, "county": null, "sid": "EGDX", "network": "GB__ASOS", "online": false, "synop": 99999, "attributes": {"METAR_RESET_MINUTE": "50", "GHCNH_ID": "UKI0000EGDX"}}, "geometry": {"type": "Point", "coordinates": [-3.4348, 51.4058]}}, {"type": "Feature", "id": "EGDY", "properties": {"elevation": 23.0, "sname": "Yeovilton", "time_domain": "(1972-Now)", "archive_begin": "1972-12-31", "archive_end": null, "state": null, "country": "GB", "climate_site": null, "wfo": null, "tzname": "Europe/London", "ncdc81": null, "ncei91": null, "ugc_county": null, "ugc_zone": null, "county": null, "sid": "EGDY", "network": "GB__ASOS", "online": true, "synop": 99999, "attributes": {"GHCNH_ID": "UKI0000EGDY", "HAS_PHOUR": "1", "METAR_RESET_MINUTE": "50"}}, "geometry": {"type": "Point", "coordinates": [-2.6428, 51.0063]}}, {"type": "Feature", "id": "EGEC", "properties": {"elevation": 13.0, "sname": "Campbeltown", "time_domain": "(1999-Now)", "archive_begin": "1999-01-18", "archive_end": null, "state": null, "country": "GB", "climate_site": null, "wfo": null, "tzname": "Europe/London", "ncdc81": null, "ncei91": null, "ugc_county": null, "ugc_zone": null, "county": null, "sid": "EGEC", "network": "GB__ASOS", "online": true, "synop": 99999, "attributes": {"METAR_RESET_MINUTE": "50", "HAS_PHOUR": "1", "GHCNH_ID": "UKI0000EGEC"}}, "geometry": {"type": "Point", "coordinates": [-5.6864, 55.4372]}}, {"type": "Feature", "id": "EGEO", "properties": {"elevation": 6.0, "sname": "North Connel", "time_domain": "(1978-Now)", "archive_begin": "1978-09-01", "archive_end": null, "state": null, "country": "GB", "climate_site": null, "wfo": null, "tzname": "Europe/London", "ncdc81": null, "ncei91": null, "ugc_county": null, "ugc_zone": null, "county": null, "sid": "EGEO", "network": "GB__ASOS", "online": true, "synop": 99999, "attributes": {"METAR_RESET_MINUTE": "50", "HAS_PHOUR": "1"}}, "geometry": {"type": "Point", "coordinates": [-5.3997, 56.4635]}}, {"type": "Feature", "id": "EGFF", "properties": {"elevation": 67.0, "sname": "Cardiff", "time_domain": "(1972-Now)", "archive_begin": "1972-12-31", "archive_end": null, "state": null, "country": "GB", "climate_site": null, "wfo": null, "tzname": "Europe/London", "ncdc81": null, "ncei91": null, "ugc_county": null, "ugc_zone": null, "county": null, "sid": "EGFF", "network": "GB__ASOS", "online": true, "synop": 99999, "attributes": {"METAR_RESET_MINUTE": "50", "GHCNH_ID": "UKI0000EGFF", "HAS_PHOUR": "1"}}, "geometry": {"type": "Point", "coordinates": [-3.3433, 51.3967]}}, {"type": "Feature", "id": "EGGD", "properties": {"elevation": 189.0, "sname": "Bristol", "time_domain": "(1988-Now)", "archive_begin": "1988-01-05", "archive_end": null, "state": null, "country": "GB", "climate_site": null, "wfo": null, "tzname": "Europe/London", "ncdc81": null, "ncei91": null, "ugc_county": null, "ugc_zone": null, "county": null, "sid": "EGGD", "network": "GB__ASOS", "online": true, "synop": 99999, "attributes": {"HAS_PHOUR": "1", "METAR_RESET_MINUTE": "50"}}, "geometry": {"type": "Point", "coordinates": [-2.7191, 51.3827]}}, {"type": "Feature", "id": "EGGP", "properties": {"elevation": 26.0, "sname": "Liverpool", "time_domain": "(1990-Now)", "archive_begin": "1990-04-24", "archive_end": null, "state": null, "country": "GB", "climate_site": null, "wfo": null, "tzname": "Europe/London", "ncdc81": null, "ncei91": null, "ugc_county": null, "ugc_zone": null, "county": null, "sid": "EGGP", "network": "GB__ASOS", "online": true, "synop": 99999, "attributes": {"METAR_RESET_MINUTE": "50", "HAS_PHOUR": "1"}}, "geometry": {"type": "Point", "coordinates": [-2.85, 53.3333]}}, {"type": "Feature", "id": "EGGW", "properties": {"elevation": 160.0, "sname": "London", "time_domain": "(1972-Now)", "archive_begin": "1972-12-31", "archive_end": null, "state": null, "country": "GB", "climate_site": null, "wfo": null, "tzname": "Europe/London", "ncdc81": null, "ncei91": null, "ugc_county": null, "ugc_zone": null, "county": null, "sid": "EGGW", "network": "GB__ASOS", "online": true, "synop": 99999, "attributes": {"METAR_RESET_MINUTE": "50", "HAS_PHOUR": "1", "GHCNH_ID": "UKI0000EGGW"}}, "geometry": {"type": "Point", "coordinates": [-0.3683, 51.8747]}}, {"type": "Feature", "id": "EGHC", "properties": {"elevation": 117.96032, "sname": "Land's End", "time_domain": "(1973-Now)", "archive_begin": "1973-03-07", "archive_end": null, "state": "  ", "country": "GB", "climate_site": null, "wfo": null, "tzname": "Europe/London", "ncdc81": null, "ncei91": null, "ugc_county": null, "ugc_zone": null, "county": null, "sid": "EGHC", "network": "GB__ASOS", "online": true, "synop": null, "attributes": {"METAR_RESET_MINUTE": "50", "GHCNH_ID": "UKI0000EGHC", "HAS_PHOUR": "1"}}, "geometry": {"type": "Point", "coordinates": [-5.6706, 50.1028]}}, {"type": "Feature", "id": "EGHD", "properties": {"elevation": 25.0, "sname": "Plymouth", "time_domain": "(1988-2012)", "archive_begin": "1988-03-18", "archive_end": "2012-01-04", "state": null, "country": "GB", "climate_site": null, "wfo": null, "tzname": "Europe/London", "ncdc81": null, "ncei91": null, "ugc_county": null, "ugc_zone": null, "county": null, "sid": "EGHD", "network": "GB__ASOS", "online": false, "synop": 99999, "attributes": {"GHCNH_ID": "UKI0000EGHD", "METAR_RESET_MINUTE": "50"}}, "geometry": {"type": "Point", "coordinates": [-4.1097, 50.4228]}}, {"type": "Feature", "id": "EGHE", "properties": {"elevation": 31.0, "sname": "SCILLY/ST.MARYS", "time_domain": "(1928-Now)", "archive_begin": "1928-01-01", "archive_end": null, "state": null, "country": "GB", "climate_site": null, "wfo": null, "tzname": "Europe/London", "ncdc81": null, "ncei91": null, "ugc_county": null, "ugc_zone": null, "county": null, "sid": "EGHE", "network": "GB__ASOS", "online": true, "synop": 99999, "attributes": {"METAR_RESET_MINUTE": "50", "GHCNH_ID": "UKI0000EGHE", "HAS_PHOUR": "1"}}, "geometry": {"type": "Point", "coordinates": [-6.2958, 49.9144]}}, {"type": "Feature", "id": "EGHH", "properties": {"elevation": 11.0, "sname": "Bournemouth", "time_domain": "(1972-Now)", "archive_begin": "1972-12-31", "archive_end": null, "state": null, "country": "GB", "climate_site": null, "wfo": null, "tzname": "Europe/London", "ncdc81": null, "ncei91": null, "ugc_county": null, "ugc_zone": null, "county": null, "sid": "EGHH", "network": "GB__ASOS", "online": true, "synop": 99999, "attributes": {"METAR_RESET_MINUTE": "50", "GHCNH_ID": "UKI0000EGHH", "HAS_PHOUR": "1"}}, "geometry": {"type": "Point", "coordinates": [-1.8362, 50.7794]}}, {"type": "Feature", "id": "EGHI", "properties": {"elevation": 10.719363, "sname": "Southampton", "time_domain": "(1972-Now)", "archive_begin": "1972-12-31", "archive_end": null, "state": "  ", "country": "GB", "climate_site": null, "wfo": null, "tzname": "Europe/London", "ncdc81": null, "ncei91": null, "ugc_county": null, "ugc_zone": null, "county": null, "sid": "EGHI", "network": "GB__ASOS", "online": true, "synop": null, "attributes": {"METAR_RESET_MINUTE": "50", "HAS_PHOUR": "1", "GHCNH_ID": "UKI0000EGHI"}}, "geometry": {"type": "Point", "coordinates": [-1.3561, 50.955]}}, {"type": "Feature", "id": "EGHK", "properties": {"elevation": 4.0, "sname": "Penzance", "time_domain": "(2005-2012)", "archive_begin": "2005-01-05", "archive_end": "2012-10-31", "state": null, "country": "GB", "climate_site": null, "wfo": null, "tzname": "Europe/London", "ncdc81": null, "ncei91": null, "ugc_county": null, "ugc_zone": null, "county": null, "sid": "EGHK", "network": "GB__ASOS", "online": false, "synop": 99999, "attributes": {"GHCNH_ID": "UKI0000EGHK", "METAR_RESET_MINUTE": "50"}}, "geometry": {"type": "Point", "coordinates": [-5.5186, 50.1282]}}, {"type": "Feature", "id": "EGHQ", "properties": {"elevation": 119.0, "sname": "Newquai", "time_domain": "(2010-Now)", "archive_begin": "2010-08-03", "archive_end": null, "state": null, "country": "GB", "climate_site": null, "wfo": null, "tzname": "Europe/London", "ncdc81": null, "ncei91": null, "ugc_county": null, "ugc_zone": null, "county": null, "sid": "EGHQ", "network": "GB__ASOS", "online": true, "synop": 99999, "attributes": {"METAR_RESET_MINUTE": "50", "GHCNH_ID": "UKI0000EGHQ", "HAS_PHOUR": "1"}}, "geometry": {"type": "Point", "coordinates": [-4.9954, 50.4406]}}, {"type": "Feature", "id": "EGJA", "properties": {"elevation": 71.0, "sname": "Alderney", "time_domain": "(1987-Now)", "archive_begin": "1987-06-29", "archive_end": null, "state": null, "country": "GB", "climate_site": null, "wfo": null, "tzname": "Europe/London", "ncdc81": null, "ncei91": null, "ugc_county": null, "ugc_zone": null, "county": null, "sid": "EGJA", "network": "GB__ASOS", "online": true, "synop": 99999, "attributes": {"HAS_PHOUR": "1", "GHCNH_ID": "GKI0000EGJA", "METAR_RESET_MINUTE": "50"}}, "geometry": {"type": "Point", "coordinates": [-2.2147, 49.7061]}}, {"type": "Feature", "id": "EGJB", "properties": {"elevation": 102.0, "sname": "Guernsey", "time_domain": "(1929-Now)", "archive_begin": "1929-09-30", "archive_end": null, "state": null, "country": "GB", "climate_site": null, "wfo": null, "tzname": "Europe/Guernsey", "ncdc81": null, "ncei91": null, "ugc_county": null, "ugc_zone": null, "county": null, "sid": "EGJB", "network": "GB__ASOS", "online": true, "synop": 99999, "attributes": {"METAR_RESET_MINUTE": "50", "GHCNH_ID": "GKI0000EGJB", "HAS_PHOUR": "1"}}, "geometry": {"type": "Point", "coordinates": [-2.5981, 49.4331]}}, {"type": "Feature", "id": "EGJJ", "properties": {"elevation": 84.0, "sname": "Jersey", "time_domain": "(1972-Now)", "archive_begin": "1972-12-31", "archive_end": null, "state": null, "country": "GB", "climate_site": null, "wfo": null, "tzname": "Europe/Jersey", "ncdc81": null, "ncei91": null, "ugc_county": null, "ugc_zone": null, "county": null, "sid": "EGJJ", "network": "GB__ASOS", "online": true, "synop": 99999, "attributes": {"GHCNH_ID": "JEI0000EGJJ", "HAS_PHOUR": "1", "METAR_RESET_MINUTE": "50"}}, "geometry": {"type": "Point", "coordinates": [-2.1943, 49.2096]}}, {"type": "Feature", "id": "EGKA", "properties": {"elevation": 2.0, "sname": "Shoreham By Sea", "time_domain": "(1986-Now)", "archive_begin": "1986-12-01", "archive_end": null, "state": null, "country": "GB", "climate_site": null, "wfo": null, "tzname": "Europe/London", "ncdc81": null, "ncei91": null, "ugc_county": null, "ugc_zone": null, "county": null, "sid": "EGKA", "network": "GB__ASOS", "online": true, "synop": 99999, "attributes": {"GHCNH_ID": "UKI0000EGKA", "METAR_RESET_MINUTE": "50", "HAS_PHOUR": "1"}}, "geometry": {"type": "Point", "coordinates": [-0.2943, 50.8353]}}, {"type": "Feature", "id": "EGKB", "properties": {"elevation": 172.0, "sname": "London - Biggin Hill", "time_domain": "(1988-Now)", "archive_begin": "1988-01-05", "archive_end": null, "state": "  ", "country": "GB", "climate_site": null, "wfo": null, "tzname": "Europe/London", "ncdc81": null, "ncei91": null, "ugc_county": null, "ugc_zone": null, "county": null, "sid": "EGKB", "network": "GB__ASOS", "online": true, "synop": null, "attributes": {"METAR_RESET_MINUTE": "50", "HAS_PHOUR": "1", "GHCNH_ID": "UKI0000EGKB"}}, "geometry": {"type": "Point", "coordinates": [0.0322, 51.329]}}, {"type": "Feature", "id": "EGKK", "properties": {"elevation": 62.0, "sname": "London", "time_domain": "(1972-Now)", "archive_begin": "1972-12-31", "archive_end": null, "state": null, "country": "GB", "climate_site": null, "wfo": null, "tzname": "Europe/London", "ncdc81": null, "ncei91": null, "ugc_county": null, "ugc_zone": null, "county": null, "sid": "EGKK", "network": "GB__ASOS", "online": true, "synop": 99999, "attributes": {"GHCNH_ID": "UKI0000EGKK", "METAR_RESET_MINUTE": "50", "HAS_PHOUR": "1"}}, "geometry": {"type": "Point", "coordinates": [-0.1903, 51.1481]}}, {"type": "Feature", "id": "EGLC", "properties": {"elevation": 5.0, "sname": "London City", "time_domain": "(1988-Now)", "archive_begin": "1988-01-29", "archive_end": null, "state": null, "country": "GB", "climate_site": null, "wfo": null, "tzname": "Europe/London", "ncdc81": null, "ncei91": null, "ugc_county": null, "ugc_zone": null, "county": null, "sid": "EGLC", "network": "GB__ASOS", "online": true, "synop": 99999, "attributes": {"HAS_PHOUR": "1", "METAR_RESET_MINUTE": "50", "GHCNH_ID": "UKI0000EGLC"}}, "geometry": {"type": "Point", "coordinates": [0.0553, 51.5053]}}, {"type": "Feature", "id": "EGLF", "properties": {"elevation": 65.0, "sname": "Farnborough", "time_domain": "(1988-Now)", "archive_begin": "1988-04-30", "archive_end": null, "state": null, "country": "GB", "climate_site": null, "wfo": null, "tzname": "Europe/London", "ncdc81": null, "ncei91": null, "ugc_county": null, "ugc_zone": null, "county": null, "sid": "EGLF", "network": "GB__ASOS", "online": true, "synop": 99999, "attributes": {"GHCNH_ID": "UKI0000EGLF", "METAR_RESET_MINUTE": "50", "HAS_PHOUR": "1"}}, "geometry": {"type": "Point", "coordinates": [-0.7727, 51.28]}}, {"type": "Feature", "id": "EGLL", "properties": {"elevation": 26.786364, "sname": "London", "time_domain": "(1948-Now)", "archive_begin": "1948-11-30", "archive_end": null, "state": null, "country": "GB", "climate_site": null, "wfo": null, "tzname": "Europe/London", "ncdc81": null, "ncei91": null, "ugc_county": null, "ugc_zone": null, "county": null, "sid": "EGLL", "network": "GB__ASOS", "online": true, "synop": null, "attributes": {"METAR_RESET_MINUTE": "50", "HAS_PHOUR": "1"}}, "geometry": {"type": "Point", "coordinates": [-0.4614, 51.4785]}}, {"type": "Feature", "id": "EGMC", "properties": {"elevation": 15.0, "sname": "Southend", "time_domain": "(1988-Now)", "archive_begin": "1988-01-05", "archive_end": null, "state": null, "country": "GB", "climate_site": null, "wfo": null, "tzname": "Europe/London", "ncdc81": null, "ncei91": null, "ugc_county": null, "ugc_zone": null, "county": null, "sid": "EGMC", "network": "GB__ASOS", "online": true, "synop": 99999, "attributes": {"METAR_RESET_MINUTE": "50", "HAS_PHOUR": "1"}}, "geometry": {"type": "Point", "coordinates": [0.6956, 51.5714]}}, {"type": "Feature", "id": "EGMD", "properties": {"elevation": 3.0, "sname": "Lydd", "time_domain": "(1988-Now)", "archive_begin": "1988-01-05", "archive_end": null, "state": null, "country": "GB", "climate_site": null, "wfo": null, "tzname": "Europe/London", "ncdc81": null, "ncei91": null, "ugc_county": null, "ugc_zone": null, "county": null, "sid": "EGMD", "network": "GB__ASOS", "online": true, "synop": 99999, "attributes": {"METAR_RESET_MINUTE": "50", "GHCNH_ID": "UKI0000EGMD", "HAS_PHOUR": "1"}}, "geometry": {"type": "Point", "coordinates": [0.9392, 50.9561]}}, {"type": "Feature", "id": "EGMH", "properties": {"elevation": 55.0, "sname": "Manston", "time_domain": "(1930-2014)", "archive_begin": "1930-02-28", "archive_end": "2014-05-15", "state": null, "country": "GB", "climate_site": null, "wfo": null, "tzname": "Europe/London", "ncdc81": null, "ncei91": null, "ugc_county": null, "ugc_zone": null, "county": null, "sid": "EGMH", "network": "GB__ASOS", "online": false, "synop": 35047, "attributes": {"METAR_RESET_MINUTE": "0"}}, "geometry": {"type": "Point", "coordinates": [1.3461, 51.3422]}}, {"type": "Feature", "id": "EGMW", "properties": {"elevation": -63.0, "sname": "Unknown", "time_domain": "(2016-2017)", "archive_begin": "2016-01-08", "archive_end": "2017-07-31", "state": "  ", "country": "GB", "climate_site": null, "wfo": null, "tzname": "Europe/London", "ncdc81": null, "ncei91": null, "ugc_county": null, "ugc_zone": null, "county": null, "sid": "EGMW", "network": "GB__ASOS", "online": false, "synop": null, "attributes": {"METAR_RESET_MINUTE": "50"}}, "geometry": {"type": "Point", "coordinates": [-1.4941, 56.3592]}}, {"type": "Feature", "id": "EGNC", "properties": {"elevation": 26.0, "sname": "Carlisle", "time_domain": "(1972-2020)", "archive_begin": "1972-12-31", "archive_end": "2020-03-27", "state": null, "country": "GB", "climate_site": null, "wfo": null, "tzname": "Europe/London", "ncdc81": null, "ncei91": null, "ugc_county": null, "ugc_zone": null, "county": null, "sid": "EGNC", "network": "GB__ASOS", "online": false, "synop": 99999, "attributes": {"METAR_RESET_MINUTE": "50"}}, "geometry": {"type": "Point", "coordinates": [-2.8088, 54.9387]}}, {"type": "Feature", "id": "EGNH", "properties": {"elevation": 10.0, "sname": "Blackpool", "time_domain": "(1972-Now)", "archive_begin": "1972-12-31", "archive_end": null, "state": null, "country": "GB", "climate_site": null, "wfo": null, "tzname": "Europe/London", "ncdc81": null, "ncei91": null, "ugc_county": null, "ugc_zone": null, "county": null, "sid": "EGNH", "network": "GB__ASOS", "online": true, "synop": 99999, "attributes": {"GHCNH_ID": "UKI0000EGNH", "HAS_PHOUR": "1", "METAR_RESET_MINUTE": "50"}}, "geometry": {"type": "Point", "coordinates": [-3.0394, 53.7744]}}, {"type": "Feature", "id": "EGNJ", "properties": {"elevation": 31.0, "sname": "Humberside", "time_domain": "(1975-Now)", "archive_begin": "1975-01-09", "archive_end": null, "state": null, "country": "GB", "climate_site": null, "wfo": null, "tzname": "Europe/London", "ncdc81": null, "ncei91": null, "ugc_county": null, "ugc_zone": null, "county": null, "sid": "EGNJ", "network": "GB__ASOS", "online": true, "synop": 99999, "attributes": {"METAR_RESET_MINUTE": "50", "HAS_PHOUR": "1", "GHCNH_ID": "UKI0000EGNJ"}}, "geometry": {"type": "Point", "coordinates": [-0.3508, 53.5744]}}, {"type": "Feature", "id": "EGNM", "properties": {"elevation": 208.0, "sname": "Leeds", "time_domain": "(1988-Now)", "archive_begin": "1988-01-05", "archive_end": null, "state": null, "country": "GB", "climate_site": null, "wfo": null, "tzname": "Europe/London", "ncdc81": null, "ncei91": null, "ugc_county": null, "ugc_zone": null, "county": null, "sid": "EGNM", "network": "GB__ASOS", "online": true, "synop": 99999, "attributes": {"GHCNH_ID": "UKI0000EGNM", "METAR_RESET_MINUTE": "50", "HAS_PHOUR": "1"}}, "geometry": {"type": "Point", "coordinates": [-1.6653, 53.8618]}}, {"type": "Feature", "id": "EGNO", "properties": {"elevation": 17.0, "sname": "Warton", "time_domain": "(2011-Now)", "archive_begin": "2011-11-30", "archive_end": null, "state": null, "country": "GB", "climate_site": null, "wfo": null, "tzname": "Europe/London", "ncdc81": null, "ncei91": null, "ugc_county": null, "ugc_zone": null, "county": null, "sid": "EGNO", "network": "GB__ASOS", "online": true, "synop": 9999, "attributes": {"HAS_PHOUR": "1", "GHCNH_ID": "UKI0000EGNO", "METAR_RESET_MINUTE": "50"}}, "geometry": {"type": "Point", "coordinates": [-2.8831, 53.7451]}}, {"type": "Feature", "id": "EGNR", "properties": {"elevation": 10.0, "sname": "Hawarden", "time_domain": "(1985-Now)", "archive_begin": "1985-09-04", "archive_end": null, "state": null, "country": "GB", "climate_site": null, "wfo": null, "tzname": "Europe/London", "ncdc81": null, "ncei91": null, "ugc_county": null, "ugc_zone": null, "county": null, "sid": "EGNR", "network": "GB__ASOS", "online": true, "synop": 99999, "attributes": {"METAR_RESET_MINUTE": "50", "GHCNH_ID": "UKI0000EGNR", "HAS_PHOUR": "1"}}, "geometry": {"type": "Point", "coordinates": [-2.9872, 53.1747]}}, {"type": "Feature", "id": "EGNS", "properties": {"elevation": 17.0, "sname": "Isle Of Man", "time_domain": "(1972-Now)", "archive_begin": "1972-12-31", "archive_end": null, "state": null, "country": "GB", "climate_site": null, "wfo": null, "tzname": "Europe/Isle_of_Man", "ncdc81": null, "ncei91": null, "ugc_county": null, "ugc_zone": null, "county": null, "sid": "EGNS", "network": "GB__ASOS", "online": true, "synop": 99999, "attributes": {"HAS_PHOUR": "1", "METAR_RESET_MINUTE": "50"}}, "geometry": {"type": "Point", "coordinates": [-4.6333, 54.0833]}}, {"type": "Feature", "id": "EGNT", "properties": {"elevation": 81.0, "sname": "Newcastle", "time_domain": "(1988-Now)", "archive_begin": "1988-01-05", "archive_end": null, "state": null, "country": "GB", "climate_site": null, "wfo": null, "tzname": "Europe/London", "ncdc81": null, "ncei91": null, "ugc_county": null, "ugc_zone": null, "county": null, "sid": "EGNT", "network": "GB__ASOS", "online": true, "synop": 99999, "attributes": {"METAR_RESET_MINUTE": "50", "HAS_PHOUR": "1"}}, "geometry": {"type": "Point", "coordinates": [-1.6917, 55.0375]}}, {"type": "Feature", "id": "EGNV", "properties": {"elevation": 37.0, "sname": "Teesside", "time_domain": "(1973-Now)", "archive_begin": "1973-01-01", "archive_end": null, "state": null, "country": "GB", "climate_site": null, "wfo": null, "tzname": "Europe/London", "ncdc81": null, "ncei91": null, "ugc_county": null, "ugc_zone": null, "county": null, "sid": "EGNV", "network": "GB__ASOS", "online": true, "synop": 99999, "attributes": {"METAR_RESET_MINUTE": "50", "GHCNH_ID": "UKI0000EGNV", "HAS_PHOUR": "1"}}, "geometry": {"type": "Point", "coordinates": [-1.4294, 54.5092]}}, {"type": "Feature", "id": "EGNX", "properties": {"elevation": 94.0, "sname": "East Midlands", "time_domain": "(1972-Now)", "archive_begin": "1972-12-31", "archive_end": null, "state": null, "country": "GB", "climate_site": null, "wfo": null, "tzname": "Europe/London", "ncdc81": null, "ncei91": null, "ugc_county": null, "ugc_zone": null, "county": null, "sid": "EGNX", "network": "GB__ASOS", "online": true, "synop": 99999, "attributes": {"METAR_RESET_MINUTE": "50", "HAS_PHOUR": "1"}}, "geometry": {"type": "Point", "coordinates": [-1.3281, 52.8311]}}, {"type": "Feature", "id": "EGOM", "properties": {"elevation": 325.0, "sname": "Spadeadam", "time_domain": "(1992-Now)", "archive_begin": "1992-09-11", "archive_end": null, "state": null, "country": "GB", "climate_site": null, "wfo": null, "tzname": "Europe/London", "ncdc81": null, "ncei91": null, "ugc_county": null, "ugc_zone": null, "county": null, "sid": "EGOM", "network": "GB__ASOS", "online": true, "synop": 99999, "attributes": {"HAS_PHOUR": "1", "METAR_RESET_MINUTE": "50"}}, "geometry": {"type": "Point", "coordinates": [-2.55, 55.05]}}, {"type": "Feature", "id": "EGOP", "properties": {"elevation": 6.0, "sname": "PEMBRY SANDS", "time_domain": "(1993-Now)", "archive_begin": "1993-02-28", "archive_end": null, "state": null, "country": "GB", "climate_site": null, "wfo": null, "tzname": "Europe/London", "ncdc81": null, "ncei91": null, "ugc_county": null, "ugc_zone": null, "county": null, "sid": "EGOP", "network": "GB__ASOS", "online": true, "synop": 99999, "attributes": {"METAR_RESET_MINUTE": "50", "HAS_PHOUR": "1", "GHCNH_ID": "UKI0000EGOP"}}, "geometry": {"type": "Point", "coordinates": [-4.3667, 51.7167]}}, {"type": "Feature", "id": "EGOS", "properties": {"elevation": 76.0, "sname": "Shawbury", "time_domain": "(1972-Now)", "archive_begin": "1972-12-31", "archive_end": null, "state": null, "country": "GB", "climate_site": null, "wfo": null, "tzname": "Europe/London", "ncdc81": null, "ncei91": null, "ugc_county": null, "ugc_zone": null, "county": null, "sid": "EGOS", "network": "GB__ASOS", "online": true, "synop": 99999, "attributes": {"METAR_RESET_MINUTE": "50", "GHCNH_ID": "UKI0000EGOS", "HAS_PHOUR": "1"}}, "geometry": {"type": "Point", "coordinates": [-2.6647, 52.7947]}}, {"type": "Feature", "id": "EGOV", "properties": {"elevation": 11.0, "sname": "Angelsey", "time_domain": "(1928-Now)", "archive_begin": "1928-01-01", "archive_end": null, "state": null, "country": "GB", "climate_site": null, "wfo": null, "tzname": "Europe/London", "ncdc81": null, "ncei91": null, "ugc_county": null, "ugc_zone": null, "county": null, "sid": "EGOV", "network": "GB__ASOS", "online": true, "synop": 99999, "attributes": {"HAS_PHOUR": "1", "METAR_RESET_MINUTE": "50", "GHCNH_ID": "UKI0000EGOV"}}, "geometry": {"type": "Point", "coordinates": [-4.5365, 53.2527]}}, {"type": "Feature", "id": "EGOW", "properties": {"elevation": 12.0, "sname": "Woodvale", "time_domain": "(2005-Now)", "archive_begin": "2005-06-20", "archive_end": null, "state": null, "country": "GB", "climate_site": null, "wfo": null, "tzname": "Europe/London", "ncdc81": null, "ncei91": null, "ugc_county": null, "ugc_zone": null, "county": null, "sid": "EGOW", "network": "GB__ASOS", "online": true, "synop": 99999, "attributes": {"GHCNH_ID": "UKI0000EGOW", "METAR_RESET_MINUTE": "50", "HAS_PHOUR": "1"}}, "geometry": {"type": "Point", "coordinates": [-3.0555, 53.5816]}}, {"type": "Feature", "id": "EGPA", "properties": {"elevation": 21.0, "sname": "Kirkwall", "time_domain": "(1972-Now)", "archive_begin": "1972-12-31", "archive_end": null, "state": null, "country": "GB", "climate_site": null, "wfo": null, "tzname": "Europe/London", "ncdc81": null, "ncei91": null, "ugc_county": null, "ugc_zone": null, "county": null, "sid": "EGPA", "network": "GB__ASOS", "online": true, "synop": 99999, "attributes": {"METAR_RESET_MINUTE": "50", "HAS_PHOUR": "1"}}, "geometry": {"type": "Point", "coordinates": [-2.9014, 58.9536]}}, {"type": "Feature", "id": "EGPB", "properties": {"elevation": 5.0, "sname": "Sumburgh", "time_domain": "(1977-Now)", "archive_begin": "1977-01-19", "archive_end": null, "state": null, "country": "GB", "climate_site": null, "wfo": null, "tzname": "Europe/London", "ncdc81": null, "ncei91": null, "ugc_county": null, "ugc_zone": null, "county": null, "sid": "EGPB", "network": "GB__ASOS", "online": true, "synop": 99999, "attributes": {"METAR_RESET_MINUTE": "50", "HAS_PHOUR": "1"}}, "geometry": {"type": "Point", "coordinates": [-1.2956, 59.8789]}}, {"type": "Feature", "id": "EGPC", "properties": {"elevation": 39.0, "sname": "Wick", "time_domain": "(1929-Now)", "archive_begin": "1929-09-30", "archive_end": null, "state": null, "country": "GB", "climate_site": null, "wfo": null, "tzname": "Europe/London", "ncdc81": null, "ncei91": null, "ugc_county": null, "ugc_zone": null, "county": null, "sid": "EGPC", "network": "GB__ASOS", "online": true, "synop": 99999, "attributes": {"HAS_PHOUR": "1", "METAR_RESET_MINUTE": "50"}}, "geometry": {"type": "Point", "coordinates": [-3.0931, 58.4589]}}, {"type": "Feature", "id": "EGPD", "properties": {"elevation": 65.0, "sname": "Aberdeen", "time_domain": "(1928-Now)", "archive_begin": "1928-01-01", "archive_end": null, "state": null, "country": "GB", "climate_site": null, "wfo": null, "tzname": "Europe/London", "ncdc81": null, "ncei91": null, "ugc_county": null, "ugc_zone": null, "county": null, "sid": "EGPD", "network": "GB__ASOS", "online": true, "synop": 99999, "attributes": {"HAS_PHOUR": "1", "METAR_RESET_MINUTE": "50", "GHCNH_ID": "UKI0000EGPD"}}, "geometry": {"type": "Point", "coordinates": [-2.2053, 57.2049]}}, {"type": "Feature", "id": "EGPE", "properties": {"elevation": 9.0, "sname": "Inverness", "time_domain": "(1973-Now)", "archive_begin": "1973-01-02", "archive_end": null, "state": null, "country": "GB", "climate_site": null, "wfo": null, "tzname": "Europe/London", "ncdc81": null, "ncei91": null, "ugc_county": null, "ugc_zone": null, "county": null, "sid": "EGPE", "network": "GB__ASOS", "online": true, "synop": 99999, "attributes": {"HAS_PHOUR": "1", "METAR_RESET_MINUTE": "50"}}, "geometry": {"type": "Point", "coordinates": [-4.0475, 57.5425]}}, {"type": "Feature", "id": "EGPF", "properties": {"elevation": 8.0, "sname": "Glasgow", "time_domain": "(1929-Now)", "archive_begin": "1929-10-01", "archive_end": null, "state": null, "country": "GB", "climate_site": null, "wfo": null, "tzname": "Europe/London", "ncdc81": null, "ncei91": null, "ugc_county": null, "ugc_zone": null, "county": null, "sid": "EGPF", "network": "GB__ASOS", "online": true, "synop": 99999, "attributes": {"HAS_PHOUR": "1", "METAR_RESET_MINUTE": "50"}}, "geometry": {"type": "Point", "coordinates": [-4.4331, 55.8719]}}, {"type": "Feature", "id": "EGPH", "properties": {"elevation": 41.0, "sname": "Edinburgh", "time_domain": "(1972-Now)", "archive_begin": "1972-12-31", "archive_end": null, "state": null, "country": "GB", "climate_site": null, "wfo": null, "tzname": "Europe/London", "ncdc81": null, "ncei91": null, "ugc_county": null, "ugc_zone": null, "county": null, "sid": "EGPH", "network": "GB__ASOS", "online": true, "synop": 99999, "attributes": {"METAR_RESET_MINUTE": "50", "HAS_PHOUR": "1"}}, "geometry": {"type": "Point", "coordinates": [-3.35, 55.95]}}, {"type": "Feature", "id": "EGPI", "properties": {"elevation": 18.0, "sname": "Islay", "time_domain": "(1988-Now)", "archive_begin": "1988-01-07", "archive_end": null, "state": null, "country": "GB", "climate_site": null, "wfo": null, "tzname": "Europe/London", "ncdc81": null, "ncei91": null, "ugc_county": null, "ugc_zone": null, "county": null, "sid": "EGPI", "network": "GB__ASOS", "online": true, "synop": 99999, "attributes": {"HAS_PHOUR": "1", "METAR_RESET_MINUTE": "50", "GHCNH_ID": "UKI0000EGPI"}}, "geometry": {"type": "Point", "coordinates": [-6.2567, 55.6819]}}, {"type": "Feature", "id": "EGPK", "properties": {"elevation": 20.0, "sname": "Prestwick", "time_domain": "(1943-Now)", "archive_begin": "1943-12-31", "archive_end": null, "state": null, "country": "GB", "climate_site": null, "wfo": null, "tzname": "Europe/London", "ncdc81": null, "ncei91": null, "ugc_county": null, "ugc_zone": null, "county": null, "sid": "EGPK", "network": "GB__ASOS", "online": true, "synop": 99999, "attributes": {"HAS_PHOUR": "1", "METAR_RESET_MINUTE": "50"}}, "geometry": {"type": "Point", "coordinates": [-4.5867, 55.5094]}}, {"type": "Feature", "id": "EGPL", "properties": {"elevation": 6.0, "sname": "Benbecula", "time_domain": "(1972-Now)", "archive_begin": "1972-12-31", "archive_end": null, "state": null, "country": "GB", "climate_site": null, "wfo": null, "tzname": "Europe/London", "ncdc81": null, "ncei91": null, "ugc_county": null, "ugc_zone": null, "county": null, "sid": "EGPL", "network": "GB__ASOS", "online": true, "synop": 99999, "attributes": {"GHCNH_ID": "UKI0000EGPL", "HAS_PHOUR": "1", "METAR_RESET_MINUTE": "50"}}, "geometry": {"type": "Point", "coordinates": [-7.3628, 57.4811]}}, {"type": "Feature", "id": "EGPM", "properties": {"elevation": 22.0, "sname": "Scatsta", "time_domain": "(1981-2020)", "archive_begin": "1981-10-15", "archive_end": "2020-07-01", "state": null, "country": "GB", "climate_site": null, "wfo": null, "tzname": "Europe/London", "ncdc81": null, "ncei91": null, "ugc_county": null, "ugc_zone": null, "county": null, "sid": "EGPM", "network": "GB__ASOS", "online": false, "synop": 99999, "attributes": {"GHCNH_ID": "UKI0000EGPM", "METAR_RESET_MINUTE": "50"}}, "geometry": {"type": "Point", "coordinates": [-1.2961, 60.4328]}}, {"type": "Feature", "id": "EGPN", "properties": {"elevation": 4.0, "sname": "Dundee", "time_domain": "(1983-Now)", "archive_begin": "1983-04-04", "archive_end": null, "state": null, "country": "GB", "climate_site": null, "wfo": null, "tzname": "Europe/London", "ncdc81": null, "ncei91": null, "ugc_county": null, "ugc_zone": null, "county": null, "sid": "EGPN", "network": "GB__ASOS", "online": true, "synop": 99999, "attributes": {"METAR_RESET_MINUTE": "50", "HAS_PHOUR": "1", "GHCNH_ID": "UKI0000EGPN"}}, "geometry": {"type": "Point", "coordinates": [-3.0258, 56.4525]}}, {"type": "Feature", "id": "EGPO", "properties": {"elevation": 13.0, "sname": "Stornoway", "time_domain": "(1929-Now)", "archive_begin": "1929-09-30", "archive_end": null, "state": null, "country": "GB", "climate_site": null, "wfo": null, "tzname": "Europe/London", "ncdc81": null, "ncei91": null, "ugc_county": null, "ugc_zone": null, "county": null, "sid": "EGPO", "network": "GB__ASOS", "online": true, "synop": 99999, "attributes": {"METAR_RESET_MINUTE": "50", "GHCNH_ID": "UKI0000EGPO", "HAS_PHOUR": "1"}}, "geometry": {"type": "Point", "coordinates": [-6.3311, 58.2156]}}, {"type": "Feature", "id": "EGPU", "properties": {"elevation": 12.0, "sname": "Tiree", "time_domain": "(1929-Now)", "archive_begin": "1929-10-01", "archive_end": null, "state": null, "country": "GB", "climate_site": null, "wfo": null, "tzname": "Europe/London", "ncdc81": null, "ncei91": null, "ugc_county": null, "ugc_zone": null, "county": null, "sid": "EGPU", "network": "GB__ASOS", "online": true, "synop": 99999, "attributes": {"METAR_RESET_MINUTE": "50", "GHCNH_ID": "UKI0000EGPU", "HAS_PHOUR": "1"}}, "geometry": {"type": "Point", "coordinates": [-6.8806, 56.5]}}, {"type": "Feature", "id": "EGQA", "properties": {"elevation": 4.0, "sname": "TAIN RANGE (SAWS)", "time_domain": "(1989-Now)", "archive_begin": "1989-10-23", "archive_end": null, "state": null, "country": "GB", "climate_site": null, "wfo": null, "tzname": "Europe/London", "ncdc81": null, "ncei91": null, "ugc_county": null, "ugc_zone": null, "county": null, "sid": "EGQA", "network": "GB__ASOS", "online": true, "synop": 99999, "attributes": {"GHCNH_ID": "UKI0000EGQA", "METAR_RESET_MINUTE": "50", "HAS_PHOUR": "1"}}, "geometry": {"type": "Point", "coordinates": [-3.9555, 57.8249]}}, {"type": "Feature", "id": "EGQK", "properties": {"elevation": 7.0, "sname": "Kinloss", "time_domain": "(1972-Now)", "archive_begin": "1972-12-31", "archive_end": null, "state": null, "country": "GB", "climate_site": null, "wfo": null, "tzname": "Europe/London", "ncdc81": null, "ncei91": null, "ugc_county": null, "ugc_zone": null, "county": null, "sid": "EGQK", "network": "GB__ASOS", "online": true, "synop": 99999, "attributes": {"GHCNH_ID": "UKI0000EGQK", "HAS_PHOUR": "1", "METAR_RESET_MINUTE": "50"}}, "geometry": {"type": "Point", "coordinates": [-3.5635, 57.6456]}}, {"type": "Feature", "id": "EGQL", "properties": {"elevation": 12.0, "sname": "Leuchars", "time_domain": "(1929-Now)", "archive_begin": "1929-10-01", "archive_end": null, "state": null, "country": "GB", "climate_site": null, "wfo": null, "tzname": "Europe/London", "ncdc81": null, "ncei91": null, "ugc_county": null, "ugc_zone": null, "county": null, "sid": "EGQL", "network": "GB__ASOS", "online": true, "synop": 99999, "attributes": {"HAS_PHOUR": "1", "GHCNH_ID": "UKI0000EGQL", "METAR_RESET_MINUTE": "50"}}, "geometry": {"type": "Point", "coordinates": [-2.8624, 56.3774]}}, {"type": "Feature", "id": "EGQM", "properties": {"elevation": 23.0, "sname": "BOULMER", "time_domain": "(1975-Now)", "archive_begin": "1975-09-30", "archive_end": null, "state": null, "country": "GB", "climate_site": null, "wfo": null, "tzname": "Europe/London", "ncdc81": null, "ncei91": null, "ugc_county": null, "ugc_zone": null, "county": null, "sid": "EGQM", "network": "GB__ASOS", "online": true, "synop": 99999, "attributes": {"GHCNH_ID": "UKI0000EGQM", "METAR_RESET_MINUTE": "50", "HAS_PHOUR": "1"}}, "geometry": {"type": "Point", "coordinates": [-1.6012, 55.4209]}}, {"type": "Feature", "id": "EGQS", "properties": {"elevation": 13.0, "sname": "Lossiemouth", "time_domain": "(1973-Now)", "archive_begin": "1973-01-03", "archive_end": null, "state": null, "country": "GB", "climate_site": null, "wfo": null, "tzname": "Europe/London", "ncdc81": null, "ncei91": null, "ugc_county": null, "ugc_zone": null, "county": null, "sid": "EGQS", "network": "GB__ASOS", "online": true, "synop": 99999, "attributes": {"METAR_RESET_MINUTE": "50", "HAS_PHOUR": "1"}}, "geometry": {"type": "Point", "coordinates": [-3.3235, 57.7114]}}, {"type": "Feature", "id": "EGSC", "properties": {"elevation": 15.0, "sname": "Cambridge", "time_domain": "(1977-Now)", "archive_begin": "1977-02-01", "archive_end": null, "state": null, "country": "GB", "climate_site": null, "wfo": null, "tzname": "Europe/London", "ncdc81": null, "ncei91": null, "ugc_county": null, "ugc_zone": null, "county": null, "sid": "EGSC", "network": "GB__ASOS", "online": true, "synop": 99999, "attributes": {"GHCNH_ID": "UKI0000EGSC", "HAS_PHOUR": "1", "METAR_RESET_MINUTE": "50"}}, "geometry": {"type": "Point", "coordinates": [0.175, 52.205]}}, {"type": "Feature", "id": "EGSD", "properties": {"elevation": 2.0, "sname": "NORTH DENES AIRPORT", "time_domain": "(2010-2015)", "archive_begin": "2010-07-26", "archive_end": "2015-04-30", "state": null, "country": "GB", "climate_site": null, "wfo": null, "tzname": "Europe/London", "ncdc81": null, "ncei91": null, "ugc_county": null, "ugc_zone": null, "county": null, "sid": "EGSD", "network": "GB__ASOS", "online": false, "synop": 99999, "attributes": {"GHCNH_ID": "UKI0000EGSD", "METAR_RESET_MINUTE": "50"}}, "geometry": {"type": "Point", "coordinates": [1.7228, 52.6344]}}, {"type": "Feature", "id": "EGSH", "properties": {"elevation": 15.0, "sname": "Norwich", "time_domain": "(1987-Now)", "archive_begin": "1987-12-01", "archive_end": null, "state": "  ", "country": "GB", "climate_site": null, "wfo": null, "tzname": "Europe/London", "ncdc81": null, "ncei91": null, "ugc_county": null, "ugc_zone": null, "county": null, "sid": "EGSH", "network": "GB__ASOS", "online": true, "synop": null, "attributes": {"METAR_RESET_MINUTE": "50", "HAS_PHOUR": "1", "GHCNH_ID": "UKI0000EGSH"}}, "geometry": {"type": "Point", "coordinates": [1.2828, 52.6758]}}, {"type": "Feature", "id": "EGSS", "properties": {"elevation": 106.0, "sname": "London", "time_domain": "(1972-Now)", "archive_begin": "1972-12-31", "archive_end": null, "state": null, "country": "GB", "climate_site": null, "wfo": null, "tzname": "Europe/London", "ncdc81": null, "ncei91": null, "ugc_county": null, "ugc_zone": null, "county": null, "sid": "EGSS", "network": "GB__ASOS", "online": true, "synop": 99999, "attributes": {"HAS_PHOUR": "1", "METAR_RESET_MINUTE": "50"}}, "geometry": {"type": "Point", "coordinates": [0.2232, 51.8812]}}, {"type": "Feature", "id": "EGSY", "properties": {"elevation": 44.0, "sname": "MOD St Athan", "time_domain": "(2020-Now)", "archive_begin": "2020-07-21", "archive_end": null, "state": "  ", "country": "GB", "climate_site": null, "wfo": null, "tzname": "Europe/London", "ncdc81": null, "ncei91": null, "ugc_county": null, "ugc_zone": null, "county": null, "sid": "EGSY", "network": "GB__ASOS", "online": true, "synop": null, "attributes": {"GHCNH_ID": "UKI0000EGSY", "METAR_RESET_MINUTE": "50", "HAS_PHOUR": "1"}}, "geometry": {"type": "Point", "coordinates": [-3.4358, 51.4047]}}, {"type": "Feature", "id": "EGTC", "properties": {"elevation": 111.0, "sname": "Cranfield", "time_domain": "(1990-Now)", "archive_begin": "1990-02-08", "archive_end": null, "state": null, "country": "GB", "climate_site": null, "wfo": null, "tzname": "Europe/London", "ncdc81": null, "ncei91": null, "ugc_county": null, "ugc_zone": null, "county": null, "sid": "EGTC", "network": "GB__ASOS", "online": true, "synop": 99999, "attributes": {"HAS_PHOUR": "1", "METAR_RESET_MINUTE": "50"}}, "geometry": {"type": "Point", "coordinates": [-0.6167, 52.0722]}}, {"type": "Feature", "id": "EGTE", "properties": {"elevation": 30.0, "sname": "Exeter", "time_domain": "(1972-Now)", "archive_begin": "1972-12-31", "archive_end": null, "state": null, "country": "GB", "climate_site": null, "wfo": null, "tzname": "Europe/London", "ncdc81": null, "ncei91": null, "ugc_county": null, "ugc_zone": null, "county": null, "sid": "EGTE", "network": "GB__ASOS", "online": true, "synop": 99999, "attributes": {"HAS_PHOUR": "1", "GHCNH_ID": "UKI0000EGTE", "METAR_RESET_MINUTE": "50"}}, "geometry": {"type": "Point", "coordinates": [-3.4058, 50.7372]}}, {"type": "Feature", "id": "EGTG", "properties": {"elevation": 69.0, "sname": "Bristol", "time_domain": "(1994-2012)", "archive_begin": "1994-07-18", "archive_end": "2012-12-21", "state": null, "country": "GB", "climate_site": null, "wfo": null, "tzname": "Europe/London", "ncdc81": null, "ncei91": null, "ugc_county": null, "ugc_zone": null, "county": null, "sid": "EGTG", "network": "GB__ASOS", "online": false, "synop": 99999, "attributes": {"METAR_RESET_MINUTE": "50", "GHCNH_ID": "UKI0000EGTG"}}, "geometry": {"type": "Point", "coordinates": [-2.5908, 51.5194]}}, {"type": "Feature", "id": "EGTK", "properties": {"elevation": 79.21229, "sname": "Oxford", "time_domain": "(2014-Now)", "archive_begin": "2014-07-02", "archive_end": null, "state": null, "country": "GB", "climate_site": null, "wfo": null, "tzname": "Europe/London", "ncdc81": null, "ncei91": null, "ugc_county": null, "ugc_zone": null, "county": null, "sid": "EGTK", "network": "GB__ASOS", "online": true, "synop": 9999, "attributes": {"HAS_PHOUR": "1", "METAR_RESET_MINUTE": "50", "GHCNH_ID": "UKI0000EGTK"}}, "geometry": {"type": "Point", "coordinates": [-1.32, 51.8369]}}, {"type": "Feature", "id": "EGUB", "properties": {"elevation": 63.0, "sname": "Benson", "time_domain": "(1972-Now)", "archive_begin": "1972-12-31", "archive_end": null, "state": null, "country": "GB", "climate_site": null, "wfo": null, "tzname": "Europe/London", "ncdc81": null, "ncei91": null, "ugc_county": null, "ugc_zone": null, "county": null, "sid": "EGUB", "network": "GB__ASOS", "online": true, "synop": 99999, "attributes": {"HAS_PHOUR": "1", "METAR_RESET_MINUTE": "50"}}, "geometry": {"type": "Point", "coordinates": [-1.0987, 51.6202]}}, {"type": "Feature", "id": "EGUL", "properties": {"elevation": 10.0, "sname": "Lakenheath", "time_domain": "(1949-Now)", "archive_begin": "1949-04-30", "archive_end": null, "state": null, "country": "GB", "climate_site": null, "wfo": null, "tzname": "Europe/London", "ncdc81": null, "ncei91": null, "ugc_county": null, "ugc_zone": null, "county": null, "sid": "EGUL", "network": "GB__ASOS", "online": true, "synop": 35034, "attributes": {"HAS_PHOUR": "1", "METAR_RESET_MINUTE": "56", "GHCNH_ID": "UKI0000EGUL"}}, "geometry": {"type": "Point", "coordinates": [0.561, 52.4093]}}, {"type": "Feature", "id": "EGUN", "properties": {"elevation": 10.0, "sname": "Mildenhall", "time_domain": "(1950-Now)", "archive_begin": "1950-07-14", "archive_end": null, "state": null, "country": "GB", "climate_site": null, "wfo": null, "tzname": "Europe/London", "ncdc81": null, "ncei91": null, "ugc_county": null, "ugc_zone": null, "county": null, "sid": "EGUN", "network": "GB__ASOS", "online": true, "synop": 35046, "attributes": {"GHCNH_ID": "UKI0000EGUN", "METAR_RESET_MINUTE": "56", "HAS_PHOUR": "1"}}, "geometry": {"type": "Point", "coordinates": [0.4864, 52.3619]}}, {"type": "Feature", "id": "EGUO", "properties": {"elevation": 13.0, "sname": "COLERNE", "time_domain": "(1942-2024)", "archive_begin": "1942-03-31", "archive_end": "2024-11-03", "state": null, "country": "GB", "climate_site": null, "wfo": null, "tzname": "Europe/London", "ncdc81": null, "ncei91": null, "ugc_county": null, "ugc_zone": null, "county": null, "sid": "EGUO", "network": "GB__ASOS", "online": false, "synop": 99999, "attributes": {"METAR_RESET_MINUTE": "50"}}, "geometry": {"type": "Point", "coordinates": [-2.2864, 51.4391]}}, {"type": "Feature", "id": "EGUW", "properties": {"elevation": 87.0, "sname": "Wattisham", "time_domain": "(1972-Now)", "archive_begin": "1972-12-31", "archive_end": null, "state": null, "country": "GB", "climate_site": null, "wfo": null, "tzname": "Europe/London", "ncdc81": null, "ncei91": null, "ugc_county": null, "ugc_zone": null, "county": null, "sid": "EGUW", "network": "GB__ASOS", "online": true, "synop": 99999, "attributes": {"METAR_RESET_MINUTE": "50", "HAS_PHOUR": "1"}}, "geometry": {"type": "Point", "coordinates": [0.9573, 52.1239]}}, {"type": "Feature", "id": "EGUY", "properties": {"elevation": 41.0, "sname": "Wyton", "time_domain": "(1950-2019)", "archive_begin": "1950-10-02", "archive_end": "2019-11-18", "state": null, "country": "GB", "climate_site": null, "wfo": null, "tzname": "Europe/London", "ncdc81": null, "ncei91": null, "ugc_county": null, "ugc_zone": null, "county": null, "sid": "EGUY", "network": "GB__ASOS", "online": false, "synop": 99999, "attributes": {"METAR_RESET_MINUTE": "50", "GHCNH_ID": "UKI0000EGUY"}}, "geometry": {"type": "Point", "coordinates": [-0.1078, 52.3572]}}, {"type": "Feature", "id": "EGVA", "properties": {"elevation": 87.0, "sname": "Fairford", "time_domain": "(1952-Now)", "archive_begin": "1952-06-09", "archive_end": null, "state": null, "country": "GB", "climate_site": null, "wfo": null, "tzname": "Europe/London", "ncdc81": null, "ncei91": null, "ugc_county": null, "ugc_zone": null, "county": null, "sid": "EGVA", "network": "GB__ASOS", "online": true, "synop": 99999, "attributes": {"HAS_PHOUR": "1", "METAR_RESET_MINUTE": "56", "GHCNH_ID": "UKI0000EGVA"}}, "geometry": {"type": "Point", "coordinates": [-1.79, 51.6822]}}, {"type": "Feature", "id": "EGVN", "properties": {"elevation": 88.0, "sname": "Brize Norton", "time_domain": "(1951-Now)", "archive_begin": "1951-07-31", "archive_end": null, "state": null, "country": "GB", "climate_site": null, "wfo": null, "tzname": "Europe/London", "ncdc81": null, "ncei91": null, "ugc_county": null, "ugc_zone": null, "county": null, "sid": "EGVN", "network": "GB__ASOS", "online": true, "synop": 99999, "attributes": {"METAR_RESET_MINUTE": "50", "HAS_PHOUR": "1", "GHCNH_ID": "UKI0000EGVN"}}, "geometry": {"type": "Point", "coordinates": [-1.578, 51.7585]}}, {"type": "Feature", "id": "EGVO", "properties": {"elevation": 123.0, "sname": "Odiham", "time_domain": "(1972-Now)", "archive_begin": "1972-12-31", "archive_end": null, "state": null, "country": "GB", "climate_site": null, "wfo": null, "tzname": "Europe/London", "ncdc81": null, "ncei91": null, "ugc_county": null, "ugc_zone": null, "county": null, "sid": "EGVO", "network": "GB__ASOS", "online": true, "synop": 99999, "attributes": {"GHCNH_ID": "UKI0000EGVO", "METAR_RESET_MINUTE": "50", "HAS_PHOUR": "1"}}, "geometry": {"type": "Point", "coordinates": [-0.945, 51.2391]}}, {"type": "Feature", "id": "EGVP", "properties": {"elevation": 91.0, "sname": "MIDDLE WALLOP", "time_domain": "(1973-Now)", "archive_begin": "1973-08-09", "archive_end": null, "state": null, "country": "GB", "climate_site": null, "wfo": null, "tzname": "Europe/London", "ncdc81": null, "ncei91": null, "ugc_county": null, "ugc_zone": null, "county": null, "sid": "EGVP", "network": "GB__ASOS", "online": true, "synop": 99999, "attributes": {"GHCNH_ID": "UKI0000EGVP", "HAS_PHOUR": "1", "METAR_RESET_MINUTE": "50"}}, "geometry": {"type": "Point", "coordinates": [-1.5686, 51.1394]}}, {"type": "Feature", "id": "EGWC", "properties": {"elevation": 83.0, "sname": "Cosford", "time_domain": "(1994-Now)", "archive_begin": "1994-08-31", "archive_end": null, "state": null, "country": "GB", "climate_site": null, "wfo": null, "tzname": "Europe/London", "ncdc81": null, "ncei91": null, "ugc_county": null, "ugc_zone": null, "county": null, "sid": "EGWC", "network": "GB__ASOS", "online": true, "synop": 99999, "attributes": {"METAR_RESET_MINUTE": "50", "GHCNH_ID": "UKI0000EGWC", "HAS_PHOUR": "1"}}, "geometry": {"type": "Point", "coordinates": [-2.3056, 52.64]}}, {"type": "Feature", "id": "EGWU", "properties": {"elevation": 31.0, "sname": "Northolt", "time_domain": "(1972-Now)", "archive_begin": "1972-12-31", "archive_end": null, "state": "  ", "country": "GB", "climate_site": null, "wfo": null, "tzname": "Europe/London", "ncdc81": null, "ncei91": null, "ugc_county": null, "ugc_zone": null, "county": null, "sid": "EGWU", "network": "GB__ASOS", "online": true, "synop": null, "attributes": {"METAR_RESET_MINUTE": "50", "HAS_PHOUR": "1", "GHCNH_ID": "UKI0000EGWU"}}, "geometry": {"type": "Point", "coordinates": [-0.4175, 51.5522]}}, {"type": "Feature", "id": "EGXC", "properties": {"elevation": 7.0, "sname": "Coningsby", "time_domain": "(1943-Now)", "archive_begin": "1943-07-31", "archive_end": null, "state": null, "country": "GB", "climate_site": null, "wfo": null, "tzname": "Europe/London", "ncdc81": null, "ncei91": null, "ugc_county": null, "ugc_zone": null, "county": null, "sid": "EGXC", "network": "GB__ASOS", "online": true, "synop": 99999, "attributes": {"HAS_PHOUR": "1", "METAR_RESET_MINUTE": "50"}}, "geometry": {"type": "Point", "coordinates": [-0.1729, 53.0939]}}, {"type": "Feature", "id": "EGXD", "properties": {"elevation": 35.0, "sname": "Dishforth", "time_domain": "(1992-2016)", "archive_begin": "1992-04-30", "archive_end": "2016-06-06", "state": null, "country": "GB", "climate_site": null, "wfo": null, "tzname": "Europe/London", "ncdc81": null, "ncei91": null, "ugc_county": null, "ugc_zone": null, "county": null, "sid": "EGXD", "network": "GB__ASOS", "online": false, "synop": 99999, "attributes": {"METAR_RESET_MINUTE": "50", "GHCNH_ID": "UKI0000EGXD"}}, "geometry": {"type": "Point", "coordinates": [-1.4167, 54.1333]}}, {"type": "Feature", "id": "EGXE", "properties": {"elevation": 40.0, "sname": "Leeming", "time_domain": "(1972-Now)", "archive_begin": "1972-12-31", "archive_end": null, "state": null, "country": "GB", "climate_site": null, "wfo": null, "tzname": "Europe/London", "ncdc81": null, "ncei91": null, "ugc_county": null, "ugc_zone": null, "county": null, "sid": "EGXE", "network": "GB__ASOS", "online": true, "synop": 99999, "attributes": {"HAS_PHOUR": "1", "METAR_RESET_MINUTE": "50", "GHCNH_ID": "UKI0000EGXE"}}, "geometry": {"type": "Point", "coordinates": [-1.5331, 54.2969]}}, {"type": "Feature", "id": "EGXG", "properties": {"elevation": 9.0, "sname": "Church Fenton", "time_domain": "(1972-2013)", "archive_begin": "1972-12-31", "archive_end": "2013-12-19", "state": null, "country": "GB", "climate_site": null, "wfo": null, "tzname": "Europe/London", "ncdc81": null, "ncei91": null, "ugc_county": null, "ugc_zone": null, "county": null, "sid": "EGXG", "network": "GB__ASOS", "online": false, "synop": 99999, "attributes": {"GHCNH_ID": "UKI0000EGXG", "METAR_RESET_MINUTE": "0"}}, "geometry": {"type": "Point", "coordinates": [-1.2, 53.8333]}}, {"type": "Feature", "id": "EGXP", "properties": {"elevation": 61.0, "sname": "Scampton", "time_domain": "(1972-2022)", "archive_begin": "1972-12-31", "archive_end": "2022-11-01", "state": null, "country": "GB", "climate_site": null, "wfo": null, "tzname": "Europe/London", "ncdc81": null, "ncei91": null, "ugc_county": null, "ugc_zone": null, "county": null, "sid": "EGXP", "network": "GB__ASOS", "online": false, "synop": 99999, "attributes": {"METAR_RESET_MINUTE": "50"}}, "geometry": {"type": "Point", "coordinates": [-0.5481, 53.3069]}}, {"type": "Feature", "id": "EGXS", "properties": {"elevation": 22.0, "sname": "DONNA NOOK RAF", "time_domain": "(2010-Now)", "archive_begin": "2010-11-24", "archive_end": null, "state": null, "country": "GB", "climate_site": null, "wfo": null, "tzname": "Europe/London", "ncdc81": null, "ncei91": null, "ugc_county": null, "ugc_zone": null, "county": null, "sid": "EGXS", "network": "GB__ASOS", "online": true, "synop": 99999, "attributes": {"METAR_RESET_MINUTE": "50", "HAS_PHOUR": "1", "GHCNH_ID": "UKI0000EGXS"}}, "geometry": {"type": "Point", "coordinates": [0.1521, 53.4749]}}, {"type": "Feature", "id": "EGXT", "properties": {"elevation": 84.0, "sname": "Wittering", "time_domain": "(1973-Now)", "archive_begin": "1973-02-28", "archive_end": null, "state": null, "country": "GB", "climate_site": null, "wfo": null, "tzname": "Europe/London", "ncdc81": null, "ncei91": null, "ugc_county": null, "ugc_zone": null, "county": null, "sid": "EGXT", "network": "GB__ASOS", "online": true, "synop": 99999, "attributes": {"METAR_RESET_MINUTE": "50", "HAS_PHOUR": "1", "GHCNH_ID": "UKI0000EGXT"}}, "geometry": {"type": "Point", "coordinates": [-0.4612, 52.6114]}}, {"type": "Feature", "id": "EGXU", "properties": {"elevation": 16.0, "sname": "Linton-on-ouse", "time_domain": "(1972-2022)", "archive_begin": "1972-12-31", "archive_end": "2022-07-04", "state": null, "country": "GB", "climate_site": null, "wfo": null, "tzname": "Europe/London", "ncdc81": null, "ncei91": null, "ugc_county": null, "ugc_zone": null, "county": null, "sid": "EGXU", "network": "GB__ASOS", "online": false, "synop": 99999, "attributes": {"METAR_RESET_MINUTE": "50"}}, "geometry": {"type": "Point", "coordinates": [-1.2511, 54.0452]}}, {"type": "Feature", "id": "EGXV", "properties": {"elevation": 6.0, "sname": "LECONFIELD (AUT)", "time_domain": "(1973-Now)", "archive_begin": "1973-01-01", "archive_end": null, "state": null, "country": "GB", "climate_site": null, "wfo": null, "tzname": "Europe/London", "ncdc81": null, "ncei91": null, "ugc_county": null, "ugc_zone": null, "county": null, "sid": "EGXV", "network": "GB__ASOS", "online": true, "synop": 99999, "attributes": {"METAR_RESET_MINUTE": "50", "HAS_PHOUR": "1", "GHCNH_ID": "UKI0000EGXV"}}, "geometry": {"type": "Point", "coordinates": [-0.435, 53.8758]}}, {"type": "Feature", "id": "EGXW", "properties": {"elevation": 70.0, "sname": "Waddington", "time_domain": "(1950-Now)", "archive_begin": "1950-09-25", "archive_end": null, "state": null, "country": "GB", "climate_site": null, "wfo": null, "tzname": "Europe/London", "ncdc81": null, "ncei91": null, "ugc_county": null, "ugc_zone": null, "county": null, "sid": "EGXW", "network": "GB__ASOS", "online": true, "synop": 99999, "attributes": {"HAS_PHOUR": "1", "GHCNH_ID": "UKI0000EGXW", "METAR_RESET_MINUTE": "50"}}, "geometry": {"type": "Point", "coordinates": [-0.5233, 53.1754]}}, {"type": "Feature", "id": "EGXZ", "properties": {"elevation": 28.0, "sname": "Topcliffe", "time_domain": "(1994-Now)", "archive_begin": "1994-07-20", "archive_end": null, "state": null, "country": "GB", "climate_site": null, "wfo": null, "tzname": "Europe/London", "ncdc81": null, "ncei91": null, "ugc_county": null, "ugc_zone": null, "county": null, "sid": "EGXZ", "network": "GB__ASOS", "online": true, "synop": 99999, "attributes": {"METAR_RESET_MINUTE": "50", "HAS_PHOUR": "1", "GHCNH_ID": "UKI0000EGXZ"}}, "geometry": {"type": "Point", "coordinates": [-1.3821, 54.2055]}}, {"type": "Feature", "id": "EGYC", "properties": {"elevation": 23.0, "sname": "RAF Coltishall", "time_domain": "(2002-2006)", "archive_begin": "2002-11-11", "archive_end": "2006-03-31", "state": "  ", "country": "GB", "climate_site": null, "wfo": null, "tzname": "Europe/London", "ncdc81": null, "ncei91": null, "ugc_county": null, "ugc_zone": null, "county": null, "sid": "EGYC", "network": "GB__ASOS", "online": false, "synop": null, "attributes": {"METAR_RESET_MINUTE": "50"}}, "geometry": {"type": "Point", "coordinates": [1.3572, 52.7547]}}, {"type": "Feature", "id": "EGYD", "properties": {"elevation": 67.0, "sname": "Cranwell", "time_domain": "(1929-Now)", "archive_begin": "1929-07-31", "archive_end": null, "state": null, "country": "GB", "climate_site": null, "wfo": null, "tzname": "Europe/London", "ncdc81": null, "ncei91": null, "ugc_county": null, "ugc_zone": null, "county": null, "sid": "EGYD", "network": "GB__ASOS", "online": true, "synop": 99999, "attributes": {"GHCNH_ID": "UKI0000EGYD", "METAR_RESET_MINUTE": "50", "HAS_PHOUR": "1"}}, "geometry": {"type": "Point", "coordinates": [-0.5047, 53.0317]}}, {"type": "Feature", "id": "EGYE", "properties": {"elevation": 112.0, "sname": "Barkston Heath", "time_domain": "(1995-Now)", "archive_begin": "1995-11-29", "archive_end": null, "state": null, "country": "GB", "climate_site": null, "wfo": null, "tzname": "Europe/London", "ncdc81": null, "ncei91": null, "ugc_county": null, "ugc_zone": null, "county": null, "sid": "EGYE", "network": "GB__ASOS", "online": true, "synop": 99999, "attributes": {"GHCNH_ID": "UKI0000EGYE", "HAS_PHOUR": "1", "METAR_RESET_MINUTE": "50"}}, "geometry": {"type": "Point", "coordinates": [-0.5616, 52.9622]}}, {"type": "Feature", "id": "EGYH", "properties": {"elevation": 3.0, "sname": "HOLBEACH (AUT)", "time_domain": "(1964-Now)", "archive_begin": "1964-07-13", "archive_end": null, "state": null, "country": "GB", "climate_site": null, "wfo": null, "tzname": "Europe/London", "ncdc81": null, "ncei91": null, "ugc_county": null, "ugc_zone": null, "county": null, "sid": "EGYH", "network": "GB__ASOS", "online": true, "synop": 99999, "attributes": {"GHCNH_ID": "UKI0000EGYH", "HAS_PHOUR": "1", "METAR_RESET_MINUTE": "50"}}, "geometry": {"type": "Point", "coordinates": [0.1385, 52.8733]}}, {"type": "Feature", "id": "EGYM", "properties": {"elevation": 23.0, "sname": "Marham", "time_domain": "(1949-Now)", "archive_begin": "1949-03-31", "archive_end": null, "state": null, "country": "GB", "climate_site": null, "wfo": null, "tzname": "Europe/London", "ncdc81": null, "ncei91": null, "ugc_county": null, "ugc_zone": null, "county": null, "sid": "EGYM", "network": "GB__ASOS", "online": true, "synop": 99999, "attributes": {"HAS_PHOUR": "1", "METAR_RESET_MINUTE": "50", "GHCNH_ID": "UKI0000EGYM"}}, "geometry": {"type": "Point", "coordinates": [0.567, 52.6483]}}], "generated_at": "2026-08-17T19:12:37Z", "count": 112}