{"type": "FeatureCollection", "features": [{"type": "Feature", "id": "05U", "properties": {"elevation": 1811.2307, "sname": "Eureka", "time_domain": "(2012-Now)", "archive_begin": "2012-02-09", "archive_end": null, "state": "NV", "country": "US", "climate_site": "NV2708", "wfo": "LKN", "tzname": "America/Los_Angeles", "ncdc81": "USW00003170", "ncei91": "USW00003170", "ugc_county": "NVC011", "ugc_zone": "NVZ037", "county": "Eureka", "sid": "05U", "network": "NV_ASOS", "online": true, "synop": 9999, "attributes": {"GHCNH_ID": "USW00000170", "METAR_RESET_MINUTE": "55", "HAS_PHOUR": "1"}}, "geometry": {"type": "Point", "coordinates": [-116.0051, 39.6042]}}, {"type": "Feature", "id": "10U", "properties": {"elevation": 1637.0, "sname": "Owyhee", "time_domain": "(2023-Now)", "archive_begin": "2023-04-19", "archive_end": null, "state": "NV", "country": "US", "climate_site": "NV9072", "wfo": "LKN", "tzname": "America/Los_Angeles", "ncdc81": "USC00265392", "ncei91": "USC00269072", "ugc_county": "NVC007", "ugc_zone": "NVZ031", "county": "Elko", "sid": "10U", "network": "NV_ASOS", "online": true, "synop": null, "attributes": {"METAR_RESET_MINUTE": "55", "HAS_PHOUR": "1", "IS_AWOS": "1"}}, "geometry": {"type": "Point", "coordinates": [-116.1876, 41.9532]}}, {"type": "Feature", "id": "9BB", "properties": {"elevation": 1723.0, "sname": "WELLS", "time_domain": "(1996-2006)", "archive_begin": "1996-07-01", "archive_end": "2006-12-12", "state": "NV", "country": "US", "climate_site": "NV0438", "wfo": "LKN", "tzname": "America/Los_Angeles", "ncdc81": "USC00268988", "ncei91": "USC00268988", "ugc_county": "NVC007", "ugc_zone": "NVZ452", "county": "Elko", "sid": "9BB", "network": "NV_ASOS", "online": false, "synop": 99999, "attributes": {"METAR_RESET_MINUTE": "50"}}, "geometry": {"type": "Point", "coordinates": [-114.9667, 41.1167]}}, {"type": "Feature", "id": "AWH", "properties": {"elevation": 1902.0, "sname": "WILDHORSE RES/ELKO", "time_domain": "(1987-2007)", "archive_begin": "1987-06-29", "archive_end": "2007-07-01", "state": "NV", "country": "US", "climate_site": "NV3114", "wfo": "LKN", "tzname": "America/Los_Angeles", "ncdc81": "USC00269072", "ncei91": "USC00269072", "ugc_county": "NVC007", "ugc_zone": "NVZ452", "county": "Elko", "sid": "AWH", "network": "NV_ASOS", "online": false, "synop": 94190, "attributes": {"GHCNH_ID": "USW00094190", "METAR_RESET_MINUTE": "50"}}, "geometry": {"type": "Point", "coordinates": [-115.784, 41.666]}}, {"type": "Feature", "id": "B23", "properties": {"elevation": 1381.0, "sname": "BATTLE MOUNTAIN", "time_domain": "(1948-2007)", "archive_begin": "1948-11-01", "archive_end": "2007-06-30", "state": "NV", "country": "US", "climate_site": "NV0800", "wfo": "LKN", "tzname": "America/Los_Angeles", "ncdc81": "USW00024119", "ncei91": "USW00024119", "ugc_county": "NVC015", "ugc_zone": "NVZ036", "county": "Lander", "sid": "B23", "network": "NV_ASOS", "online": false, "synop": 99999, "attributes": {"METAR_RESET_MINUTE": "30"}}, "geometry": {"type": "Point", "coordinates": [-116.8667, 40.6]}}, {"type": "Feature", "id": "BAM", "properties": {"elevation": 1382.3567, "sname": "Battle Mountain", "time_domain": "(1948-Now)", "archive_begin": "1948-11-01", "archive_end": null, "state": "NV", "country": "US", "climate_site": "NV0800", "wfo": "LKN", "tzname": "America/Los_Angeles", "ncdc81": "USW00024119", "ncei91": "USW00024119", "ugc_county": "NVC015", "ugc_zone": "NVZ036", "county": "Lander", "sid": "BAM", "network": "NV_ASOS", "online": true, "synop": 24119, "attributes": {"IS_AWOS": "1", "HASTAF": "1", "HAS_PHOUR": "1", "GHCNH_ID": "USW00024119", "METAR_RESET_MINUTE": "55"}}, "geometry": {"type": "Point", "coordinates": [-116.8743, 40.599]}}, {"type": "Feature", "id": "BJN", "properties": {"elevation": 1756.0, "sname": "TONOPAH RANGE74", "time_domain": "(2005-2014)", "archive_begin": "2005-05-26", "archive_end": "2014-05-02", "state": "NV", "country": "US", "climate_site": "NV8170", "wfo": "VEF", "tzname": "America/Los_Angeles", "ncdc81": "USC00268443", "ncei91": "USC00266514", "ugc_county": "NVC023", "ugc_zone": "NVZ014", "county": "Inyo", "sid": "BJN", "network": "NV_ASOS", "online": false, "synop": 53145, "attributes": {"METAR_RESET_MINUTE": "56", "GHCNH_ID": "USW00053145"}}, "geometry": {"type": "Point", "coordinates": [-116.2642, 37.6142]}}, {"type": "Feature", "id": "BVU", "properties": {"elevation": 671.0, "sname": "Boulder City", "time_domain": "(2010-Now)", "archive_begin": "2010-06-24", "archive_end": null, "state": "NV", "country": "US", "climate_site": "NV7369", "wfo": "VEF", "tzname": "America/Los_Angeles", "ncdc81": "USC00261071", "ncei91": "USC00260125", "ugc_county": "NVC003", "ugc_zone": "NVZ021", "county": "Clark", "sid": "BVU", "network": "NV_ASOS", "online": true, "synop": 269, "attributes": {"HAS_PHOUR": "1", "METAR_RESET_MINUTE": "55", "IS_AWOS": "1", "GHCNH_ID": "USW00000269"}}, "geometry": {"type": "Point", "coordinates": [-114.8611, 35.9475]}}, {"type": "Feature", "id": "CXP", "properties": {"elevation": 1431.0, "sname": "Carson City", "time_domain": "(2010-Now)", "archive_begin": "2010-07-14", "archive_end": null, "state": "NV", "country": "US", "climate_site": "NV1485", "wfo": "REV", "tzname": "America/Los_Angeles", "ncdc81": "USC00261485", "ncei91": "USC00261485", "ugc_county": "NVC510", "ugc_zone": "NVZ450", "county": "Carson City", "sid": "CXP", "network": "NV_ASOS", "online": true, "synop": 171, "attributes": {"METAR_RESET_MINUTE": "55", "HAS_PHOUR": "1", "GHCNH_ID": "USW00000171", "HASTAF": "1"}}, "geometry": {"type": "Point", "coordinates": [-119.7326, 39.1923]}}, {"type": "Feature", "id": "DRA", "properties": {"elevation": 1009.0, "sname": "MERCURY/DESERT ROCK", "time_domain": "(1978-Now)", "archive_begin": "1978-05-15", "archive_end": null, "state": "NV", "country": "US", "climate_site": "NV7369", "wfo": "VEF", "tzname": "America/Los_Angeles", "ncdc81": "USW00003160", "ncei91": "USW00003160", "ugc_county": "NVC023", "ugc_zone": "NVZ017", "county": "Nye", "sid": "DRA", "network": "NV_ASOS", "online": true, "synop": 3160, "attributes": {"HAS_PHOUR": "1", "GHCNH_ID": "USW00003160", "METAR_RESET_MINUTE": "53", "HAS1MIN": "1"}}, "geometry": {"type": "Point", "coordinates": [-116.0278, 36.6206]}}, {"type": "Feature", "id": "EKO", "properties": {"elevation": 1367.0, "sname": "ELKO", "time_domain": "(1930-Now)", "archive_begin": "1930-01-01", "archive_end": null, "state": "NV", "country": "US", "climate_site": "NV2573", "wfo": "LKN", "tzname": "America/Los_Angeles", "ncdc81": "USW00024121", "ncei91": "USW00024121", "ugc_county": "NVC007", "ugc_zone": "NVZ452", "county": "Elko", "sid": "EKO", "network": "NV_ASOS", "online": true, "synop": 24121, "attributes": {"HAS1MIN": "1", "HASTAF": "1", "GHCNH_ID": "USW00024121", "HAS_PHOUR": "1", "METAR_RESET_MINUTE": "56"}}, "geometry": {"type": "Point", "coordinates": [-115.786, 40.8242]}}, {"type": "Feature", "id": "ELY", "properties": {"elevation": 1909.0, "sname": "ELY/YELLAND FLD", "time_domain": "(1953-Now)", "archive_begin": "1953-01-20", "archive_end": null, "state": "NV", "country": "US", "climate_site": "NV2631", "wfo": "LKN", "tzname": "America/Los_Angeles", "ncdc81": "USW00023154", "ncei91": "USW00023154", "ugc_county": "NVC033", "ugc_zone": "NVZ455", "county": "White Pine", "sid": "ELY", "network": "NV_ASOS", "online": true, "synop": 23154, "attributes": {"HAS1MIN": "1", "METAR_RESET_MINUTE": "53", "HASTAF": "1", "SHEF_6HR_SRC": "ELRN2", "GHCNH_ID": "USW00023154", "HAS_PHOUR": "1"}}, "geometry": {"type": "Point", "coordinates": [-114.8453, 39.295]}}, {"type": "Feature", "id": "HND", "properties": {"elevation": 742.7949, "sname": "Henderson", "time_domain": "(2002-Now)", "archive_begin": "2002-01-03", "archive_end": null, "state": "NV", "country": "US", "climate_site": "NV7369", "wfo": "VEF", "tzname": "America/Los_Angeles", "ncdc81": "USC00264439", "ncei91": "USC00264439", "ugc_county": "NVC003", "ugc_zone": "NVZ465", "county": "Clark", "sid": "HND", "network": "NV_ASOS", "online": true, "synop": null, "attributes": {"METAR_RESET_MINUTE": "56", "HAS_PHOUR": "1", "GHCNH_ID": "USW00053127", "HASTAF": "1"}}, "geometry": {"type": "Point", "coordinates": [-115.1344, 35.9729]}}, {"type": "Feature", "id": "HTH", "properties": {"elevation": 1282.8909, "sname": "Hawthorne", "time_domain": "(1983-Now)", "archive_begin": "1983-11-03", "archive_end": null, "state": "NV", "country": "US", "climate_site": "NV5168", "wfo": "REV", "tzname": "America/Los_Angeles", "ncdc81": "USC00263512", "ncei91": "USC00263512", "ugc_county": "NVC021", "ugc_zone": "NVZ459", "county": "Mineral", "sid": "HTH", "network": "NV_ASOS", "online": true, "synop": null, "attributes": {"GHCNH_ID": "USI0000KHTH", "HAS_PHOUR": "1", "METAR_RESET_MINUTE": "55"}}, "geometry": {"type": "Point", "coordinates": [-118.6315, 38.5448]}}, {"type": "Feature", "id": "INS", "properties": {"elevation": 955.0, "sname": "INDIAN SPRINGS", "time_domain": "(1963-Now)", "archive_begin": "1963-09-03", "archive_end": null, "state": "NV", "country": "US", "climate_site": "NV7369", "wfo": "VEF", "tzname": "America/Los_Angeles", "ncdc81": "USC00265400", "ncei91": "USC00265400", "ugc_county": "NVC003", "ugc_zone": "NVZ017", "county": "Clark", "sid": "INS", "network": "NV_ASOS", "online": true, "synop": 23141, "attributes": {"GHCNH_ID": "USW00023141", "HAS_PHOUR": "1", "METAR_RESET_MINUTE": "58"}}, "geometry": {"type": "Point", "coordinates": [-115.6734, 36.5872]}}, {"type": "Feature", "id": "LAS", "properties": {"elevation": 663.0, "sname": "Las Vegas - Harry Reid Intl", "time_domain": "(1948-Now)", "archive_begin": "1948-12-18", "archive_end": null, "state": "NV", "country": "US", "climate_site": "NV7369", "wfo": "VEF", "tzname": "America/Los_Angeles", "ncdc81": "USW00023169", "ncei91": "USW00023169", "ugc_county": "NVC003", "ugc_zone": "NVZ465", "county": "Clark", "sid": "LAS", "network": "NV_ASOS", "online": true, "synop": null, "attributes": {"HAS_PHOUR": "1", "HAS1MIN": "1", "METAR_RESET_MINUTE": "56", "HASTAF": "1", "GHCNH_ID": "USW00023169"}}, "geometry": {"type": "Point", "coordinates": [-115.1634, 36.0719]}}, {"type": "Feature", "id": "LOL", "properties": {"elevation": 1192.4348, "sname": "Lovelock / Derby Field", "time_domain": "(1948-Now)", "archive_begin": "1948-11-01", "archive_end": null, "state": "NV", "country": "US", "climate_site": "NV4700", "wfo": "REV", "tzname": "America/Los_Angeles", "ncdc81": "USW00024172", "ncei91": "USW00024172", "ugc_county": "NVC027", "ugc_zone": "NVZ453", "county": "Pershing", "sid": "LOL", "network": "NV_ASOS", "online": true, "synop": 24172, "attributes": {"HAS_PHOUR": "1", "GHCNH_ID": "USW00024172", "METAR_RESET_MINUTE": "53", "HAS1MIN": "1"}}, "geometry": {"type": "Point", "coordinates": [-118.5701, 40.0684]}}, {"type": "Feature", "id": "LSV", "properties": {"elevation": 570.0, "sname": "NELLIS AFB", "time_domain": "(1942-Now)", "archive_begin": "1942-04-01", "archive_end": null, "state": "NV", "country": "US", "climate_site": "NV7369", "wfo": "VEF", "tzname": "America/Los_Angeles", "ncdc81": "USC00265705", "ncei91": "USC00265705", "ugc_county": "NVC003", "ugc_zone": "NVZ020", "county": "Clark", "sid": "LSV", "network": "NV_ASOS", "online": true, "synop": 99999, "attributes": {"HAS_PHOUR": "1", "METAR_RESET_MINUTE": "58", "GHCNH_ID": "USW00023112"}}, "geometry": {"type": "Point", "coordinates": [-115.0342, 36.2362]}}, {"type": "Feature", "id": "MEV", "properties": {"elevation": 1441.416, "sname": "Miden - Tahoe", "time_domain": "(2014-Now)", "archive_begin": "2014-05-24", "archive_end": null, "state": "NV", "country": "US", "climate_site": "NV5191", "wfo": "REV", "tzname": "America/Los_Angeles", "ncdc81": "USC00265191", "ncei91": "USC00265191", "ugc_county": "NVC005", "ugc_zone": "NVZ003", "county": "Douglas", "sid": "MEV", "network": "NV_ASOS", "online": true, "synop": 9999, "attributes": {"METAR_RESET_MINUTE": "55", "HASTAF": "1", "HAS_PHOUR": "1", "IS_AWOS": "1", "GHCNH_ID": "USI0000KMEV"}}, "geometry": {"type": "Point", "coordinates": [-119.75, 38.9963]}}, {"type": "Feature", "id": "NFL", "properties": {"elevation": 1199.0, "sname": "FALLON NAS", "time_domain": "(1945-Now)", "archive_begin": "1945-03-01", "archive_end": null, "state": "NV", "country": "US", "climate_site": "NV2780", "wfo": "REV", "tzname": "America/Los_Angeles", "ncdc81": "USW00093102", "ncei91": "USW00093102", "ugc_county": "NVC001", "ugc_zone": "NVZ004", "county": "Churchill", "sid": "NFL", "network": "NV_ASOS", "online": true, "synop": 93102, "attributes": {"GHCNH_ID": "USW00093102", "HAS_PHOUR": "1", "HAS1MIN": "1", "METAR_RESET_MINUTE": "56"}}, "geometry": {"type": "Point", "coordinates": [-118.701, 39.4166]}}, {"type": "Feature", "id": "P38", "properties": {"elevation": 1335.0, "sname": "Caliente", "time_domain": "(1978-2002)", "archive_begin": "1978-03-01", "archive_end": "2002-11-19", "state": "NV", "country": "US", "climate_site": "NV7750", "wfo": "VEF", "tzname": "America/Los_Angeles", "ncdc81": "USC00261358", "ncei91": "USC00261358", "ugc_county": "NVC017", "ugc_zone": "NVZ461", "county": "Lincoln", "sid": "P38", "network": "NV_ASOS", "online": false, "synop": 3163, "attributes": {"METAR_RESET_MINUTE": "48"}}, "geometry": {"type": "Point", "coordinates": [-114.5264, 37.6122]}}, {"type": "Feature", "id": "P68", "properties": {"elevation": 1993.0, "sname": "EUREKA (RAMOS)", "time_domain": "(1972-Now)", "archive_begin": "1972-12-31", "archive_end": null, "state": "NV", "country": "US", "climate_site": "NV2708", "wfo": "LKN", "tzname": "America/Los_Angeles", "ncdc81": "USW00003170", "ncei91": "USW00003170", "ugc_county": "NVC011", "ugc_zone": "NVZ037", "county": "Eureka", "sid": "P68", "network": "NV_ASOS", "online": true, "synop": 3170, "attributes": {"HAS_PHOUR": "1", "METAR_RESET_MINUTE": "53", "HAS1MIN": "1", "GHCNH_ID": "USW00003170"}}, "geometry": {"type": "Point", "coordinates": [-116.0056, 39.6014]}}, {"type": "Feature", "id": "RNO", "properties": {"elevation": 1345.0, "sname": "Reno - Tahoe", "time_domain": "(1943-Now)", "archive_begin": "1943-01-05", "archive_end": null, "state": "NV", "country": "US", "climate_site": "NV6779", "wfo": "REV", "tzname": "America/Los_Angeles", "ncdc81": "USW00023185", "ncei91": "USW00023185", "ugc_county": "NVC031", "ugc_zone": "NVZ420", "county": "Washoe", "sid": "RNO", "network": "NV_ASOS", "online": true, "synop": null, "attributes": {"HAS1MIN": "1", "HAS_PHOUR": "1", "GHCNH_ID": "USW00023185", "HASTAF": "1", "METAR_RESET_MINUTE": "55"}}, "geometry": {"type": "Point", "coordinates": [-119.7711, 39.4839]}}, {"type": "Feature", "id": "RTS", "properties": {"elevation": 1539.0, "sname": "Reno", "time_domain": "(2011-Now)", "archive_begin": "2011-09-21", "archive_end": null, "state": "NV", "country": "US", "climate_site": "NV7820", "wfo": "REV", "tzname": "America/Los_Angeles", "ncdc81": "USC00267820", "ncei91": "USC00267820", "ugc_county": "NVC031", "ugc_zone": "NVZ450", "county": "Washoe", "sid": "RTS", "network": "NV_ASOS", "online": true, "synop": 279, "attributes": {"IS_AWOS": "1", "HAS_PHOUR": "1", "GHCNH_ID": "USW00000279", "METAR_RESET_MINUTE": "55"}}, "geometry": {"type": "Point", "coordinates": [-119.8764, 39.6682]}}, {"type": "Feature", "id": "TMT", "properties": {"elevation": 1749.3367, "sname": "Austin", "time_domain": "(2019-Now)", "archive_begin": "2019-01-14", "archive_end": null, "state": "NV", "country": "US", "climate_site": "NV6746", "wfo": "LKN", "tzname": "America/Los_Angeles", "ncdc81": "USC00260507", "ncei91": "USC00260507", "ugc_county": "NVC015", "ugc_zone": "NVZ457", "county": "Lander", "sid": "TMT", "network": "NV_ASOS", "online": true, "synop": null, "attributes": {"IS_AWOS": "1", "GHCNH_ID": "USI0000KTMT", "METAR_RESET_MINUTE": "55", "HAS_PHOUR": "1"}}, "geometry": {"type": "Point", "coordinates": [-117.1971, 39.4643]}}, {"type": "Feature", "id": "TPH", "properties": {"elevation": 1654.0, "sname": "TONOPAH AIRPORT", "time_domain": "(1942-Now)", "archive_begin": "1942-10-01", "archive_end": null, "state": "NV", "country": "US", "climate_site": "NV8170", "wfo": "LKN", "tzname": "America/Los_Angeles", "ncdc81": "USW00023153", "ncei91": "USW00023153", "ugc_county": "NVC023", "ugc_zone": "NVZ040", "county": "Nye", "sid": "TPH", "network": "NV_ASOS", "online": true, "synop": 23153, "attributes": {"HASTAF": "1", "METAR_RESET_MINUTE": "56", "HAS1MIN": "1", "HAS_PHOUR": "1", "GHCNH_ID": "USW00023153"}}, "geometry": {"type": "Point", "coordinates": [-117.0904, 38.0505]}}, {"type": "Feature", "id": "U31", "properties": {"elevation": 2014.0, "sname": "AUSTIN", "time_domain": "(1973-2003)", "archive_begin": "1973-01-01", "archive_end": "2003-04-30", "state": "NV", "country": "US", "climate_site": "NV6746", "wfo": "LKN", "tzname": "America/Los_Angeles", "ncdc81": "USC00260507", "ncei91": "USC00260507", "ugc_county": "NVC015", "ugc_zone": "NVZ037", "county": "Lander", "sid": "U31", "network": "NV_ASOS", "online": false, "synop": 99999, "attributes": {"METAR_RESET_MINUTE": "50"}}, "geometry": {"type": "Point", "coordinates": [-117.0833, 39.5]}}, {"type": "Feature", "id": "VGT", "properties": {"elevation": 667.0, "sname": "North Las Vegas", "time_domain": "(1998-Now)", "archive_begin": "1998-01-01", "archive_end": null, "state": "NV", "country": "US", "climate_site": "NV7369", "wfo": "VEF", "tzname": "America/Los_Angeles", "ncdc81": "USW00053123", "ncei91": "USW00053123", "ugc_county": "NVC003", "ugc_zone": "NVZ020", "county": "Clark", "sid": "VGT", "network": "NV_ASOS", "online": true, "synop": null, "attributes": {"HAS_PHOUR": "1", "HAS1MIN": "1", "METAR_RESET_MINUTE": "53", "HASTAF": "1", "GHCNH_ID": "USW00053123"}}, "geometry": {"type": "Point", "coordinates": [-115.1933, 36.2111]}}, {"type": "Feature", "id": "WMC", "properties": {"elevation": 1315.0, "sname": "WINNEMUCCA MUNI", "time_domain": "(1949-Now)", "archive_begin": "1949-09-15", "archive_end": null, "state": "NV", "country": "US", "climate_site": "NV9171", "wfo": "LKN", "tzname": "America/Los_Angeles", "ncdc81": "USW00024128", "ncei91": "USW00024128", "ugc_county": "NVC013", "ugc_zone": "NVZ468", "county": "Humboldt", "sid": "WMC", "network": "NV_ASOS", "online": true, "synop": 24128, "attributes": {"METAR_RESET_MINUTE": "56", "HAS1MIN": "1", "HAS_PHOUR": "1", "HASTAF": "1", "GHCNH_ID": "USW00024128"}}, "geometry": {"type": "Point", "coordinates": [-117.8072, 40.9019]}}], "generated_at": "2026-08-19T13:01:49Z", "count": 29}