{"type": "FeatureCollection", "features": [{"type": "Feature", "id": "00U", "properties": {"elevation": 914.23517, "sname": "Big Horn County", "time_domain": "(2020-Now)", "archive_begin": "2020-02-01", "archive_end": null, "state": "MT", "country": "US", "climate_site": "MT3915", "wfo": "BYZ", "tzname": "America/Denver", "ncdc81": "USC00243915", "ncei91": "USC00243915", "ugc_county": "MTC003", "ugc_zone": "MTZ129", "county": "Big Horn", "sid": "00U", "network": "MT_ASOS", "online": true, "synop": null, "attributes": {"HAS_PHOUR": "1", "GHCNH_ID": "USI0000K00U", "METAR_RESET_MINUTE": "55"}}, "geometry": {"type": "Point", "coordinates": [-107.6604, 45.7444]}}, {"type": "Feature", "id": "1GM", "properties": {"elevation": 1320.7723, "sname": "Golf", "time_domain": "(2018-Now)", "archive_begin": "2018-12-01", "archive_end": null, "state": "MT", "country": "US", "climate_site": "MT2857", "wfo": "TFX", "tzname": "America/Denver", "ncdc81": "USC00247159", "ncei91": "USC00247159", "ugc_county": "MTC049", "ugc_zone": "MTZ048", "county": "Lewis and Clark", "sid": "1GM", "network": "MT_ASOS", "online": true, "synop": null, "attributes": {"METAR_RESET_MINUTE": "58", "HAS_PHOUR": "1"}}, "geometry": {"type": "Point", "coordinates": [-112.1, 47.33]}}, {"type": "Feature", "id": "1KM", "properties": {"elevation": 1319.7548, "sname": "Kilo", "time_domain": "(2018-Now)", "archive_begin": "2018-11-06", "archive_end": null, "state": "MT", "country": "US", "climate_site": "MT5603", "wfo": "BYZ", "tzname": "America/Denver", "ncdc81": "USC00243939", "ncei91": "USC00243939", "ugc_county": "MTC107", "ugc_zone": "MTZ028", "county": "Wheatland", "sid": "1KM", "network": "MT_ASOS", "online": true, "synop": null, "attributes": {"METAR_RESET_MINUTE": "58", "HAS_PHOUR": "1"}}, "geometry": {"type": "Point", "coordinates": [-109.8, 46.45]}}, {"type": "Feature", "id": "1LM", "properties": {"elevation": 1402.601, "sname": "Lima", "time_domain": "(2018-Now)", "archive_begin": "2018-11-06", "archive_end": null, "state": "MT", "country": "US", "climate_site": "MT7263", "wfo": "TFX", "tzname": "America/Denver", "ncdc81": "USC00244545", "ncei91": "USC00244538", "ugc_county": "MTC027", "ugc_zone": "MTZ051", "county": "Fergus", "sid": "1LM", "network": "MT_ASOS", "online": true, "synop": null, "attributes": {"METAR_RESET_MINUTE": "58"}}, "geometry": {"type": "Point", "coordinates": [-109.7333, 46.7]}}, {"type": "Feature", "id": "1S3", "properties": {"elevation": 831.0, "sname": "Forsyth Tillitt Field", "time_domain": "(2011-Now)", "archive_begin": "2011-01-18", "archive_end": null, "state": "MT", "country": "US", "climate_site": "MT3098", "wfo": "BYZ", "tzname": "America/Denver", "ncdc81": "USC00243098", "ncei91": "USC00243098", "ugc_county": "MTC087", "ugc_zone": "MTZ031", "county": "Rosebud", "sid": "1S3", "network": "MT_ASOS", "online": true, "synop": 9999, "attributes": {"HAS_PHOUR": "1", "METAR_RESET_MINUTE": "0"}}, "geometry": {"type": "Point", "coordinates": [-106.6239, 46.2712]}}, {"type": "Feature", "id": "38S", "properties": {"elevation": 1415.5457, "sname": "Deer Lodge", "time_domain": "(2020-2024)", "archive_begin": "2020-03-31", "archive_end": "2024-06-17", "state": "MT", "country": "US", "climate_site": "MT2275", "wfo": "MSO", "tzname": "America/Denver", "ncdc81": "USC00242275", "ncei91": "USC00242275", "ugc_county": "MTC077", "ugc_zone": "MTZ110", "county": "Powell", "sid": "38S", "network": "MT_ASOS", "online": false, "synop": null, "attributes": {"METAR_RESET_MINUTE": "0"}}, "geometry": {"type": "Point", "coordinates": [-112.7646, 46.3867]}}, {"type": "Feature", "id": "3DU", "properties": {"elevation": 1202.0, "sname": "DRUMMOND", "time_domain": "(1948-2012)", "archive_begin": "1948-01-01", "archive_end": "2012-09-30", "state": "MT", "country": "US", "climate_site": "MT6472", "wfo": "MSO", "tzname": "America/Denver", "ncdc81": "USW00024139", "ncei91": "USW00024139", "ugc_county": "MTC039", "ugc_zone": "MTZ007", "county": "Granite", "sid": "3DU", "network": "MT_ASOS", "online": false, "synop": 24139, "attributes": {"METAR_RESET_MINUTE": "45"}}, "geometry": {"type": "Point", "coordinates": [-113.15, 46.6667]}}, {"type": "Feature", "id": "3HT", "properties": {"elevation": 1300.0, "sname": "Harlowton", "time_domain": "(1973-2005)", "archive_begin": "1973-01-01", "archive_end": "2005-10-31", "state": "MT", "country": "US", "climate_site": "MT5603", "wfo": "PIH", "tzname": "America/Denver", "ncdc81": "USC00243939", "ncei91": "USC00243939", "ugc_county": "MTC107", "ugc_zone": "MTZ124", "county": "Wheatland", "sid": "3HT", "network": "MT_ASOS", "online": false, "synop": null, "attributes": {"METAR_RESET_MINUTE": "0"}}, "geometry": {"type": "Point", "coordinates": [-109.84, 46.42]}}, {"type": "Feature", "id": "3TH", "properties": {"elevation": 723.0, "sname": "Thompson Falls", "time_domain": "(1973-2002)", "archive_begin": "1973-01-01", "archive_end": "2002-10-31", "state": "MT", "country": "US", "climate_site": "MT8211", "wfo": "MSO", "tzname": "America/Denver", "ncdc81": "USC00248211", "ncei91": "USC00248211", "ugc_county": "MTC089", "ugc_zone": "MTZ106", "county": "Sanders", "sid": "3TH", "network": "MT_ASOS", "online": false, "synop": null, "attributes": {"METAR_RESET_MINUTE": "50"}}, "geometry": {"type": "Point", "coordinates": [-115.37, 47.6]}}, {"type": "Feature", "id": "3U3", "properties": {"elevation": 1524.888, "sname": "Anaconda", "time_domain": "(2020-Now)", "archive_begin": "2020-03-31", "archive_end": null, "state": "MT", "country": "US", "climate_site": "MT2275", "wfo": "MSO", "tzname": "America/Denver", "ncdc81": "USC00240199", "ncei91": "USC00240199", "ugc_county": "MTC023", "ugc_zone": "MTZ110", "county": "Deer Lodge", "sid": "3U3", "network": "MT_ASOS", "online": true, "synop": null, "attributes": {"METAR_RESET_MINUTE": "0", "IS_AWOS": "1", "HAS_PHOUR": "1"}}, "geometry": {"type": "Point", "coordinates": [-112.8678, 46.1531]}}, {"type": "Feature", "id": "4U6", "properties": {"elevation": 735.0, "sname": "Circle Town", "time_domain": "(2020-2024)", "archive_begin": "2020-04-02", "archive_end": "2024-06-17", "state": "MT", "country": "US", "climate_site": "MT1758", "wfo": "GGW", "tzname": "America/Denver", "ncdc81": "USC00241758", "ncei91": "USC00241758", "ugc_county": "MTC055", "ugc_zone": "MTZ122", "county": "McCone", "sid": "4U6", "network": "MT_ASOS", "online": false, "synop": null, "attributes": {"METAR_RESET_MINUTE": "55"}}, "geometry": {"type": "Point", "coordinates": [-105.5619, 47.4186]}}, {"type": "Feature", "id": "6S0", "properties": {"elevation": 1363.9315, "sname": "Big Timber", "time_domain": "(2018-Now)", "archive_begin": "2018-11-06", "archive_end": null, "state": "MT", "country": "US", "climate_site": "MT0780", "wfo": "BYZ", "tzname": "America/Denver", "ncdc81": "USC00240780", "ncei91": "USC00240780", "ugc_county": "MTC097", "ugc_zone": "MTZ041", "county": "Sweet Grass", "sid": "6S0", "network": "MT_ASOS", "online": true, "synop": null, "attributes": {"IS_AWOS": "1", "METAR_RESET_MINUTE": "55", "GHCNH_ID": "USI0000K6S0", "HAS_PHOUR": "1"}}, "geometry": {"type": "Point", "coordinates": [-109.9736, 45.8063]}}, {"type": "Feature", "id": "6S8", "properties": {"elevation": 1057.7766, "sname": "Laurel", "time_domain": "(2020-Now)", "archive_begin": "2020-03-31", "archive_end": null, "state": "MT", "country": "US", "climate_site": "MT0807", "wfo": "BYZ", "tzname": "America/Denver", "ncdc81": "USC00240801", "ncei91": "USC00240801", "ugc_county": "MTC111", "ugc_zone": "MTZ128", "county": "Yellowstone", "sid": "6S8", "network": "MT_ASOS", "online": true, "synop": null, "attributes": {"HAS_PHOUR": "1", "METAR_RESET_MINUTE": "55", "GHCNH_ID": "USI0000K6S8"}}, "geometry": {"type": "Point", "coordinates": [-108.7611, 45.7031]}}, {"type": "Feature", "id": "79S", "properties": {"elevation": 874.0, "sname": "Fort Benton", "time_domain": "(2011-Now)", "archive_begin": "2011-01-18", "archive_end": null, "state": "MT", "country": "US", "climate_site": "MT3113", "wfo": "TFX", "tzname": "America/Denver", "ncdc81": "USC00243113", "ncei91": "USC00243113", "ugc_county": "MTC015", "ugc_zone": "MTZ115", "county": "Chouteau", "sid": "79S", "network": "MT_ASOS", "online": true, "synop": 9999, "attributes": {"METAR_RESET_MINUTE": "0", "IS_AWOS": "1", "HAS_PHOUR": "1"}}, "geometry": {"type": "Point", "coordinates": [-110.6365, 47.8451]}}, {"type": "Feature", "id": "7S0", "properties": {"elevation": 938.3832, "sname": "Ronanairport", "time_domain": "(2020-Now)", "archive_begin": "2020-03-31", "archive_end": null, "state": "MT", "country": "US", "climate_site": "MT6640", "wfo": "MSO", "tzname": "America/Denver", "ncdc81": "USC00246635", "ncei91": "USC00246635", "ugc_county": "MTC047", "ugc_zone": "MTZ107", "county": "Lake", "sid": "7S0", "network": "MT_ASOS", "online": true, "synop": null, "attributes": {"HAS_PHOUR": "1", "METAR_RESET_MINUTE": "55"}}, "geometry": {"type": "Point", "coordinates": [-114.1001, 47.5683]}}, {"type": "Feature", "id": "7S1", "properties": {"elevation": 1449.3833, "sname": "Twin Bridges", "time_domain": "(2020-2021)", "archive_begin": "2020-03-26", "archive_end": "2021-03-15", "state": "MT", "country": "US", "climate_site": "MT8430", "wfo": "MSO", "tzname": "America/Denver", "ncdc81": "USC00248430", "ncei91": "USC00248430", "ugc_county": "MTC057", "ugc_zone": "MTZ111", "county": "Madison", "sid": "7S1", "network": "MT_ASOS", "online": false, "synop": null, "attributes": {"METAR_RESET_MINUTE": "55"}}, "geometry": {"type": "Point", "coordinates": [-112.3026, 45.5338]}}, {"type": "Feature", "id": "7S6", "properties": {"elevation": 1530.5433, "sname": "White Sulphur Springs", "time_domain": "(2020-2021)", "archive_begin": "2020-03-31", "archive_end": "2021-11-04", "state": "MT", "country": "US", "climate_site": "MT5712", "wfo": "TFX", "tzname": "America/Denver", "ncdc81": "USC00248930", "ncei91": "USC00248930", "ugc_county": "MTC059", "ugc_zone": "MTZ117", "county": "Meagher", "sid": "7S6", "network": "MT_ASOS", "online": false, "synop": null, "attributes": {"METAR_RESET_MINUTE": "55"}}, "geometry": {"type": "Point", "coordinates": [-110.9133, 46.5041]}}, {"type": "Feature", "id": "88M", "properties": {"elevation": 813.0, "sname": "Eureka", "time_domain": "(2011-2011)", "archive_begin": "2011-01-18", "archive_end": "2011-02-03", "state": "MT", "country": "US", "climate_site": "MT2827", "wfo": "MSO", "tzname": "America/Denver", "ncdc81": "USC00242827", "ncei91": "USC00242827", "ugc_county": "MTC053", "ugc_zone": "MTZ104", "county": "Lincoln", "sid": "88M", "network": "MT_ASOS", "online": false, "synop": 9999, "attributes": {"METAR_RESET_MINUTE": "57"}}, "geometry": {"type": "Point", "coordinates": [-115.0764, 48.9738]}}, {"type": "Feature", "id": "8S0", "properties": {"elevation": 1419.0, "sname": "STARR-BROWNING AIRSTRIP AIRPORT", "time_domain": "(2000-2015)", "archive_begin": "2000-01-06", "archive_end": "2015-09-30", "state": "MT", "country": "US", "climate_site": "MT2173", "wfo": "TFX", "tzname": "America/Denver", "ncdc81": "USC00242629", "ncei91": "USC00242629", "ugc_county": "MTC035", "ugc_zone": "MTZ112", "county": "Glacier", "sid": "8S0", "network": "MT_ASOS", "online": false, "synop": 114, "attributes": {"METAR_RESET_MINUTE": "50", "GHCNH_ID": "USW00000114"}}, "geometry": {"type": "Point", "coordinates": [-113.1148, 48.6014]}}, {"type": "Feature", "id": "9S2", "properties": {"elevation": 733.7632, "sname": "Scobey", "time_domain": "(2021-Now)", "archive_begin": "2021-07-15", "archive_end": null, "state": "MT", "country": "US", "climate_site": "MT7425", "wfo": "GGW", "tzname": "America/Denver", "ncdc81": "USC00247425", "ncei91": "USC00247425", "ugc_county": "MTC019", "ugc_zone": "MTZ120", "county": "Daniels", "sid": "9S2", "network": "MT_ASOS", "online": true, "synop": null, "attributes": {"HAS_PHOUR": "1", "METAR_RESET_MINUTE": "55"}}, "geometry": {"type": "Point", "coordinates": [-105.4361, 48.8078]}}, {"type": "Feature", "id": "9S5", "properties": {"elevation": 1244.9696, "sname": "Three Forks", "time_domain": "(2021-2024)", "archive_begin": "2021-07-15", "archive_end": "2024-06-17", "state": "MT", "country": "US", "climate_site": "MT8363", "wfo": "TFX", "tzname": "America/Denver", "ncdc81": "USC00248363", "ncei91": "USC00248363", "ugc_county": "MTC031", "ugc_zone": "MTZ118", "county": "Gallatin", "sid": "9S5", "network": "MT_ASOS", "online": false, "synop": null, "attributes": {"METAR_RESET_MINUTE": "55"}}, "geometry": {"type": "Point", "coordinates": [-111.5619, 45.8827]}}, {"type": "Feature", "id": "BHK", "properties": {"elevation": 906.0, "sname": "BAKER", "time_domain": "(1998-Now)", "archive_begin": "1998-03-01", "archive_end": null, "state": "MT", "country": "US", "climate_site": "MT6601", "wfo": "BYZ", "tzname": "America/Denver", "ncdc81": "USW00094055", "ncei91": "USW00094055", "ugc_county": "MTC025", "ugc_zone": "MTZ133", "county": "Fallon", "sid": "BHK", "network": "MT_ASOS", "online": true, "synop": 94055, "attributes": {"HAS_PHOUR": "1", "GHCNH_ID": "USW00094055", "HAS1MIN": "1", "METAR_RESET_MINUTE": "51"}}, "geometry": {"type": "Point", "coordinates": [-104.2594, 46.3476]}}, {"type": "Feature", "id": "BIL", "properties": {"elevation": 1088.0, "sname": "BILLINGS/LOGAN INTL", "time_domain": "(1935-Now)", "archive_begin": "1935-05-01", "archive_end": null, "state": "MT", "country": "US", "climate_site": "MT0807", "wfo": "BYZ", "tzname": "America/Denver", "ncdc81": "USW00024033", "ncei91": "USW00024033", "ugc_county": "MTC111", "ugc_zone": "MTZ035", "county": "Yellowstone", "sid": "BIL", "network": "MT_ASOS", "online": true, "synop": 24033, "attributes": {"HAS_PHOUR": "1", "HAS1MIN": "1", "METAR_RESET_MINUTE": "53", "HASTAF": "1", "GHCNH_ID": "USW00024033"}}, "geometry": {"type": "Point", "coordinates": [-108.5422, 45.8069]}}, {"type": "Feature", "id": "BTM", "properties": {"elevation": 1690.0, "sname": "BUTTE/BERT MOONEY", "time_domain": "(1931-Now)", "archive_begin": "1931-04-06", "archive_end": null, "state": "MT", "country": "US", "climate_site": "MT1318", "wfo": "MSO", "tzname": "America/Denver", "ncdc81": "USW00024135", "ncei91": "USW00024135", "ugc_county": "MTC093", "ugc_zone": "MTZ007", "county": "Silver Bow", "sid": "BTM", "network": "MT_ASOS", "online": true, "synop": 24135, "attributes": {"METAR_RESET_MINUTE": "53", "HAS1MIN": "1", "HAS_PHOUR": "1", "GHCNH_ID": "USW00024135", "HASTAF": "1"}}, "geometry": {"type": "Point", "coordinates": [-112.4975, 45.9548]}}, {"type": "Feature", "id": "BZN", "properties": {"elevation": 1364.0, "sname": "BOZEMAN/GALLATIN", "time_domain": "(1948-Now)", "archive_begin": "1948-01-01", "archive_end": null, "state": "MT", "country": "US", "climate_site": "MT0622", "wfo": "TFX", "tzname": "America/Denver", "ncdc81": "USW00024132", "ncei91": "USW00024132", "ugc_county": "MTC031", "ugc_zone": "MTZ055", "county": "Gallatin", "sid": "BZN", "network": "MT_ASOS", "online": true, "synop": 24132, "attributes": {"HAS1MIN": "1", "HAS_PHOUR": "1", "GHCNH_ID": "USW00024132", "HASTAF": "1", "METAR_RESET_MINUTE": "56"}}, "geometry": {"type": "Point", "coordinates": [-111.1608, 45.7881]}}, {"type": "Feature", "id": "CII", "properties": {"elevation": 1200.3715, "sname": "Choteau", "time_domain": "(2020-2024)", "archive_begin": "2020-04-01", "archive_end": "2024-11-04", "state": "MT", "country": "US", "climate_site": "MT1737", "wfo": "TFX", "tzname": "America/Denver", "ncdc81": "USC00241737", "ncei91": "USC00241737", "ugc_county": "MTC099", "ugc_zone": "MTZ114", "county": "Teton", "sid": "CII", "network": "MT_ASOS", "online": false, "synop": null, "attributes": {"METAR_RESET_MINUTE": "55"}}, "geometry": {"type": "Point", "coordinates": [-112.1683, 47.8283]}}, {"type": "Feature", "id": "CTB", "properties": {"elevation": 1175.0, "sname": "CUT BANK (AWOS)", "time_domain": "(1942-Now)", "archive_begin": "1942-12-01", "archive_end": null, "state": "MT", "country": "US", "climate_site": "MT2173", "wfo": "TFX", "tzname": "America/Denver", "ncdc81": "USW00024137", "ncei91": "USW00024137", "ugc_county": "MTC035", "ugc_zone": "MTZ112", "county": "Glacier", "sid": "CTB", "network": "MT_ASOS", "online": true, "synop": 24137, "attributes": {"HAS_PHOUR": "1", "HASTAF": "1", "METAR_RESET_MINUTE": "56", "HAS1MIN": "1", "GHCNH_ID": "USW00024137"}}, "geometry": {"type": "Point", "coordinates": [-112.3762, 48.6084]}}, {"type": "Feature", "id": "DLN", "properties": {"elevation": 1597.0, "sname": "DILLON AIRPORT", "time_domain": "(1948-Now)", "archive_begin": "1948-01-01", "archive_end": null, "state": "MT", "country": "US", "climate_site": "MT2404", "wfo": "TFX", "tzname": "America/Denver", "ncdc81": "USW00024138", "ncei91": "USW00024138", "ugc_county": "MTC001", "ugc_zone": "MTZ111", "county": "Beaverhead", "sid": "DLN", "network": "MT_ASOS", "online": true, "synop": 24138, "attributes": {"HAS1MIN": "1", "METAR_RESET_MINUTE": "53", "GHCNH_ID": "USW00024138", "HAS_PHOUR": "1"}}, "geometry": {"type": "Point", "coordinates": [-112.5525, 45.2554]}}, {"type": "Feature", "id": "EKS", "properties": {"elevation": 1630.2418, "sname": "Ennis", "time_domain": "(2015-Now)", "archive_begin": "2015-07-28", "archive_end": null, "state": "MT", "country": "US", "climate_site": "MT2793", "wfo": "TFX", "tzname": "America/Denver", "ncdc81": "USC00242793", "ncei91": "USC00242793", "ugc_county": "MTC057", "ugc_zone": "MTZ015", "county": "Madison", "sid": "EKS", "network": "MT_ASOS", "online": true, "synop": null, "attributes": {"GHCNH_ID": "USI0000KEKS", "HAS_PHOUR": "1", "HASTAF": "1", "METAR_RESET_MINUTE": "55"}}, "geometry": {"type": "Point", "coordinates": [-111.6486, 45.2718]}}, {"type": "Feature", "id": "GDV", "properties": {"elevation": 749.0, "sname": "GLENDIVE(AWOS)", "time_domain": "(1973-Now)", "archive_begin": "1973-01-01", "archive_end": null, "state": "MT", "country": "US", "climate_site": "MT3581", "wfo": "GGW", "tzname": "America/Denver", "ncdc81": "USC00243581", "ncei91": "USC00243581", "ugc_county": "MTC021", "ugc_zone": "MTZ025", "county": "Prairie", "sid": "GDV", "network": "MT_ASOS", "online": true, "synop": 24087, "attributes": {"HAS_PHOUR": "1", "METAR_RESET_MINUTE": "56", "HASTAF": "1", "GHCNH_ID": "USW00024087"}}, "geometry": {"type": "Point", "coordinates": [-104.8072, 47.1387]}}, {"type": "Feature", "id": "GFA", "properties": {"elevation": 1075.0, "sname": "MALMSTROM AFB", "time_domain": "(1942-Now)", "archive_begin": "1942-12-01", "archive_end": null, "state": "MT", "country": "US", "climate_site": "MT3751", "wfo": "TFX", "tzname": "America/Denver", "ncdc81": "USC00243749", "ncei91": "USC00243749", "ugc_county": "MTC013", "ugc_zone": "MTZ117", "county": "Cascade", "sid": "GFA", "network": "MT_ASOS", "online": true, "synop": 24112, "attributes": {"GHCNH_ID": "USW00024112", "HAS_PHOUR": "1", "METAR_RESET_MINUTE": "58"}}, "geometry": {"type": "Point", "coordinates": [-111.1873, 47.5047]}}, {"type": "Feature", "id": "GGW", "properties": {"elevation": 700.0, "sname": "GLASGOW INTL ARPT", "time_domain": "(1942-Now)", "archive_begin": "1942-12-10", "archive_end": null, "state": "MT", "country": "US", "climate_site": "MT3558", "wfo": "GGW", "tzname": "America/Denver", "ncdc81": "USW00094008", "ncei91": "USW00094008", "ugc_county": "MTC105", "ugc_zone": "MTZ017", "county": "Valley", "sid": "GGW", "network": "MT_ASOS", "online": true, "synop": 94008, "attributes": {"GHCNH_ID": "USW00094008", "SHEF_6HR_SRC": "GGWM8", "METAR_RESET_MINUTE": "53", "HASTAF": "1", "HAS1MIN": "1", "HAS_PHOUR": "1"}}, "geometry": {"type": "Point", "coordinates": [-106.6214, 48.2138]}}, {"type": "Feature", "id": "GPI", "properties": {"elevation": 908.0, "sname": "KALISPELL", "time_domain": "(1900-Now)", "archive_begin": "1900-12-31", "archive_end": null, "state": "MT", "country": "US", "climate_site": "MT4558", "wfo": "MSO", "tzname": "America/Denver", "ncdc81": "USC00244558", "ncei91": "USC00244558", "ugc_county": "MTC029", "ugc_zone": "MTZ104", "county": "Flathead", "sid": "GPI", "network": "MT_ASOS", "online": true, "synop": 24146, "attributes": {"HAS1MIN": "1", "WAS": "FCA", "GHCNH_ID": "USW00024146", "HAS_PHOUR": "1", "HASTAF": "1", "METAR_RESET_MINUTE": "55"}}, "geometry": {"type": "Point", "coordinates": [-114.2636, 48.3042]}}, {"type": "Feature", "id": "GTF", "properties": {"elevation": 1115.0, "sname": "GREAT FALLS INTL", "time_domain": "(1948-Now)", "archive_begin": "1948-01-01", "archive_end": null, "state": "MT", "country": "US", "climate_site": "MT3751", "wfo": "TFX", "tzname": "America/Denver", "ncdc81": "USW00024143", "ncei91": "USW00024143", "ugc_county": "MTC013", "ugc_zone": "MTZ117", "county": "Cascade", "sid": "GTF", "network": "MT_ASOS", "online": true, "synop": 24143, "attributes": {"METAR_RESET_MINUTE": "53", "HASTAF": "1", "SHEF_6HR_SRC": "GTF", "GHCNH_ID": "USW00024143", "HAS_PHOUR": "1", "HAS1MIN": "1"}}, "geometry": {"type": "Point", "coordinates": [-111.3822, 47.4733]}}, {"type": "Feature", "id": "HLN", "properties": {"elevation": 1188.0, "sname": "HELENA REGIONAL", "time_domain": "(1936-Now)", "archive_begin": "1936-04-01", "archive_end": null, "state": "MT", "country": "US", "climate_site": "MT4055", "wfo": "TFX", "tzname": "America/Denver", "ncdc81": "USW00024144", "ncei91": "USW00024144", "ugc_county": "MTC049", "ugc_zone": "MTZ118", "county": "Lewis & Clark", "sid": "HLN", "network": "MT_ASOS", "online": true, "synop": 24144, "attributes": {"HAS_PHOUR": "1", "HAS1MIN": "1", "METAR_RESET_MINUTE": "53", "HASTAF": "1", "SHEF_6HR_SRC": "HLN", "GHCNH_ID": "USW00024144"}}, "geometry": {"type": "Point", "coordinates": [-111.9636, 46.6056]}}, {"type": "Feature", "id": "HMM", "properties": {"elevation": 1110.0, "sname": "HAMILTON/RAVALLI CO", "time_domain": "(1990-2001)", "archive_begin": "1990-09-01", "archive_end": "2001-06-30", "state": "MT", "country": "US", "climate_site": "MT3885", "wfo": "MSO", "tzname": "America/Denver", "ncdc81": "USC00243885", "ncei91": "USC00243885", "ugc_county": "MTC081", "ugc_zone": "MTZ109", "county": "Ravalli", "sid": "HMM", "network": "MT_ASOS", "online": false, "synop": 99999, "attributes": {"METAR_RESET_MINUTE": "50"}}, "geometry": {"type": "Point", "coordinates": [-114.15, 46.25]}}, {"type": "Feature", "id": "HRF", "properties": {"elevation": 1098.9084, "sname": "Hamilton", "time_domain": "(2011-Now)", "archive_begin": "2011-01-18", "archive_end": null, "state": "MT", "country": "US", "climate_site": "MT3885", "wfo": "MSO", "tzname": "America/Denver", "ncdc81": "USC00243885", "ncei91": "USC00243885", "ugc_county": "MTC081", "ugc_zone": "MTZ109", "county": "Ravalli", "sid": "HRF", "network": "MT_ASOS", "online": true, "synop": null, "attributes": {"METAR_RESET_MINUTE": "55", "WAS": "6S5", "HASTAF": "1", "HAS_PHOUR": "1"}}, "geometry": {"type": "Point", "coordinates": [-114.1246, 46.2546]}}, {"type": "Feature", "id": "HVR", "properties": {"elevation": 792.0, "sname": "Havre", "time_domain": "(1961-Now)", "archive_begin": "1961-02-01", "archive_end": null, "state": "MT", "country": "US", "climate_site": "MT3996", "wfo": "TFX", "tzname": "America/Denver", "ncdc81": "USW00094012", "ncei91": "USW00094012", "ugc_county": "MTC041", "ugc_zone": "MTZ113", "county": "Hill", "sid": "HVR", "network": "MT_ASOS", "online": true, "synop": 94012, "attributes": {"METAR_RESET_MINUTE": "53", "GHCNH_ID": "USW00094012", "HAS_PHOUR": "1", "HASTAF": "1", "HAS1MIN": "1", "SHEF_6HR_SRC": "HVR"}}, "geometry": {"type": "Point", "coordinates": [-109.7633, 48.5428]}}, {"type": "Feature", "id": "JDN", "properties": {"elevation": 811.0, "sname": "JORDAN (RAMOS)", "time_domain": "(1979-Now)", "archive_begin": "1979-03-22", "archive_end": null, "state": "MT", "country": "US", "climate_site": "MT1875", "wfo": "GGW", "tzname": "America/Denver", "ncdc81": "USW00094051", "ncei91": "USW00094051", "ugc_county": "MTC033", "ugc_zone": "MTZ121", "county": "Garfield", "sid": "JDN", "network": "MT_ASOS", "online": true, "synop": 94051, "attributes": {"METAR_RESET_MINUTE": "48", "HAS_PHOUR": "1", "GHCNH_ID": "USW00094051", "HAS1MIN": "1"}}, "geometry": {"type": "Point", "coordinates": [-106.9475, 47.3258]}}, {"type": "Feature", "id": "LVM", "properties": {"elevation": 1419.0, "sname": "LIVINGSTON/MISSION", "time_domain": "(1948-Now)", "archive_begin": "1948-01-01", "archive_end": null, "state": "MT", "country": "US", "climate_site": "MT5086", "wfo": "BYZ", "tzname": "America/Denver", "ncdc81": "USW00024150", "ncei91": "USW00024150", "ugc_county": "MTC067", "ugc_zone": "MTZ065", "county": "Park", "sid": "LVM", "network": "MT_ASOS", "online": true, "synop": 24150, "attributes": {"GHCNH_ID": "USW00024150", "HAS1MIN": "1", "METAR_RESET_MINUTE": "53", "HAS_PHOUR": "1", "HASTAF": "1"}}, "geometry": {"type": "Point", "coordinates": [-110.45, 45.7]}}, {"type": "Feature", "id": "LWT", "properties": {"elevation": 1270.0, "sname": "LEWISTOWN MUNICIPAL", "time_domain": "(1942-Now)", "archive_begin": "1942-04-01", "archive_end": null, "state": "MT", "country": "US", "climate_site": "MT4985", "wfo": "TFX", "tzname": "America/Denver", "ncdc81": "USW00024036", "ncei91": "USW00024036", "ugc_county": "MTC027", "ugc_zone": "MTZ115", "county": "Fergus", "sid": "LWT", "network": "MT_ASOS", "online": true, "synop": 24036, "attributes": {"HAS_PHOUR": "1", "GHCNH_ID": "USW00024036", "HASTAF": "1", "HAS1MIN": "1", "METAR_RESET_MINUTE": "54"}}, "geometry": {"type": "Point", "coordinates": [-109.4667, 47.0492]}}, {"type": "Feature", "id": "M46", "properties": {"elevation": 1044.0, "sname": "Colstrip", "time_domain": "(2011-2013)", "archive_begin": "2011-01-18", "archive_end": "2013-07-11", "state": "MT", "country": "US", "climate_site": "MT1905", "wfo": "BYZ", "tzname": "America/Denver", "ncdc81": "USC00241905", "ncei91": "USC00241905", "ugc_county": "MTC087", "ugc_zone": "MTZ031", "county": "Rosebud", "sid": "M46", "network": "MT_ASOS", "online": false, "synop": 9999, "attributes": {"METAR_RESET_MINUTE": "58"}}, "geometry": {"type": "Point", "coordinates": [-106.7093, 45.8528]}}, {"type": "Feature", "id": "M75", "properties": {"elevation": 683.2729, "sname": "Malta", "time_domain": "(2017-Now)", "archive_begin": "2017-03-03", "archive_end": null, "state": "MT", "country": "US", "climate_site": "MT5340", "wfo": "GGW", "tzname": "America/Denver", "ncdc81": "USC00245334", "ncei91": "USC00245334", "ugc_county": "MTC071", "ugc_zone": "MTZ016", "county": "Phillips", "sid": "M75", "network": "MT_ASOS", "online": true, "synop": null, "attributes": {"GHCNH_ID": "USI0000KM75", "METAR_RESET_MINUTE": "55", "HAS_PHOUR": "1"}}, "geometry": {"type": "Point", "coordinates": [-107.9179, 48.3689]}}, {"type": "Feature", "id": "MLS", "properties": {"elevation": 801.0, "sname": "MILES CITY", "time_domain": "(1948-Now)", "archive_begin": "1948-01-01", "archive_end": null, "state": "MT", "country": "US", "climate_site": "MT5690", "wfo": "BYZ", "tzname": "America/Denver", "ncdc81": "USW00024037", "ncei91": "USW00024037", "ugc_county": "MTC017", "ugc_zone": "MTZ032", "county": "Custer", "sid": "MLS", "network": "MT_ASOS", "online": true, "synop": 24037, "attributes": {"METAR_RESET_MINUTE": "53", "HAS_PHOUR": "1", "GHCNH_ID": "USW00024037", "HASTAF": "1", "HAS1MIN": "1"}}, "geometry": {"type": "Point", "coordinates": [-105.8862, 46.428]}}, {"type": "Feature", "id": "MSO", "properties": {"elevation": 972.0, "sname": "MISSOULA/BELL FIELD", "time_domain": "(1948-Now)", "archive_begin": "1948-01-01", "archive_end": null, "state": "MT", "country": "US", "climate_site": "MT5745", "wfo": "MSO", "tzname": "America/Denver", "ncdc81": "USW00024153", "ncei91": "USW00024153", "ugc_county": "MTC063", "ugc_zone": "MTZ108", "county": "Missoula", "sid": "MSO", "network": "MT_ASOS", "online": true, "synop": 24153, "attributes": {"GHCNH_ID": "USW00024153", "HASTAF": "1", "METAR_RESET_MINUTE": "53", "HAS1MIN": "1", "HAS_PHOUR": "1"}}, "geometry": {"type": "Point", "coordinates": [-114.0925, 46.9208]}}, {"type": "Feature", "id": "MVH", "properties": {"elevation": 1338.9896, "sname": "Grassrange", "time_domain": "(2014-Now)", "archive_begin": "2014-10-19", "archive_end": null, "state": "MT", "country": "US", "climate_site": "MT3727", "wfo": "TFX", "tzname": "America/Denver", "ncdc81": "USC00243727", "ncei91": "USC00243727", "ugc_county": "MTC001", "ugc_zone": "MTZ008", "county": "Beaverhead", "sid": "MVH", "network": "MT_ASOS", "online": true, "synop": 9999, "attributes": {"HAS_PHOUR": "1", "GHCNH_ID": "USI0000KMVH", "METAR_RESET_MINUTE": "0"}}, "geometry": {"type": "Point", "coordinates": [-108.9368, 46.8381]}}, {"type": "Feature", "id": "OLF", "properties": {"elevation": 605.0, "sname": "WOLF POINT INTL", "time_domain": "(1973-Now)", "archive_begin": "1973-04-19", "archive_end": null, "state": "MT", "country": "US", "climate_site": "MT1088", "wfo": "GGW", "tzname": "America/Denver", "ncdc81": "USW00094017", "ncei91": "USW00094017", "ugc_county": "MTC085", "ugc_zone": "MTZ020", "county": "Roosevelt", "sid": "OLF", "network": "MT_ASOS", "online": true, "synop": 94017, "attributes": {"GHCNH_ID": "USW00094017", "HAS1MIN": "1", "METAR_RESET_MINUTE": "53", "HASTAF": "1", "HAS_PHOUR": "1"}}, "geometry": {"type": "Point", "coordinates": [-105.575, 48.0945]}}, {"type": "Feature", "id": "PO1", "properties": {"elevation": 617.0, "sname": "Poplar", "time_domain": "(2011-Now)", "archive_begin": "2011-01-18", "archive_end": null, "state": "MT", "country": "US", "climate_site": "MT1088", "wfo": "GGW", "tzname": "America/Denver", "ncdc81": "USW00094060", "ncei91": "USW00094060", "ugc_county": "MTC085", "ugc_zone": "MTZ020", "county": "Roosevelt", "sid": "PO1", "network": "MT_ASOS", "online": true, "synop": null, "attributes": {"HAS_PHOUR": "1", "METAR_RESET_MINUTE": "0", "IS_AWOS": "1"}}, "geometry": {"type": "Point", "coordinates": [-105.1621, 48.1344]}}, {"type": "Feature", "id": "PWD", "properties": {"elevation": 680.1436, "sname": "Plentywood Sher-Wood", "time_domain": "(2020-Now)", "archive_begin": "2020-03-31", "archive_end": null, "state": "MT", "country": "US", "climate_site": "MT6586", "wfo": "GGW", "tzname": "America/Denver", "ncdc81": "USC00246586", "ncei91": "USC00246586", "ugc_county": "MTC091", "ugc_zone": "MTZ120", "county": "Sheridan", "sid": "PWD", "network": "MT_ASOS", "online": true, "synop": null, "attributes": {"HAS_PHOUR": "1", "GHCNH_ID": "USI0000KPWD", "METAR_RESET_MINUTE": "55"}}, "geometry": {"type": "Point", "coordinates": [-104.5232, 48.7886]}}, {"type": "Feature", "id": "RPX", "properties": {"elevation": 1049.5825, "sname": "Roundup", "time_domain": "(1948-2024)", "archive_begin": "1948-01-01", "archive_end": "2024-06-17", "state": "MT", "country": "US", "climate_site": "MT3013", "wfo": "BYZ", "tzname": "America/Denver", "ncdc81": "USC00247214", "ncei91": "USC00247214", "ugc_county": "MTC065", "ugc_zone": "MTZ029", "county": "Musselshell", "sid": "RPX", "network": "MT_ASOS", "online": false, "synop": null, "attributes": {"METAR_RESET_MINUTE": "55"}}, "geometry": {"type": "Point", "coordinates": [-108.5434, 46.475]}}, {"type": "Feature", "id": "RVF", "properties": {"elevation": 1449.7709, "sname": "Twin Bridges", "time_domain": "(2021-Now)", "archive_begin": "2021-03-17", "archive_end": null, "state": "MT", "country": "US", "climate_site": "MT8430", "wfo": "TFX", "tzname": "America/Denver", "ncdc81": "USC00248430", "ncei91": "USC00248430", "ugc_county": "MTC057", "ugc_zone": "MTZ111", "county": "Madison", "sid": "RVF", "network": "MT_ASOS", "online": true, "synop": null, "attributes": {"GHCNH_ID": "USI0000KRVF", "HAS_PHOUR": "1", "METAR_RESET_MINUTE": "55"}}, "geometry": {"type": "Point", "coordinates": [-112.3023, 45.5354]}}, {"type": "Feature", "id": "S34", "properties": {"elevation": 748.0, "sname": "Plains", "time_domain": "(2021-Now)", "archive_begin": "2021-07-15", "archive_end": null, "state": "MT", "country": "US", "climate_site": "MT8211", "wfo": "MSO", "tzname": "America/Denver", "ncdc81": "USC00247318", "ncei91": "USW00024159", "ugc_county": "MTC089", "ugc_zone": "MTZ106", "county": "Sanders", "sid": "S34", "network": "MT_ASOS", "online": true, "synop": null, "attributes": {"METAR_RESET_MINUTE": "55", "HAS_PHOUR": "1"}}, "geometry": {"type": "Point", "coordinates": [-114.9071, 47.4736]}}, {"type": "Feature", "id": "S59", "properties": {"elevation": 792.0, "sname": "Libby", "time_domain": "(2011-2024)", "archive_begin": "2011-01-18", "archive_end": "2024-06-11", "state": "MT", "country": "US", "climate_site": "MT5011", "wfo": "MSO", "tzname": "America/Denver", "ncdc81": "USC00245015", "ncei91": "USC00245015", "ugc_county": "MTC053", "ugc_zone": "MTZ104", "county": "Lincoln", "sid": "S59", "network": "MT_ASOS", "online": false, "synop": 9999, "attributes": {"METAR_RESET_MINUTE": "0"}}, "geometry": {"type": "Point", "coordinates": [-115.4902, 48.2838]}}, {"type": "Feature", "id": "S71", "properties": {"elevation": 736.0, "sname": "Chinook Edgar G Obie", "time_domain": "(2011-2024)", "archive_begin": "2011-01-18", "archive_end": "2024-06-17", "state": "MT", "country": "US", "climate_site": "MT1722", "wfo": "TFX", "tzname": "America/Denver", "ncdc81": "USC00241722", "ncei91": "USC00241722", "ugc_county": "MTC005", "ugc_zone": "MTZ113", "county": "Blaine", "sid": "S71", "network": "MT_ASOS", "online": false, "synop": 9999, "attributes": {"METAR_RESET_MINUTE": "0"}}, "geometry": {"type": "Point", "coordinates": [-109.2506, 48.5921]}}, {"type": "Feature", "id": "S85", "properties": {"elevation": 589.507, "sname": "Culbertson - Big Sky Field", "time_domain": "(2020-2024)", "archive_begin": "2020-03-31", "archive_end": "2024-06-17", "state": "MT", "country": "US", "climate_site": "MT2122", "wfo": "GGW", "tzname": "America/Denver", "ncdc81": "USC00242122", "ncei91": "USC00242122", "ugc_county": "MTC085", "ugc_zone": "MTZ120", "county": "Roosevelt", "sid": "S85", "network": "MT_ASOS", "online": false, "synop": null, "attributes": {"METAR_RESET_MINUTE": "55"}}, "geometry": {"type": "Point", "coordinates": [-104.5041, 48.1533]}}, {"type": "Feature", "id": "SBX", "properties": {"elevation": 1045.0, "sname": "Shelby", "time_domain": "(2023-Now)", "archive_begin": "2023-09-30", "archive_end": null, "state": "MT", "country": "US", "climate_site": "MT1974", "wfo": "TFX", "tzname": "America/Denver", "ncdc81": "USC00247500", "ncei91": "USC00247500", "ugc_county": "MTC101", "ugc_zone": "MTZ303", "county": "Toole", "sid": "SBX", "network": "MT_ASOS", "online": true, "synop": null, "attributes": {"HAS_PHOUR": "1", "METAR_RESET_MINUTE": "55"}}, "geometry": {"type": "Point", "coordinates": [-111.8712, 48.5407]}}, {"type": "Feature", "id": "SDY", "properties": {"elevation": 605.0, "sname": "SIDNEY-RICHLAND", "time_domain": "(1973-Now)", "archive_begin": "1973-01-04", "archive_end": null, "state": "MT", "country": "US", "climate_site": "MT7560", "wfo": "GGW", "tzname": "America/Denver", "ncdc81": "USC00247560", "ncei91": "USC00247560", "ugc_county": "MTC083", "ugc_zone": "MTZ024", "county": "Richland", "sid": "SDY", "network": "MT_ASOS", "online": true, "synop": 94028, "attributes": {"HAS_PHOUR": "1", "METAR_RESET_MINUTE": "56", "HASTAF": "1", "GHCNH_ID": "USW00094028"}}, "geometry": {"type": "Point", "coordinates": [-104.1926, 47.7069]}}, {"type": "Feature", "id": "THM", "properties": {"elevation": 749.23517, "sname": "Thompson Falls", "time_domain": "(2021-2024)", "archive_begin": "2021-07-15", "archive_end": "2024-06-17", "state": "MT", "country": "US", "climate_site": "MT8211", "wfo": "MSO", "tzname": "America/Denver", "ncdc81": "USC00248211", "ncei91": "USC00248211", "ugc_county": "MTC089", "ugc_zone": "MTZ106", "county": "Sanders", "sid": "THM", "network": "MT_ASOS", "online": false, "synop": null, "attributes": {"METAR_RESET_MINUTE": "55"}}, "geometry": {"type": "Point", "coordinates": [-115.2807, 47.5735]}}, {"type": "Feature", "id": "WEY", "properties": {"elevation": 2031.0, "sname": "WEST YELLOWSTONE", "time_domain": "(1973-2007)", "archive_begin": "1973-01-01", "archive_end": "2007-10-18", "state": "MT", "country": "US", "climate_site": "MT4038", "wfo": "TFX", "tzname": "America/Denver", "ncdc81": "USC00248857", "ncei91": "USC00248858", "ugc_county": "MTC031", "ugc_zone": "MTZ055", "county": "Fremont", "sid": "WEY", "network": "MT_ASOS", "online": false, "synop": 24198, "attributes": {"GHCNH_ID": "USW00024198", "METAR_RESET_MINUTE": "39"}}, "geometry": {"type": "Point", "coordinates": [-111.1, 44.65]}}, {"type": "Feature", "id": "WYS", "properties": {"elevation": 2026.6, "sname": "West Yellowstone", "time_domain": "(1973-Now)", "archive_begin": "1973-06-01", "archive_end": null, "state": "MT", "country": "US", "climate_site": "MT4038", "wfo": "TFX", "tzname": "America/Denver", "ncdc81": "USC00248857", "ncei91": "USC00248858", "ugc_county": "MTC031", "ugc_zone": "MTZ055", "county": "Fremont", "sid": "WYS", "network": "MT_ASOS", "online": true, "synop": 94163, "attributes": {"GHCNH_ID": "USW00094163", "IS_AWOS": "1", "METAR_RESET_MINUTE": "55", "HASTAF": "1"}}, "geometry": {"type": "Point", "coordinates": [-111.1176, 44.6884]}}], "generated_at": "2026-08-19T13:04:55Z", "count": 60}