{"type": "FeatureCollection", "features": [{"type": "Feature", "id": "LFAC", "properties": {"elevation": 1.0, "sname": "Calais-Dunkerque", "time_domain": "(1991-Now)", "archive_begin": "1991-03-31", "archive_end": null, "state": "  ", "country": "FR", "climate_site": null, "wfo": null, "tzname": "Europe/Paris", "ncdc81": null, "ncei91": null, "ugc_county": null, "ugc_zone": null, "county": null, "sid": "LFAC", "network": "FR__ASOS", "online": true, "synop": null, "attributes": {"GHCNH_ID": "FRI0000LFAC", "HAS_PHOUR": "1"}}, "geometry": {"type": "Point", "coordinates": [1.9548, 50.9621]}}, {"type": "Feature", "id": "LFAQ", "properties": {"elevation": 111.0, "sname": "Albert", "time_domain": "(1988-Now)", "archive_begin": "1988-02-29", "archive_end": null, "state": null, "country": "FR", "climate_site": null, "wfo": null, "tzname": "Europe/Paris", "ncdc81": null, "ncei91": null, "ugc_county": null, "ugc_zone": null, "county": null, "sid": "LFAQ", "network": "FR__ASOS", "online": true, "synop": 99999, "attributes": {"GHCNH_ID": "FRI0000LFAQ", "METAR_RESET_MINUTE": "0"}}, "geometry": {"type": "Point", "coordinates": [2.6977, 49.9715]}}, {"type": "Feature", "id": "LFAT", "properties": {"elevation": 14.0, "sname": "Le Tourquet", "time_domain": "(1951-Now)", "archive_begin": "1951-02-09", "archive_end": null, "state": null, "country": "FR", "climate_site": null, "wfo": null, "tzname": "Europe/Paris", "ncdc81": null, "ncei91": null, "ugc_county": null, "ugc_zone": null, "county": null, "sid": "LFAT", "network": "FR__ASOS", "online": true, "synop": 99999, "attributes": {"HAS_PHOUR": "1", "GHCNH_ID": "FRI0000LFAT", "METAR_RESET_MINUTE": "0"}}, "geometry": {"type": "Point", "coordinates": [1.6228, 50.5144]}}, {"type": "Feature", "id": "LFBA", "properties": {"elevation": 60.0, "sname": "Agen", "time_domain": "(1941-Now)", "archive_begin": "1941-01-01", "archive_end": null, "state": null, "country": "FR", "climate_site": null, "wfo": null, "tzname": "Europe/Paris", "ncdc81": null, "ncei91": null, "ugc_county": null, "ugc_zone": null, "county": null, "sid": "LFBA", "network": "FR__ASOS", "online": true, "synop": 99999, "attributes": {"GHCNH_ID": "FRI0000LFBA", "HAS_PHOUR": "1", "METAR_RESET_MINUTE": "0"}}, "geometry": {"type": "Point", "coordinates": [0.5947, 44.1722]}}, {"type": "Feature", "id": "LFBC", "properties": {"elevation": 33.0, "sname": "Cazaux", "time_domain": "(1923-Now)", "archive_begin": "1923-07-01", "archive_end": null, "state": null, "country": "FR", "climate_site": null, "wfo": null, "tzname": "Europe/Paris", "ncdc81": null, "ncei91": null, "ugc_county": null, "ugc_zone": null, "county": null, "sid": "LFBC", "network": "FR__ASOS", "online": true, "synop": 99999, "attributes": {"METAR_RESET_MINUTE": "0", "HAS_PHOUR": "1", "GHCNH_ID": "FRI0000LFBC"}}, "geometry": {"type": "Point", "coordinates": [-1.125, 44.5333]}}, {"type": "Feature", "id": "LFBD", "properties": {"elevation": 61.0, "sname": "Bordeaux", "time_domain": "(1931-Now)", "archive_begin": "1931-01-01", "archive_end": null, "state": null, "country": "FR", "climate_site": null, "wfo": null, "tzname": "Europe/Paris", "ncdc81": null, "ncei91": null, "ugc_county": null, "ugc_zone": null, "county": null, "sid": "LFBD", "network": "FR__ASOS", "online": true, "synop": 99999, "attributes": {"METAR_RESET_MINUTE": "0", "HAS_PHOUR": "1"}}, "geometry": {"type": "Point", "coordinates": [-0.6914, 44.8306]}}, {"type": "Feature", "id": "LFBE", "properties": {"elevation": 52.0, "sname": "Bergerac", "time_domain": "(1988-Now)", "archive_begin": "1988-05-02", "archive_end": null, "state": null, "country": "FR", "climate_site": null, "wfo": null, "tzname": "Europe/Paris", "ncdc81": null, "ncei91": null, "ugc_county": null, "ugc_zone": null, "county": null, "sid": "LFBE", "network": "FR__ASOS", "online": true, "synop": 99999, "attributes": {"METAR_RESET_MINUTE": "0", "HAS_PHOUR": "1"}}, "geometry": {"type": "Point", "coordinates": [0.5164, 44.8214]}}, {"type": "Feature", "id": "LFBF", "properties": {"elevation": 166.0, "sname": "Toulouse", "time_domain": "(1922-Now)", "archive_begin": "1922-06-19", "archive_end": null, "state": null, "country": "FR", "climate_site": null, "wfo": null, "tzname": "Europe/Paris", "ncdc81": null, "ncei91": null, "ugc_county": null, "ugc_zone": null, "county": null, "sid": "LFBF", "network": "FR__ASOS", "online": true, "synop": 99999, "attributes": {"GHCNH_ID": "FRI0000LFBF", "HAS_PHOUR": "1", "METAR_RESET_MINUTE": "0"}}, "geometry": {"type": "Point", "coordinates": [1.3675, 43.5456]}}, {"type": "Feature", "id": "LFBG", "properties": {"elevation": 31.0, "sname": "Cognac", "time_domain": "(1948-Now)", "archive_begin": "1948-12-31", "archive_end": null, "state": null, "country": "FR", "climate_site": null, "wfo": null, "tzname": "Europe/Paris", "ncdc81": null, "ncei91": null, "ugc_county": null, "ugc_zone": null, "county": null, "sid": "LFBG", "network": "FR__ASOS", "online": true, "synop": 99999, "attributes": {"METAR_RESET_MINUTE": "0", "HAS_PHOUR": "1", "GHCNH_ID": "FRI0000LFBG"}}, "geometry": {"type": "Point", "coordinates": [-0.3167, 45.6667]}}, {"type": "Feature", "id": "LFBH", "properties": {"elevation": 10.0, "sname": "La Rochelle", "time_domain": "(1976-Now)", "archive_begin": "1976-11-30", "archive_end": null, "state": null, "country": "FR", "climate_site": null, "wfo": null, "tzname": "Europe/Paris", "ncdc81": null, "ncei91": null, "ugc_county": null, "ugc_zone": null, "county": null, "sid": "LFBH", "network": "FR__ASOS", "online": true, "synop": 99999, "attributes": {"METAR_RESET_MINUTE": "0", "GHCNH_ID": "FRI0000LFBH", "HAS_PHOUR": "1"}}, "geometry": {"type": "Point", "coordinates": [-1.1931, 46.1781]}}, {"type": "Feature", "id": "LFBI", "properties": {"elevation": 120.0, "sname": "Poitiers", "time_domain": "(1936-Now)", "archive_begin": "1936-06-15", "archive_end": null, "state": null, "country": "FR", "climate_site": null, "wfo": null, "tzname": "Europe/Paris", "ncdc81": null, "ncei91": null, "ugc_county": null, "ugc_zone": null, "county": null, "sid": "LFBI", "network": "FR__ASOS", "online": true, "synop": 99999, "attributes": {"METAR_RESET_MINUTE": "0", "HAS_PHOUR": "1"}}, "geometry": {"type": "Point", "coordinates": [0.3144, 46.5939]}}, {"type": "Feature", "id": "LFBL", "properties": {"elevation": 402.0, "sname": "Limoges", "time_domain": "(1972-Now)", "archive_begin": "1972-12-31", "archive_end": null, "state": null, "country": "FR", "climate_site": null, "wfo": null, "tzname": "Europe/Paris", "ncdc81": null, "ncei91": null, "ugc_county": null, "ugc_zone": null, "county": null, "sid": "LFBL", "network": "FR__ASOS", "online": true, "synop": 99999, "attributes": {"METAR_RESET_MINUTE": "0", "HAS_PHOUR": "1", "GHCNH_ID": "FRI0000LFBL"}}, "geometry": {"type": "Point", "coordinates": [1.175, 45.8611]}}, {"type": "Feature", "id": "LFBM", "properties": {"elevation": 63.0, "sname": "Mont-de-marsan", "time_domain": "(1931-Now)", "archive_begin": "1931-04-01", "archive_end": null, "state": null, "country": "FR", "climate_site": null, "wfo": null, "tzname": "Europe/Paris", "ncdc81": null, "ncei91": null, "ugc_county": null, "ugc_zone": null, "county": null, "sid": "LFBM", "network": "FR__ASOS", "online": true, "synop": 99999, "attributes": {"METAR_RESET_MINUTE": "0", "HAS_PHOUR": "1", "GHCNH_ID": "FRI0000LFBM"}}, "geometry": {"type": "Point", "coordinates": [-0.5075, 43.9117]}}, {"type": "Feature", "id": "LFBO", "properties": {"elevation": 153.0, "sname": "Toulouse", "time_domain": "(1972-Now)", "archive_begin": "1972-12-31", "archive_end": null, "state": null, "country": "FR", "climate_site": null, "wfo": null, "tzname": "Europe/Paris", "ncdc81": null, "ncei91": null, "ugc_county": null, "ugc_zone": null, "county": null, "sid": "LFBO", "network": "FR__ASOS", "online": true, "synop": 99999, "attributes": {"METAR_RESET_MINUTE": "0", "HAS_PHOUR": "1"}}, "geometry": {"type": "Point", "coordinates": [1.3789, 43.6211]}}, {"type": "Feature", "id": "LFBP", "properties": {"elevation": 185.0, "sname": "Pau", "time_domain": "(1923-Now)", "archive_begin": "1923-07-01", "archive_end": null, "state": null, "country": "FR", "climate_site": null, "wfo": null, "tzname": "Europe/Paris", "ncdc81": null, "ncei91": null, "ugc_county": null, "ugc_zone": null, "county": null, "sid": "LFBP", "network": "FR__ASOS", "online": true, "synop": 99999, "attributes": {"GHCNH_ID": "FRI0000LFBP", "METAR_RESET_MINUTE": "0", "HAS_PHOUR": "1"}}, "geometry": {"type": "Point", "coordinates": [-0.4186, 43.38]}}, {"type": "Feature", "id": "LFBS", "properties": {"elevation": 30.0, "sname": "Biscarrosse", "time_domain": "(2025-Now)", "archive_begin": "2025-04-02", "archive_end": null, "state": "  ", "country": "FR", "climate_site": null, "wfo": null, "tzname": "Europe/Paris", "ncdc81": null, "ncei91": null, "ugc_county": null, "ugc_zone": null, "county": null, "sid": "LFBS", "network": "FR__ASOS", "online": true, "synop": null, "attributes": {"HAS_PHOUR": "1"}}, "geometry": {"type": "Point", "coordinates": [-1.132, 44.368]}}, {"type": "Feature", "id": "LFBT", "properties": {"elevation": 363.0, "sname": "Tarbes", "time_domain": "(1972-Now)", "archive_begin": "1972-12-31", "archive_end": null, "state": null, "country": "FR", "climate_site": null, "wfo": null, "tzname": "Europe/Paris", "ncdc81": null, "ncei91": null, "ugc_county": null, "ugc_zone": null, "county": null, "sid": "LFBT", "network": "FR__ASOS", "online": true, "synop": 99999, "attributes": {"HAS_PHOUR": "1", "METAR_RESET_MINUTE": "0"}}, "geometry": {"type": "Point", "coordinates": [0, 43.1881]}}, {"type": "Feature", "id": "LFBU", "properties": {"elevation": 133.0, "sname": "Angouleme", "time_domain": "(1931-Now)", "archive_begin": "1931-04-02", "archive_end": null, "state": null, "country": "FR", "climate_site": null, "wfo": null, "tzname": "Europe/Paris", "ncdc81": null, "ncei91": null, "ugc_county": null, "ugc_zone": null, "county": null, "sid": "LFBU", "network": "FR__ASOS", "online": true, "synop": 99999, "attributes": {"METAR_RESET_MINUTE": "0"}}, "geometry": {"type": "Point", "coordinates": [0.2215, 45.7292]}}, {"type": "Feature", "id": "LFBX", "properties": {"elevation": 95.95018, "sname": "Perigueux", "time_domain": "(1973-Now)", "archive_begin": "1973-01-01", "archive_end": null, "state": "  ", "country": "FR", "climate_site": null, "wfo": null, "tzname": "Europe/Paris", "ncdc81": null, "ncei91": null, "ugc_county": null, "ugc_zone": null, "county": null, "sid": "LFBX", "network": "FR__ASOS", "online": true, "synop": null, "attributes": {"METAR_RESET_MINUTE": "0", "GHCNH_ID": "FRI0000LFBX", "HAS_PHOUR": "1"}}, "geometry": {"type": "Point", "coordinates": [0.8156, 45.1981]}}, {"type": "Feature", "id": "LFBY", "properties": {"elevation": 32.0, "sname": "DAX SEYRESSE", "time_domain": "(1972-Now)", "archive_begin": "1972-12-31", "archive_end": null, "state": null, "country": "FR", "climate_site": null, "wfo": null, "tzname": "Europe/Paris", "ncdc81": null, "ncei91": null, "ugc_county": null, "ugc_zone": null, "county": null, "sid": "LFBY", "network": "FR__ASOS", "online": true, "synop": 99999, "attributes": {"METAR_RESET_MINUTE": "0", "HAS_PHOUR": "1"}}, "geometry": {"type": "Point", "coordinates": [-1.07, 43.6897]}}, {"type": "Feature", "id": "LFBZ", "properties": {"elevation": 71.0, "sname": "Biarritz-bayonne", "time_domain": "(1929-Now)", "archive_begin": "1929-08-01", "archive_end": null, "state": null, "country": "FR", "climate_site": null, "wfo": null, "tzname": "Europe/Paris", "ncdc81": null, "ncei91": null, "ugc_county": null, "ugc_zone": null, "county": null, "sid": "LFBZ", "network": "FR__ASOS", "online": true, "synop": 99999, "attributes": {"HAS_PHOUR": "1", "METAR_RESET_MINUTE": "0", "GHCNH_ID": "FRI0000LFBZ"}}, "geometry": {"type": "Point", "coordinates": [-1.5344, 43.4694]}}, {"type": "Feature", "id": "LFCG", "properties": {"elevation": 412.0, "sname": "St.-girons", "time_domain": "(1949-2024)", "archive_begin": "1949-01-01", "archive_end": "2024-12-17", "state": null, "country": "FR", "climate_site": null, "wfo": null, "tzname": "Europe/Paris", "ncdc81": null, "ncei91": null, "ugc_county": null, "ugc_zone": null, "county": null, "sid": "LFCG", "network": "FR__ASOS", "online": false, "synop": 99999, "attributes": {"GHCNH_ID": "FRI0000LFCG", "METAR_RESET_MINUTE": "0"}}, "geometry": {"type": "Point", "coordinates": [1.1067, 43.0053]}}, {"type": "Feature", "id": "LFCK", "properties": {"elevation": 227.67433, "sname": "Castres", "time_domain": "(2006-Now)", "archive_begin": "2006-10-24", "archive_end": null, "state": null, "country": "FR", "climate_site": null, "wfo": null, "tzname": "Europe/Paris", "ncdc81": null, "ncei91": null, "ugc_county": null, "ugc_zone": null, "county": null, "sid": "LFCK", "network": "FR__ASOS", "online": true, "synop": 9999, "attributes": {"METAR_RESET_MINUTE": "0", "GHCNH_ID": "FRI0000LFCK", "HAS_PHOUR": "1"}}, "geometry": {"type": "Point", "coordinates": [2.2892, 43.5562]}}, {"type": "Feature", "id": "LFCR", "properties": {"elevation": 580.0, "sname": "Rodez", "time_domain": "(1974-Now)", "archive_begin": "1974-03-18", "archive_end": null, "state": null, "country": "FR", "climate_site": null, "wfo": null, "tzname": "Europe/Paris", "ncdc81": null, "ncei91": null, "ugc_county": null, "ugc_zone": null, "county": null, "sid": "LFCR", "network": "FR__ASOS", "online": true, "synop": 99999, "attributes": {"HAS_PHOUR": "1", "METAR_RESET_MINUTE": "0", "GHCNH_ID": "FRI0000LFCR"}}, "geometry": {"type": "Point", "coordinates": [2.4825, 44.4103]}}, {"type": "Feature", "id": "LFDB", "properties": {"elevation": 107.0, "sname": "Montauban", "time_domain": "(1990-2025)", "archive_begin": "1990-03-31", "archive_end": "2025-01-13", "state": null, "country": "FR", "climate_site": null, "wfo": null, "tzname": "Europe/Paris", "ncdc81": null, "ncei91": null, "ugc_county": null, "ugc_zone": null, "county": null, "sid": "LFDB", "network": "FR__ASOS", "online": false, "synop": 99999, "attributes": {"METAR_RESET_MINUTE": "42", "GHCNH_ID": "FRI0000LFDB"}}, "geometry": {"type": "Point", "coordinates": [1.3767, 44.0281]}}, {"type": "Feature", "id": "LFDH", "properties": {"elevation": 128.0, "sname": "Auch", "time_domain": "(1984-2025)", "archive_begin": "1984-12-01", "archive_end": "2025-01-13", "state": null, "country": "FR", "climate_site": null, "wfo": null, "tzname": "Europe/Paris", "ncdc81": null, "ncei91": null, "ugc_county": null, "ugc_zone": null, "county": null, "sid": "LFDH", "network": "FR__ASOS", "online": false, "synop": 99999, "attributes": {"METAR_RESET_MINUTE": "0", "GHCNH_ID": "FRI0000LFDH"}}, "geometry": {"type": "Point", "coordinates": [0.6014, 43.6906]}}, {"type": "Feature", "id": "LFGA", "properties": {"elevation": 183.72566, "sname": "Colmar", "time_domain": "(1996-Now)", "archive_begin": "1996-12-31", "archive_end": null, "state": null, "country": "FR", "climate_site": null, "wfo": null, "tzname": "Europe/Paris", "ncdc81": null, "ncei91": null, "ugc_county": null, "ugc_zone": null, "county": null, "sid": "LFGA", "network": "FR__ASOS", "online": true, "synop": 9999, "attributes": {"METAR_RESET_MINUTE": "0", "GHCNH_ID": "FRI0000LFGA"}}, "geometry": {"type": "Point", "coordinates": [7.359, 48.1099]}}, {"type": "Feature", "id": "LFGJ", "properties": {"elevation": 196.0, "sname": "Dole", "time_domain": "(1995-Now)", "archive_begin": "1995-08-31", "archive_end": null, "state": null, "country": "FR", "climate_site": null, "wfo": null, "tzname": "Europe/Paris", "ncdc81": null, "ncei91": null, "ugc_county": null, "ugc_zone": null, "county": null, "sid": "LFGJ", "network": "FR__ASOS", "online": true, "synop": 99999, "attributes": {"HAS_PHOUR": "1", "GHCNH_ID": "FRI0000LFGJ", "METAR_RESET_MINUTE": "0"}}, "geometry": {"type": "Point", "coordinates": [5.4272, 47.0439]}}, {"type": "Feature", "id": "LFHP", "properties": {"elevation": 833.0, "sname": "Le Puy", "time_domain": "(1983-Now)", "archive_begin": "1983-11-30", "archive_end": null, "state": null, "country": "FR", "climate_site": null, "wfo": null, "tzname": "Europe/Paris", "ncdc81": null, "ncei91": null, "ugc_county": null, "ugc_zone": null, "county": null, "sid": "LFHP", "network": "FR__ASOS", "online": true, "synop": 99999, "attributes": {"HAS_PHOUR": "1", "METAR_RESET_MINUTE": "0"}}, "geometry": {"type": "Point", "coordinates": [3.7639, 45.0744]}}, {"type": "Feature", "id": "LFJL", "properties": {"elevation": 264.0, "sname": "Metz", "time_domain": "(1991-Now)", "archive_begin": "1991-10-22", "archive_end": null, "state": null, "country": "FR", "climate_site": null, "wfo": null, "tzname": "Europe/Paris", "ncdc81": null, "ncei91": null, "ugc_county": null, "ugc_zone": null, "county": null, "sid": "LFJL", "network": "FR__ASOS", "online": true, "synop": 99999, "attributes": {"METAR_RESET_MINUTE": "0", "HAS_PHOUR": "1", "GHCNH_ID": "FRI0000LFJL"}}, "geometry": {"type": "Point", "coordinates": [6.2431, 48.9794]}}, {"type": "Feature", "id": "LFJR", "properties": {"elevation": 60.0, "sname": "Angers/Marc\u00e9", "time_domain": "(1936-Now)", "archive_begin": "1936-06-16", "archive_end": null, "state": null, "country": "FR", "climate_site": null, "wfo": null, "tzname": "Europe/Paris", "ncdc81": null, "ncei91": null, "ugc_county": null, "ugc_zone": null, "county": null, "sid": "LFJR", "network": "FR__ASOS", "online": true, "synop": 99999, "attributes": {"GHCNH_ID": "FRI0000LFJR", "METAR_RESET_MINUTE": "0"}}, "geometry": {"type": "Point", "coordinates": [-0.3122, 47.5603]}}, {"type": "Feature", "id": "LFKB", "properties": {"elevation": 12.0, "sname": "Bastia", "time_domain": "(1945-Now)", "archive_begin": "1945-05-18", "archive_end": null, "state": null, "country": "FR", "climate_site": null, "wfo": null, "tzname": "Europe/Paris", "ncdc81": null, "ncei91": null, "ugc_county": null, "ugc_zone": null, "county": null, "sid": "LFKB", "network": "FR__ASOS", "online": true, "synop": 99999, "attributes": {"HAS_PHOUR": "1", "METAR_RESET_MINUTE": "0", "GHCNH_ID": "FRI0000LFKB"}}, "geometry": {"type": "Point", "coordinates": [9.4853, 42.5406]}}, {"type": "Feature", "id": "LFKC", "properties": {"elevation": 58.0, "sname": "Calvi", "time_domain": "(1972-Now)", "archive_begin": "1972-12-31", "archive_end": null, "state": null, "country": "FR", "climate_site": null, "wfo": null, "tzname": "Europe/Paris", "ncdc81": null, "ncei91": null, "ugc_county": null, "ugc_zone": null, "county": null, "sid": "LFKC", "network": "FR__ASOS", "online": true, "synop": 99999, "attributes": {"GHCNH_ID": "FRI0000LFKC", "HAS_PHOUR": "1", "METAR_RESET_MINUTE": "0"}}, "geometry": {"type": "Point", "coordinates": [8.7911, 42.5228]}}, {"type": "Feature", "id": "LFKF", "properties": {"elevation": 23.0, "sname": "Figari", "time_domain": "(1979-Now)", "archive_begin": "1979-12-05", "archive_end": null, "state": null, "country": "FR", "climate_site": null, "wfo": null, "tzname": "Europe/Paris", "ncdc81": null, "ncei91": null, "ugc_county": null, "ugc_zone": null, "county": null, "sid": "LFKF", "network": "FR__ASOS", "online": true, "synop": 99999, "attributes": {"HAS_PHOUR": "1", "GHCNH_ID": "FRI0000LFKF", "METAR_RESET_MINUTE": "0"}}, "geometry": {"type": "Point", "coordinates": [9.0978, 41.5006]}}, {"type": "Feature", "id": "LFKJ", "properties": {"elevation": 9.0, "sname": "Ajaccio", "time_domain": "(1936-Now)", "archive_begin": "1936-06-16", "archive_end": null, "state": null, "country": "FR", "climate_site": null, "wfo": null, "tzname": "Europe/Paris", "ncdc81": null, "ncei91": null, "ugc_county": null, "ugc_zone": null, "county": null, "sid": "LFKJ", "network": "FR__ASOS", "online": true, "synop": 99999, "attributes": {"HAS_PHOUR": "1", "METAR_RESET_MINUTE": "0", "GHCNH_ID": "FRI0000LFKJ"}}, "geometry": {"type": "Point", "coordinates": [8.7928, 41.9306]}}, {"type": "Feature", "id": "LFKS", "properties": {"elevation": 22.0, "sname": "Solenzara", "time_domain": "(1961-Now)", "archive_begin": "1961-11-01", "archive_end": null, "state": null, "country": "FR", "climate_site": null, "wfo": null, "tzname": "Europe/Paris", "ncdc81": null, "ncei91": null, "ugc_county": null, "ugc_zone": null, "county": null, "sid": "LFKS", "network": "FR__ASOS", "online": true, "synop": 99999, "attributes": {"GHCNH_ID": "FRI0000LFKS", "HAS_PHOUR": "1", "METAR_RESET_MINUTE": "0"}}, "geometry": {"type": "Point", "coordinates": [9.3967, 41.9233]}}, {"type": "Feature", "id": "LFLB", "properties": {"elevation": 239.0, "sname": "Chambery", "time_domain": "(1973-Now)", "archive_begin": "1973-01-01", "archive_end": null, "state": null, "country": "FR", "climate_site": null, "wfo": null, "tzname": "Europe/Paris", "ncdc81": null, "ncei91": null, "ugc_county": null, "ugc_zone": null, "county": null, "sid": "LFLB", "network": "FR__ASOS", "online": true, "synop": 99999, "attributes": {"HAS_PHOUR": "1", "METAR_RESET_MINUTE": "0"}}, "geometry": {"type": "Point", "coordinates": [5.8831, 45.6367]}}, {"type": "Feature", "id": "LFLC", "properties": {"elevation": 330.0, "sname": "Clermont-Ferrand", "time_domain": "(1931-Now)", "archive_begin": "1931-01-02", "archive_end": null, "state": null, "country": "FR", "climate_site": null, "wfo": null, "tzname": "Europe/Paris", "ncdc81": null, "ncei91": null, "ugc_county": null, "ugc_zone": null, "county": null, "sid": "LFLC", "network": "FR__ASOS", "online": true, "synop": 99999, "attributes": {"HAS_PHOUR": "1", "METAR_RESET_MINUTE": "0", "GHCNH_ID": "FRI0000LFLC"}}, "geometry": {"type": "Point", "coordinates": [3.1494, 45.7869]}}, {"type": "Feature", "id": "LFLD", "properties": {"elevation": 166.0, "sname": "Bourges", "time_domain": "(1973-2012)", "archive_begin": "1973-01-01", "archive_end": "2012-12-31", "state": null, "country": "FR", "climate_site": null, "wfo": null, "tzname": "Europe/Paris", "ncdc81": null, "ncei91": null, "ugc_county": null, "ugc_zone": null, "county": null, "sid": "LFLD", "network": "FR__ASOS", "online": false, "synop": 99999, "attributes": {"METAR_RESET_MINUTE": "0"}}, "geometry": {"type": "Point", "coordinates": [2.3597, 47.0592]}}, {"type": "Feature", "id": "LFLH", "properties": {"elevation": 186.0, "sname": "Chalon Champforgeui", "time_domain": "(1984-Now)", "archive_begin": "1984-09-11", "archive_end": null, "state": "  ", "country": "FR", "climate_site": null, "wfo": null, "tzname": "Europe/Paris", "ncdc81": null, "ncei91": null, "ugc_county": null, "ugc_zone": null, "county": null, "sid": "LFLH", "network": "FR__ASOS", "online": true, "synop": null, "attributes": {"GHCNH_ID": "FRI0000LFLH"}}, "geometry": {"type": "Point", "coordinates": [4.818, 46.826]}}, {"type": "Feature", "id": "LFLL", "properties": {"elevation": 240.0, "sname": "Lyon", "time_domain": "(1931-Now)", "archive_begin": "1931-01-03", "archive_end": null, "state": null, "country": "FR", "climate_site": null, "wfo": null, "tzname": "Europe/Paris", "ncdc81": null, "ncei91": null, "ugc_county": null, "ugc_zone": null, "county": null, "sid": "LFLL", "network": "FR__ASOS", "online": true, "synop": 99999, "attributes": {"METAR_RESET_MINUTE": "0", "HAS_PHOUR": "1"}}, "geometry": {"type": "Point", "coordinates": [5.0778, 45.7264]}}, {"type": "Feature", "id": "LFLM", "properties": {"elevation": 217.0, "sname": "Macon", "time_domain": "(1943-2025)", "archive_begin": "1943-02-01", "archive_end": "2025-01-23", "state": null, "country": "FR", "climate_site": null, "wfo": null, "tzname": "Europe/Paris", "ncdc81": null, "ncei91": null, "ugc_county": null, "ugc_zone": null, "county": null, "sid": "LFLM", "network": "FR__ASOS", "online": false, "synop": 99999, "attributes": {"METAR_RESET_MINUTE": "0", "GHCNH_ID": "FRI0000LFLM"}}, "geometry": {"type": "Point", "coordinates": [4.7986, 46.2967]}}, {"type": "Feature", "id": "LFLN", "properties": {"elevation": 244.0, "sname": "St.-yan", "time_domain": "(1954-Now)", "archive_begin": "1954-01-01", "archive_end": null, "state": null, "country": "FR", "climate_site": null, "wfo": null, "tzname": "Europe/Paris", "ncdc81": null, "ncei91": null, "ugc_county": null, "ugc_zone": null, "county": null, "sid": "LFLN", "network": "FR__ASOS", "online": true, "synop": 99999, "attributes": {"GHCNH_ID": "FRI0000LFLN", "HAS_PHOUR": "1", "METAR_RESET_MINUTE": "0"}}, "geometry": {"type": "Point", "coordinates": [4.0247, 46.4119]}}, {"type": "Feature", "id": "LFLP", "properties": {"elevation": 463.0, "sname": "Annecy", "time_domain": "(1992-Now)", "archive_begin": "1992-05-15", "archive_end": null, "state": null, "country": "FR", "climate_site": null, "wfo": null, "tzname": "Europe/Paris", "ncdc81": null, "ncei91": null, "ugc_county": null, "ugc_zone": null, "county": null, "sid": "LFLP", "network": "FR__ASOS", "online": true, "synop": 99999, "attributes": {"HAS_PHOUR": "1", "METAR_RESET_MINUTE": "0", "GHCNH_ID": "FRI0000LFLP"}}, "geometry": {"type": "Point", "coordinates": [6.1058, 45.9297]}}, {"type": "Feature", "id": "LFLQ", "properties": {"elevation": 74.0, "sname": "MONTELIMAR/ANCONE", "time_domain": "(1920-2025)", "archive_begin": "1920-09-01", "archive_end": "2025-01-13", "state": null, "country": "FR", "climate_site": null, "wfo": null, "tzname": "Europe/Paris", "ncdc81": null, "ncei91": null, "ugc_county": null, "ugc_zone": null, "county": null, "sid": "LFLQ", "network": "FR__ASOS", "online": false, "synop": 99999, "attributes": {"METAR_RESET_MINUTE": "0", "GHCNH_ID": "FRI0000LFLQ"}}, "geometry": {"type": "Point", "coordinates": [4.7331, 44.5811]}}, {"type": "Feature", "id": "LFLS", "properties": {"elevation": 386.0, "sname": "Grenoble", "time_domain": "(1972-Now)", "archive_begin": "1972-12-31", "archive_end": null, "state": null, "country": "FR", "climate_site": null, "wfo": null, "tzname": "Europe/Paris", "ncdc81": null, "ncei91": null, "ugc_county": null, "ugc_zone": null, "county": null, "sid": "LFLS", "network": "FR__ASOS", "online": true, "synop": 99999, "attributes": {"METAR_RESET_MINUTE": "0", "GHCNH_ID": "FRI0000LFLS", "HAS_PHOUR": "1"}}, "geometry": {"type": "Point", "coordinates": [5.3294, 45.3629]}}, {"type": "Feature", "id": "LFLU", "properties": {"elevation": 160.19559, "sname": "Valence", "time_domain": "(1997-Now)", "archive_begin": "1997-08-31", "archive_end": null, "state": null, "country": "FR", "climate_site": null, "wfo": null, "tzname": "Europe/Paris", "ncdc81": null, "ncei91": null, "ugc_county": null, "ugc_zone": null, "county": null, "sid": "LFLU", "network": "FR__ASOS", "online": true, "synop": 9999, "attributes": {"GHCNH_ID": "FRI0000LFLU", "METAR_RESET_MINUTE": "0", "HAS_PHOUR": "1"}}, "geometry": {"type": "Point", "coordinates": [4.9699, 44.9216]}}, {"type": "Feature", "id": "LFLV", "properties": {"elevation": 251.0, "sname": "Vichy", "time_domain": "(1941-Now)", "archive_begin": "1941-01-01", "archive_end": null, "state": null, "country": "FR", "climate_site": null, "wfo": null, "tzname": "Europe/Paris", "ncdc81": null, "ncei91": null, "ugc_county": null, "ugc_zone": null, "county": null, "sid": "LFLV", "network": "FR__ASOS", "online": true, "synop": 99999, "attributes": {"METAR_RESET_MINUTE": "0", "GHCNH_ID": "FRI0000LFLV", "HAS_PHOUR": "1"}}, "geometry": {"type": "Point", "coordinates": [3.3986, 46.1667]}}, {"type": "Feature", "id": "LFLW", "properties": {"elevation": 639.0, "sname": "Aurillac", "time_domain": "(1945-Now)", "archive_begin": "1945-08-10", "archive_end": null, "state": null, "country": "FR", "climate_site": null, "wfo": null, "tzname": "Europe/Paris", "ncdc81": null, "ncei91": null, "ugc_county": null, "ugc_zone": null, "county": null, "sid": "LFLW", "network": "FR__ASOS", "online": true, "synop": 99999, "attributes": {"GHCNH_ID": "FRI0000LFLW", "METAR_RESET_MINUTE": "0", "HAS_PHOUR": "1"}}, "geometry": {"type": "Point", "coordinates": [2.4211, 44.8986]}}, {"type": "Feature", "id": "LFLX", "properties": {"elevation": 157.0, "sname": "Chateauroux", "time_domain": "(1936-Now)", "archive_begin": "1936-01-02", "archive_end": null, "state": null, "country": "FR", "climate_site": null, "wfo": null, "tzname": "Europe/Paris", "ncdc81": null, "ncei91": null, "ugc_county": null, "ugc_zone": null, "county": null, "sid": "LFLX", "network": "FR__ASOS", "online": true, "synop": 34048, "attributes": {"GHCNH_ID": "FRW00034048", "METAR_RESET_MINUTE": "0", "HAS_PHOUR": "1"}}, "geometry": {"type": "Point", "coordinates": [1.7411, 46.8697]}}, {"type": "Feature", "id": "LFLY", "properties": {"elevation": 201.0, "sname": "Lyon", "time_domain": "(1972-Now)", "archive_begin": "1972-12-31", "archive_end": null, "state": null, "country": "FR", "climate_site": null, "wfo": null, "tzname": "Europe/Paris", "ncdc81": null, "ncei91": null, "ugc_county": null, "ugc_zone": null, "county": null, "sid": "LFLY", "network": "FR__ASOS", "online": true, "synop": 99999, "attributes": {"HAS_PHOUR": "1", "METAR_RESET_MINUTE": "0"}}, "geometry": {"type": "Point", "coordinates": [4.9378, 45.7261]}}, {"type": "Feature", "id": "LFMC", "properties": {"elevation": 78.0, "sname": "Le Luc", "time_domain": "(1946-Now)", "archive_begin": "1946-01-18", "archive_end": null, "state": null, "country": "FR", "climate_site": null, "wfo": null, "tzname": "Europe/Paris", "ncdc81": null, "ncei91": null, "ugc_county": null, "ugc_zone": null, "county": null, "sid": "LFMC", "network": "FR__ASOS", "online": true, "synop": 99999, "attributes": {"GHCNH_ID": "FRI0000LFMC", "HAS_PHOUR": "1", "METAR_RESET_MINUTE": "0"}}, "geometry": {"type": "Point", "coordinates": [6.3864, 43.3831]}}, {"type": "Feature", "id": "LFMD", "properties": {"elevation": 9.0, "sname": "Cannes", "time_domain": "(1981-Now)", "archive_begin": "1981-02-03", "archive_end": null, "state": null, "country": "FR", "climate_site": null, "wfo": null, "tzname": "Europe/Paris", "ncdc81": null, "ncei91": null, "ugc_county": null, "ugc_zone": null, "county": null, "sid": "LFMD", "network": "FR__ASOS", "online": true, "synop": 99999, "attributes": {"GHCNH_ID": "FRI0000LFMD", "METAR_RESET_MINUTE": "0", "HAS_PHOUR": "1"}}, "geometry": {"type": "Point", "coordinates": [6.9539, 43.5458]}}, {"type": "Feature", "id": "LFMH", "properties": {"elevation": 402.0, "sname": "St-Etienne", "time_domain": "(1973-Now)", "archive_begin": "1973-01-01", "archive_end": null, "state": null, "country": "FR", "climate_site": null, "wfo": null, "tzname": "Europe/Paris", "ncdc81": null, "ncei91": null, "ugc_county": null, "ugc_zone": null, "county": null, "sid": "LFMH", "network": "FR__ASOS", "online": true, "synop": 99999, "attributes": {"HAS_PHOUR": "1", "METAR_RESET_MINUTE": "0"}}, "geometry": {"type": "Point", "coordinates": [4.2933, 45.5331]}}, {"type": "Feature", "id": "LFMI", "properties": {"elevation": 24.0, "sname": "Istres", "time_domain": "(1923-Now)", "archive_begin": "1923-07-01", "archive_end": null, "state": null, "country": "FR", "climate_site": null, "wfo": null, "tzname": "Europe/Paris", "ncdc81": null, "ncei91": null, "ugc_county": null, "ugc_zone": null, "county": null, "sid": "LFMI", "network": "FR__ASOS", "online": true, "synop": 99999, "attributes": {"GHCNH_ID": "FRI0000LFMI", "HAS_PHOUR": "1", "METAR_RESET_MINUTE": "0"}}, "geometry": {"type": "Point", "coordinates": [4.9222, 43.5231]}}, {"type": "Feature", "id": "LFMK", "properties": {"elevation": 130.0, "sname": "Carcassonne", "time_domain": "(1948-Now)", "archive_begin": "1948-12-31", "archive_end": null, "state": null, "country": "FR", "climate_site": null, "wfo": null, "tzname": "Europe/Paris", "ncdc81": null, "ncei91": null, "ugc_county": null, "ugc_zone": null, "county": null, "sid": "LFMK", "network": "FR__ASOS", "online": true, "synop": 99999, "attributes": {"HAS_PHOUR": "1", "METAR_RESET_MINUTE": "0", "GHCNH_ID": "FRI0000LFMK"}}, "geometry": {"type": "Point", "coordinates": [2.3063, 43.216]}}, {"type": "Feature", "id": "LFML", "properties": {"elevation": 36.0, "sname": "Marseille", "time_domain": "(1921-Now)", "archive_begin": "1921-01-01", "archive_end": null, "state": null, "country": "FR", "climate_site": null, "wfo": null, "tzname": "Europe/Paris", "ncdc81": null, "ncei91": null, "ugc_county": null, "ugc_zone": null, "county": null, "sid": "LFML", "network": "FR__ASOS", "online": true, "synop": 99999, "attributes": {"GHCNH_ID": "FRI0000LFML", "HAS_PHOUR": "1", "METAR_RESET_MINUTE": "0"}}, "geometry": {"type": "Point", "coordinates": [5.2267, 43.4417]}}, {"type": "Feature", "id": "LFMN", "properties": {"elevation": 10.0, "sname": "Nice", "time_domain": "(1945-Now)", "archive_begin": "1945-09-30", "archive_end": null, "state": null, "country": "FR", "climate_site": null, "wfo": null, "tzname": "Europe/Paris", "ncdc81": null, "ncei91": null, "ugc_county": null, "ugc_zone": null, "county": null, "sid": "LFMN", "network": "FR__ASOS", "online": true, "synop": 99999, "attributes": {"HAS_PHOUR": "1", "METAR_RESET_MINUTE": "0"}}, "geometry": {"type": "Point", "coordinates": [7.2089, 43.6489]}}, {"type": "Feature", "id": "LFMO", "properties": {"elevation": 55.0, "sname": "Orange", "time_domain": "(1952-Now)", "archive_begin": "1952-07-31", "archive_end": null, "state": null, "country": "FR", "climate_site": null, "wfo": null, "tzname": "Europe/Paris", "ncdc81": null, "ncei91": null, "ugc_county": null, "ugc_zone": null, "county": null, "sid": "LFMO", "network": "FR__ASOS", "online": true, "synop": 99999, "attributes": {"GHCNH_ID": "FRI0000LFMO", "HAS_PHOUR": "1", "METAR_RESET_MINUTE": "0"}}, "geometry": {"type": "Point", "coordinates": [4.8611, 44.1447]}}, {"type": "Feature", "id": "LFMP", "properties": {"elevation": 48.0, "sname": "Perpignan", "time_domain": "(1924-Now)", "archive_begin": "1924-12-01", "archive_end": null, "state": null, "country": "FR", "climate_site": null, "wfo": null, "tzname": "Europe/Paris", "ncdc81": null, "ncei91": null, "ugc_county": null, "ugc_zone": null, "county": null, "sid": "LFMP", "network": "FR__ASOS", "online": true, "synop": 99999, "attributes": {"HAS_PHOUR": "1", "GHCNH_ID": "FRI0000LFMP", "METAR_RESET_MINUTE": "0"}}, "geometry": {"type": "Point", "coordinates": [2.8728, 42.7372]}}, {"type": "Feature", "id": "LFMT", "properties": {"elevation": 6.0, "sname": "Montpellier", "time_domain": "(1946-Now)", "archive_begin": "1946-01-01", "archive_end": null, "state": null, "country": "FR", "climate_site": null, "wfo": null, "tzname": "Europe/Paris", "ncdc81": null, "ncei91": null, "ugc_county": null, "ugc_zone": null, "county": null, "sid": "LFMT", "network": "FR__ASOS", "online": true, "synop": 99999, "attributes": {"METAR_RESET_MINUTE": "0", "GHCNH_ID": "FRI0000LFMT", "HAS_PHOUR": "1"}}, "geometry": {"type": "Point", "coordinates": [3.9631, 43.5769]}}, {"type": "Feature", "id": "LFMU", "properties": {"elevation": 17.0, "sname": "Beziers", "time_domain": "(1975-Now)", "archive_begin": "1975-07-17", "archive_end": null, "state": null, "country": "FR", "climate_site": null, "wfo": null, "tzname": "Europe/Paris", "ncdc81": null, "ncei91": null, "ugc_county": null, "ugc_zone": null, "county": null, "sid": "LFMU", "network": "FR__ASOS", "online": true, "synop": 99999, "attributes": {"HAS_PHOUR": "1", "GHCNH_ID": "FRI0000LFMU", "METAR_RESET_MINUTE": "0"}}, "geometry": {"type": "Point", "coordinates": [3.3539, 43.3235]}}, {"type": "Feature", "id": "LFMV", "properties": {"elevation": 38.0, "sname": "Avignon", "time_domain": "(1993-Now)", "archive_begin": "1993-10-31", "archive_end": null, "state": null, "country": "FR", "climate_site": null, "wfo": null, "tzname": "Europe/Paris", "ncdc81": null, "ncei91": null, "ugc_county": null, "ugc_zone": null, "county": null, "sid": "LFMV", "network": "FR__ASOS", "online": true, "synop": 99999, "attributes": {"HAS_PHOUR": "1", "METAR_RESET_MINUTE": "0", "GHCNH_ID": "FRI0000LFMV"}}, "geometry": {"type": "Point", "coordinates": [4.9018, 43.9073]}}, {"type": "Feature", "id": "LFMY", "properties": {"elevation": 60.0, "sname": "Salon", "time_domain": "(1947-Now)", "archive_begin": "1947-01-01", "archive_end": null, "state": null, "country": "FR", "climate_site": null, "wfo": null, "tzname": "Europe/Paris", "ncdc81": null, "ncei91": null, "ugc_county": null, "ugc_zone": null, "county": null, "sid": "LFMY", "network": "FR__ASOS", "online": true, "synop": 99999, "attributes": {"METAR_RESET_MINUTE": "0", "GHCNH_ID": "FRI0000LFMY", "HAS_PHOUR": "1"}}, "geometry": {"type": "Point", "coordinates": [5.1083, 43.6033]}}, {"type": "Feature", "id": "LFOA", "properties": {"elevation": 179.0, "sname": "Avord", "time_domain": "(1998-Now)", "archive_begin": "1998-02-01", "archive_end": null, "state": null, "country": "FR", "climate_site": null, "wfo": null, "tzname": "Europe/Paris", "ncdc81": null, "ncei91": null, "ugc_county": null, "ugc_zone": null, "county": null, "sid": "LFOA", "network": "FR__ASOS", "online": true, "synop": 99999, "attributes": {"METAR_RESET_MINUTE": "0", "HAS_PHOUR": "1"}}, "geometry": {"type": "Point", "coordinates": [2.6325, 47.0533]}}, {"type": "Feature", "id": "LFOB", "properties": {"elevation": 111.0, "sname": "Beauvais", "time_domain": "(1922-Now)", "archive_begin": "1922-10-15", "archive_end": null, "state": null, "country": "FR", "climate_site": null, "wfo": null, "tzname": "Europe/Paris", "ncdc81": null, "ncei91": null, "ugc_county": null, "ugc_zone": null, "county": null, "sid": "LFOB", "network": "FR__ASOS", "online": true, "synop": 99999, "attributes": {"HAS_PHOUR": "1", "GHCNH_ID": "FRI0000LFOB", "METAR_RESET_MINUTE": "0"}}, "geometry": {"type": "Point", "coordinates": [2.1272, 49.4464]}}, {"type": "Feature", "id": "LFOC", "properties": {"elevation": 127.0, "sname": "Chateaudun", "time_domain": "(1973-2021)", "archive_begin": "1973-01-01", "archive_end": "2021-10-11", "state": null, "country": "FR", "climate_site": null, "wfo": null, "tzname": "Europe/Paris", "ncdc81": null, "ncei91": null, "ugc_county": null, "ugc_zone": null, "county": null, "sid": "LFOC", "network": "FR__ASOS", "online": false, "synop": 99999, "attributes": {"METAR_RESET_MINUTE": "0"}}, "geometry": {"type": "Point", "coordinates": [1.3767, 48.0617]}}, {"type": "Feature", "id": "LFOE", "properties": {"elevation": 146.0, "sname": "Evreux", "time_domain": "(1954-Now)", "archive_begin": "1954-10-22", "archive_end": null, "state": null, "country": "FR", "climate_site": null, "wfo": null, "tzname": "Europe/Paris", "ncdc81": null, "ncei91": null, "ugc_county": null, "ugc_zone": null, "county": null, "sid": "LFOE", "network": "FR__ASOS", "online": true, "synop": 34061, "attributes": {"METAR_RESET_MINUTE": "0", "HAS_PHOUR": "1", "GHCNH_ID": "FRW00034061"}}, "geometry": {"type": "Point", "coordinates": [1.2217, 49.025]}}, {"type": "Feature", "id": "LFOF", "properties": {"elevation": 141.0, "sname": "ALENCON/VALFRAMBERT", "time_domain": "(1948-2025)", "archive_begin": "1948-12-31", "archive_end": "2025-01-13", "state": null, "country": "FR", "climate_site": null, "wfo": null, "tzname": "Europe/Paris", "ncdc81": null, "ncei91": null, "ugc_county": null, "ugc_zone": null, "county": null, "sid": "LFOF", "network": "FR__ASOS", "online": false, "synop": 99999, "attributes": {"METAR_RESET_MINUTE": "0", "GHCNH_ID": "FRI0000LFOF"}}, "geometry": {"type": "Point", "coordinates": [0.1103, 48.4456]}}, {"type": "Feature", "id": "LFOH", "properties": {"elevation": 103.0, "sname": "Le Havre", "time_domain": "(1931-Now)", "archive_begin": "1931-01-01", "archive_end": null, "state": null, "country": "FR", "climate_site": null, "wfo": null, "tzname": "Europe/Paris", "ncdc81": null, "ncei91": null, "ugc_county": null, "ugc_zone": null, "county": null, "sid": "LFOH", "network": "FR__ASOS", "online": true, "synop": 99999, "attributes": {"HAS_PHOUR": "1", "METAR_RESET_MINUTE": "0"}}, "geometry": {"type": "Point", "coordinates": [0.0711, 49.5089]}}, {"type": "Feature", "id": "LFOI", "properties": {"elevation": 77.0, "sname": "Abbeville", "time_domain": "(1922-2025)", "archive_begin": "1922-05-01", "archive_end": "2025-01-13", "state": null, "country": "FR", "climate_site": null, "wfo": null, "tzname": "Europe/Paris", "ncdc81": null, "ncei91": null, "ugc_county": null, "ugc_zone": null, "county": null, "sid": "LFOI", "network": "FR__ASOS", "online": false, "synop": 99999, "attributes": {"GHCNH_ID": "FRI0000LFOI", "METAR_RESET_MINUTE": "0"}}, "geometry": {"type": "Point", "coordinates": [1.8389, 50.1361]}}, {"type": "Feature", "id": "LFOJ", "properties": {"elevation": 125.0, "sname": "Orleans", "time_domain": "(1936-Now)", "archive_begin": "1936-01-02", "archive_end": null, "state": null, "country": "FR", "climate_site": null, "wfo": null, "tzname": "Europe/Paris", "ncdc81": null, "ncei91": null, "ugc_county": null, "ugc_zone": null, "county": null, "sid": "LFOJ", "network": "FR__ASOS", "online": true, "synop": 99999, "attributes": {"HAS_PHOUR": "1", "METAR_RESET_MINUTE": "0"}}, "geometry": {"type": "Point", "coordinates": [1.7767, 47.9833]}}, {"type": "Feature", "id": "LFOK", "properties": {"elevation": 162.0, "sname": "Chalons", "time_domain": "(1958-Now)", "archive_begin": "1958-08-31", "archive_end": null, "state": null, "country": "FR", "climate_site": null, "wfo": null, "tzname": "Europe/Paris", "ncdc81": null, "ncei91": null, "ugc_county": null, "ugc_zone": null, "county": null, "sid": "LFOK", "network": "FR__ASOS", "online": true, "synop": 34067, "attributes": {"METAR_RESET_MINUTE": "0", "GHCNH_ID": "FRW00034067", "HAS_PHOUR": "1"}}, "geometry": {"type": "Point", "coordinates": [4.1908, 48.7805]}}, {"type": "Feature", "id": "LFOP", "properties": {"elevation": 157.0, "sname": "Rouen", "time_domain": "(1968-Now)", "archive_begin": "1968-02-29", "archive_end": null, "state": null, "country": "FR", "climate_site": null, "wfo": null, "tzname": "Europe/Paris", "ncdc81": null, "ncei91": null, "ugc_county": null, "ugc_zone": null, "county": null, "sid": "LFOP", "network": "FR__ASOS", "online": true, "synop": 99999, "attributes": {"METAR_RESET_MINUTE": "0", "GHCNH_ID": "FRI0000LFOP", "HAS_PHOUR": "1"}}, "geometry": {"type": "Point", "coordinates": [1.1814, 49.3831]}}, {"type": "Feature", "id": "LFOR", "properties": {"elevation": 156.0, "sname": "CHARTRES/CHAMPOL", "time_domain": "(1936-2025)", "archive_begin": "1936-06-17", "archive_end": "2025-01-13", "state": null, "country": "FR", "climate_site": null, "wfo": null, "tzname": "Europe/Paris", "ncdc81": null, "ncei91": null, "ugc_county": null, "ugc_zone": null, "county": null, "sid": "LFOR", "network": "FR__ASOS", "online": false, "synop": 99999, "attributes": {"METAR_RESET_MINUTE": "0", "GHCNH_ID": "FRI0000LFOR"}}, "geometry": {"type": "Point", "coordinates": [1.5011, 48.4606]}}, {"type": "Feature", "id": "LFOT", "properties": {"elevation": 108.0, "sname": "Tours", "time_domain": "(1931-Now)", "archive_begin": "1931-01-01", "archive_end": null, "state": null, "country": "FR", "climate_site": null, "wfo": null, "tzname": "Europe/Paris", "ncdc81": null, "ncei91": null, "ugc_county": null, "ugc_zone": null, "county": null, "sid": "LFOT", "network": "FR__ASOS", "online": true, "synop": 99999, "attributes": {"HAS_PHOUR": "1", "METAR_RESET_MINUTE": "0"}}, "geometry": {"type": "Point", "coordinates": [0.7272, 47.4444]}}, {"type": "Feature", "id": "LFOV", "properties": {"elevation": 100.10286, "sname": "Laval", "time_domain": "(1988-Now)", "archive_begin": "1988-06-21", "archive_end": null, "state": null, "country": "FR", "climate_site": null, "wfo": null, "tzname": "Europe/Paris", "ncdc81": null, "ncei91": null, "ugc_county": null, "ugc_zone": null, "county": null, "sid": "LFOV", "network": "FR__ASOS", "online": true, "synop": 9999, "attributes": {"HAS_PHOUR": "1", "METAR_RESET_MINUTE": "0"}}, "geometry": {"type": "Point", "coordinates": [-0.743, 48.0314]}}, {"type": "Feature", "id": "LFOW", "properties": {"elevation": 101.0, "sname": "ST. QUENTIN/ROUPY", "time_domain": "(1933-2025)", "archive_begin": "1933-03-01", "archive_end": "2025-01-13", "state": null, "country": "FR", "climate_site": null, "wfo": null, "tzname": "Europe/Paris", "ncdc81": null, "ncei91": null, "ugc_county": null, "ugc_zone": null, "county": null, "sid": "LFOW", "network": "FR__ASOS", "online": false, "synop": 99999, "attributes": {"METAR_RESET_MINUTE": "0", "GHCNH_ID": "FRI0000LFOW"}}, "geometry": {"type": "Point", "coordinates": [3.2061, 49.8183]}}, {"type": "Feature", "id": "LFOZ", "properties": {"elevation": 115.0, "sname": "Orleans", "time_domain": "(2024-Now)", "archive_begin": "2024-05-19", "archive_end": null, "state": "  ", "country": "FR", "climate_site": null, "wfo": null, "tzname": "Europe/Paris", "ncdc81": null, "ncei91": null, "ugc_county": null, "ugc_zone": null, "county": null, "sid": "LFOZ", "network": "FR__ASOS", "online": true, "synop": null, "attributes": {"GHCNH_ID": "FRI0000LFOZ"}}, "geometry": {"type": "Point", "coordinates": [2.163, 47.897]}}, {"type": "Feature", "id": "LFPB", "properties": {"elevation": 65.0, "sname": "Paris", "time_domain": "(1928-Now)", "archive_begin": "1928-01-04", "archive_end": null, "state": null, "country": "FR", "climate_site": null, "wfo": null, "tzname": "Europe/Paris", "ncdc81": null, "ncei91": null, "ugc_county": null, "ugc_zone": null, "county": null, "sid": "LFPB", "network": "FR__ASOS", "online": true, "synop": 99999, "attributes": {"HAS_PHOUR": "1", "METAR_RESET_MINUTE": "0"}}, "geometry": {"type": "Point", "coordinates": [2.4272, 48.9672]}}, {"type": "Feature", "id": "LFPC", "properties": {"elevation": 88.0, "sname": "Creil", "time_domain": "(1940-2021)", "archive_begin": "1940-07-12", "archive_end": "2021-07-28", "state": null, "country": "FR", "climate_site": null, "wfo": null, "tzname": "Europe/Paris", "ncdc81": null, "ncei91": null, "ugc_county": null, "ugc_zone": null, "county": null, "sid": "LFPC", "network": "FR__ASOS", "online": false, "synop": 99999, "attributes": {"METAR_RESET_MINUTE": "0", "GHCNH_ID": "FRI0000LFPC"}}, "geometry": {"type": "Point", "coordinates": [2.5208, 49.2522]}}, {"type": "Feature", "id": "LFPG", "properties": {"elevation": 109.0, "sname": "Paris", "time_domain": "(1974-Now)", "archive_begin": "1974-04-18", "archive_end": null, "state": null, "country": "FR", "climate_site": null, "wfo": null, "tzname": "Europe/Paris", "ncdc81": null, "ncei91": null, "ugc_county": null, "ugc_zone": null, "county": null, "sid": "LFPG", "network": "FR__ASOS", "online": true, "synop": 99999, "attributes": {"METAR_RESET_MINUTE": "0", "GHCNH_ID": "FRI0000LFPG", "HAS_PHOUR": "1"}}, "geometry": {"type": "Point", "coordinates": [2.5344, 49.0153]}}, {"type": "Feature", "id": "LFPM", "properties": {"elevation": 92.0, "sname": "Melun", "time_domain": "(1949-Now)", "archive_begin": "1949-01-02", "archive_end": null, "state": null, "country": "FR", "climate_site": null, "wfo": null, "tzname": "Europe/Paris", "ncdc81": null, "ncei91": null, "ugc_county": null, "ugc_zone": null, "county": null, "sid": "LFPM", "network": "FR__ASOS", "online": true, "synop": 99999, "attributes": {"METAR_RESET_MINUTE": "0", "HAS_PHOUR": "1", "GHCNH_ID": "FRI0000LFPM"}}, "geometry": {"type": "Point", "coordinates": [2.6794, 48.6103]}}, {"type": "Feature", "id": "LFPN", "properties": {"elevation": 164.0, "sname": "Toussous-le-noble", "time_domain": "(1973-Now)", "archive_begin": "1973-01-01", "archive_end": null, "state": null, "country": "FR", "climate_site": null, "wfo": null, "tzname": "Europe/Paris", "ncdc81": null, "ncei91": null, "ugc_county": null, "ugc_zone": null, "county": null, "sid": "LFPN", "network": "FR__ASOS", "online": true, "synop": 99999, "attributes": {"HAS_PHOUR": "1", "METAR_RESET_MINUTE": "0"}}, "geometry": {"type": "Point", "coordinates": [2.1136, 48.7506]}}, {"type": "Feature", "id": "LFPO", "properties": {"elevation": 96.0, "sname": "Paris", "time_domain": "(1937-Now)", "archive_begin": "1937-06-01", "archive_end": null, "state": null, "country": "FR", "climate_site": null, "wfo": null, "tzname": "Europe/Paris", "ncdc81": null, "ncei91": null, "ugc_county": null, "ugc_zone": null, "county": null, "sid": "LFPO", "network": "FR__ASOS", "online": true, "synop": 99999, "attributes": {"HAS_PHOUR": "1", "METAR_RESET_MINUTE": "0"}}, "geometry": {"type": "Point", "coordinates": [2.3833, 48.7167]}}, {"type": "Feature", "id": "LFPT", "properties": {"elevation": 99.0, "sname": "Pontoise", "time_domain": "(2008-Now)", "archive_begin": "2008-10-22", "archive_end": null, "state": null, "country": "FR", "climate_site": null, "wfo": null, "tzname": "Europe/Paris", "ncdc81": null, "ncei91": null, "ugc_county": null, "ugc_zone": null, "county": null, "sid": "LFPT", "network": "FR__ASOS", "online": true, "synop": 99999, "attributes": {"METAR_RESET_MINUTE": "0", "GHCNH_ID": "FRI0000LFPT"}}, "geometry": {"type": "Point", "coordinates": [2.0408, 49.0966]}}, {"type": "Feature", "id": "LFPV", "properties": {"elevation": 179.0, "sname": "Villacoublay", "time_domain": "(1942-Now)", "archive_begin": "1942-01-01", "archive_end": null, "state": null, "country": "FR", "climate_site": null, "wfo": null, "tzname": "Europe/Paris", "ncdc81": null, "ncei91": null, "ugc_county": null, "ugc_zone": null, "county": null, "sid": "LFPV", "network": "FR__ASOS", "online": true, "synop": 99999, "attributes": {"GHCNH_ID": "FRI0000LFPV", "METAR_RESET_MINUTE": "0", "HAS_PHOUR": "1"}}, "geometry": {"type": "Point", "coordinates": [2.2015, 48.7744]}}, {"type": "Feature", "id": "LFQA", "properties": {"elevation": 90.89307, "sname": "Reims", "time_domain": "(1936-Now)", "archive_begin": "1936-10-10", "archive_end": null, "state": null, "country": "FR", "climate_site": null, "wfo": null, "tzname": "Europe/Paris", "ncdc81": null, "ncei91": null, "ugc_county": null, "ugc_zone": null, "county": null, "sid": "LFQA", "network": "FR__ASOS", "online": true, "synop": 9999, "attributes": {"METAR_RESET_MINUTE": "0", "HAS_PHOUR": "1"}}, "geometry": {"type": "Point", "coordinates": [4.1566, 49.2087]}}, {"type": "Feature", "id": "LFQB", "properties": {"elevation": 118.0, "sname": "Troyes", "time_domain": "(1975-Now)", "archive_begin": "1975-06-17", "archive_end": null, "state": null, "country": "FR", "climate_site": null, "wfo": null, "tzname": "Europe/Paris", "ncdc81": null, "ncei91": null, "ugc_county": null, "ugc_zone": null, "county": null, "sid": "LFQB", "network": "FR__ASOS", "online": true, "synop": 99999, "attributes": {"GHCNH_ID": "FRI0000LFQB", "HAS_PHOUR": "1", "METAR_RESET_MINUTE": "0"}}, "geometry": {"type": "Point", "coordinates": [4.02, 48.3247]}}, {"type": "Feature", "id": "LFQG", "properties": {"elevation": 181.0, "sname": "Nevers", "time_domain": "(1946-Now)", "archive_begin": "1946-01-01", "archive_end": null, "state": null, "country": "FR", "climate_site": null, "wfo": null, "tzname": "Europe/Paris", "ncdc81": null, "ncei91": null, "ugc_county": null, "ugc_zone": null, "county": null, "sid": "LFQG", "network": "FR__ASOS", "online": true, "synop": 99999, "attributes": {"METAR_RESET_MINUTE": "0", "GHCNH_ID": "FRI0000LFQG", "HAS_PHOUR": "1"}}, "geometry": {"type": "Point", "coordinates": [3.1128, 46.9983]}}, {"type": "Feature", "id": "LFQI", "properties": {"elevation": 77.0, "sname": "Cambrai", "time_domain": "(1972-2012)", "archive_begin": "1972-12-31", "archive_end": "2012-06-29", "state": null, "country": "FR", "climate_site": null, "wfo": null, "tzname": "Europe/Paris", "ncdc81": null, "ncei91": null, "ugc_county": null, "ugc_zone": null, "county": null, "sid": "LFQI", "network": "FR__ASOS", "online": false, "synop": 99999, "attributes": {"METAR_RESET_MINUTE": "0", "GHCNH_ID": "FRI0000LFQI"}}, "geometry": {"type": "Point", "coordinates": [3.1528, 50.2186]}}, {"type": "Feature", "id": "LFQQ", "properties": {"elevation": 52.0, "sname": "Lille", "time_domain": "(1945-Now)", "archive_begin": "1945-02-28", "archive_end": null, "state": null, "country": "FR", "climate_site": null, "wfo": null, "tzname": "Europe/Paris", "ncdc81": null, "ncei91": null, "ugc_county": null, "ugc_zone": null, "county": null, "sid": "LFQQ", "network": "FR__ASOS", "online": true, "synop": 99999, "attributes": {"METAR_RESET_MINUTE": "0", "HAS_PHOUR": "1"}}, "geometry": {"type": "Point", "coordinates": [3.0975, 50.57]}}, {"type": "Feature", "id": "LFRB", "properties": {"elevation": 103.0, "sname": "Brest", "time_domain": "(1929-Now)", "archive_begin": "1929-08-01", "archive_end": null, "state": null, "country": "FR", "climate_site": null, "wfo": null, "tzname": "Europe/Paris", "ncdc81": null, "ncei91": null, "ugc_county": null, "ugc_zone": null, "county": null, "sid": "LFRB", "network": "FR__ASOS", "online": true, "synop": 99999, "attributes": {"METAR_RESET_MINUTE": "0", "HAS_PHOUR": "1"}}, "geometry": {"type": "Point", "coordinates": [-4.4119, 48.4442]}}, {"type": "Feature", "id": "LFRC", "properties": {"elevation": 138.0, "sname": "Cherbourg", "time_domain": "(1936-Now)", "archive_begin": "1936-01-01", "archive_end": null, "state": null, "country": "FR", "climate_site": null, "wfo": null, "tzname": "Europe/Paris", "ncdc81": null, "ncei91": null, "ugc_county": null, "ugc_zone": null, "county": null, "sid": "LFRC", "network": "FR__ASOS", "online": true, "synop": 99999, "attributes": {"METAR_RESET_MINUTE": "0", "GHCNH_ID": "FRI0000LFRC", "HAS_PHOUR": "1"}}, "geometry": {"type": "Point", "coordinates": [-1.4781, 49.6475]}}, {"type": "Feature", "id": "LFRD", "properties": {"elevation": 59.0, "sname": "Dinard", "time_domain": "(1972-Now)", "archive_begin": "1972-12-31", "archive_end": null, "state": null, "country": "FR", "climate_site": null, "wfo": null, "tzname": "Europe/Paris", "ncdc81": null, "ncei91": null, "ugc_county": null, "ugc_zone": null, "county": null, "sid": "LFRD", "network": "FR__ASOS", "online": true, "synop": 99999, "attributes": {"HAS_PHOUR": "1", "METAR_RESET_MINUTE": "0"}}, "geometry": {"type": "Point", "coordinates": [-2.0748, 48.5889]}}, {"type": "Feature", "id": "LFRG", "properties": {"elevation": 146.0, "sname": "Deauville", "time_domain": "(1973-Now)", "archive_begin": "1973-01-01", "archive_end": null, "state": null, "country": "FR", "climate_site": null, "wfo": null, "tzname": "Europe/Paris", "ncdc81": null, "ncei91": null, "ugc_county": null, "ugc_zone": null, "county": null, "sid": "LFRG", "network": "FR__ASOS", "online": true, "synop": 99999, "attributes": {"METAR_RESET_MINUTE": "0", "HAS_PHOUR": "1"}}, "geometry": {"type": "Point", "coordinates": [0.1669, 49.3644]}}, {"type": "Feature", "id": "LFRH", "properties": {"elevation": 44.0, "sname": "Lorient", "time_domain": "(1952-Now)", "archive_begin": "1952-01-31", "archive_end": null, "state": null, "country": "FR", "climate_site": null, "wfo": null, "tzname": "Europe/Paris", "ncdc81": null, "ncei91": null, "ugc_county": null, "ugc_zone": null, "county": null, "sid": "LFRH", "network": "FR__ASOS", "online": true, "synop": 99999, "attributes": {"HAS_PHOUR": "1", "GHCNH_ID": "FRI0000LFRH", "METAR_RESET_MINUTE": "0"}}, "geometry": {"type": "Point", "coordinates": [-3.4428, 47.7686]}}, {"type": "Feature", "id": "LFRI", "properties": {"elevation": 91.0, "sname": "La Roche-sur-yon", "time_domain": "(1983-Now)", "archive_begin": "1983-04-05", "archive_end": null, "state": null, "country": "FR", "climate_site": null, "wfo": null, "tzname": "Europe/Paris", "ncdc81": null, "ncei91": null, "ugc_county": null, "ugc_zone": null, "county": null, "sid": "LFRI", "network": "FR__ASOS", "online": true, "synop": 99999, "attributes": {"HAS_PHOUR": "1", "METAR_RESET_MINUTE": "0", "GHCNH_ID": "FRI0000LFRI"}}, "geometry": {"type": "Point", "coordinates": [-1.3789, 46.7]}}, {"type": "Feature", "id": "LFRJ", "properties": {"elevation": 115.0, "sname": "Landivisiau", "time_domain": "(1966-Now)", "archive_begin": "1966-05-15", "archive_end": null, "state": null, "country": "FR", "climate_site": null, "wfo": null, "tzname": "Europe/Paris", "ncdc81": null, "ncei91": null, "ugc_county": null, "ugc_zone": null, "county": null, "sid": "LFRJ", "network": "FR__ASOS", "online": true, "synop": 99999, "attributes": {"GHCNH_ID": "FRI0000LFRJ", "METAR_RESET_MINUTE": "0", "HAS_PHOUR": "1"}}, "geometry": {"type": "Point", "coordinates": [-4.1516, 48.5303]}}, {"type": "Feature", "id": "LFRK", "properties": {"elevation": 67.0, "sname": "Caen", "time_domain": "(1972-Now)", "archive_begin": "1972-12-31", "archive_end": null, "state": null, "country": "FR", "climate_site": null, "wfo": null, "tzname": "Europe/Paris", "ncdc81": null, "ncei91": null, "ugc_county": null, "ugc_zone": null, "county": null, "sid": "LFRK", "network": "FR__ASOS", "online": true, "synop": 99999, "attributes": {"HAS_PHOUR": "1", "METAR_RESET_MINUTE": "0"}}, "geometry": {"type": "Point", "coordinates": [-0.4561, 49.18]}}, {"type": "Feature", "id": "LFRL", "properties": {"elevation": 82.0, "sname": "Lanvedoc", "time_domain": "(1929-Now)", "archive_begin": "1929-08-01", "archive_end": null, "state": null, "country": "FR", "climate_site": null, "wfo": null, "tzname": "Europe/Paris", "ncdc81": null, "ncei91": null, "ugc_county": null, "ugc_zone": null, "county": null, "sid": "LFRL", "network": "FR__ASOS", "online": true, "synop": 99999, "attributes": {"METAR_RESET_MINUTE": "0", "GHCNH_ID": "FRI0000LFRL", "HAS_PHOUR": "1"}}, "geometry": {"type": "Point", "coordinates": [-4.445, 48.2817]}}, {"type": "Feature", "id": "LFRM", "properties": {"elevation": 52.0, "sname": "Le Mans", "time_domain": "(1973-Now)", "archive_begin": "1973-01-03", "archive_end": null, "state": null, "country": "FR", "climate_site": null, "wfo": null, "tzname": "Europe/Paris", "ncdc81": null, "ncei91": null, "ugc_county": null, "ugc_zone": null, "county": null, "sid": "LFRM", "network": "FR__ASOS", "online": true, "synop": 99999, "attributes": {"METAR_RESET_MINUTE": "0", "HAS_PHOUR": "1"}}, "geometry": {"type": "Point", "coordinates": [0.1939, 47.9458]}}, {"type": "Feature", "id": "LFRN", "properties": {"elevation": 37.0, "sname": "Rennes", "time_domain": "(1931-Now)", "archive_begin": "1931-01-05", "archive_end": null, "state": null, "country": "FR", "climate_site": null, "wfo": null, "tzname": "Europe/Paris", "ncdc81": null, "ncei91": null, "ugc_county": null, "ugc_zone": null, "county": null, "sid": "LFRN", "network": "FR__ASOS", "online": true, "synop": 99999, "attributes": {"METAR_RESET_MINUTE": "0", "HAS_PHOUR": "1"}}, "geometry": {"type": "Point", "coordinates": [-1.7339, 48.0689]}}, {"type": "Feature", "id": "LFRO", "properties": {"elevation": 89.0, "sname": "Lannion", "time_domain": "(1993-Now)", "archive_begin": "1993-11-01", "archive_end": null, "state": null, "country": "FR", "climate_site": null, "wfo": null, "tzname": "Europe/Paris", "ncdc81": null, "ncei91": null, "ugc_county": null, "ugc_zone": null, "county": null, "sid": "LFRO", "network": "FR__ASOS", "online": true, "synop": 99999, "attributes": {"HAS_PHOUR": "1", "METAR_RESET_MINUTE": "0", "GHCNH_ID": "FRI0000LFRO"}}, "geometry": {"type": "Point", "coordinates": [-3.4686, 48.7553]}}, {"type": "Feature", "id": "LFRQ", "properties": {"elevation": 94.0, "sname": "Quimper", "time_domain": "(1967-Now)", "archive_begin": "1967-07-01", "archive_end": null, "state": null, "country": "FR", "climate_site": null, "wfo": null, "tzname": "Europe/Paris", "ncdc81": null, "ncei91": null, "ugc_county": null, "ugc_zone": null, "county": null, "sid": "LFRQ", "network": "FR__ASOS", "online": true, "synop": 99999, "attributes": {"HAS_PHOUR": "1", "METAR_RESET_MINUTE": "0", "GHCNH_ID": "FRI0000LFRQ"}}, "geometry": {"type": "Point", "coordinates": [-4.1725, 47.9728]}}, {"type": "Feature", "id": "LFRS", "properties": {"elevation": 27.0, "sname": "Nantes", "time_domain": "(1937-Now)", "archive_begin": "1937-06-01", "archive_end": null, "state": null, "country": "FR", "climate_site": null, "wfo": null, "tzname": "Europe/Paris", "ncdc81": null, "ncei91": null, "ugc_county": null, "ugc_zone": null, "county": null, "sid": "LFRS", "network": "FR__ASOS", "online": true, "synop": 99999, "attributes": {"GHCNH_ID": "FRI0000LFRS", "HAS_PHOUR": "1", "METAR_RESET_MINUTE": "0"}}, "geometry": {"type": "Point", "coordinates": [-1.6089, 47.15]}}, {"type": "Feature", "id": "LFRT", "properties": {"elevation": 136.0, "sname": "St.-brieuc Armor", "time_domain": "(1985-Now)", "archive_begin": "1985-11-30", "archive_end": null, "state": null, "country": "FR", "climate_site": null, "wfo": null, "tzname": "Europe/Paris", "ncdc81": null, "ncei91": null, "ugc_county": null, "ugc_zone": null, "county": null, "sid": "LFRT", "network": "FR__ASOS", "online": true, "synop": 99999, "attributes": {"GHCNH_ID": "FRI0000LFRT", "METAR_RESET_MINUTE": "0", "HAS_PHOUR": "1"}}, "geometry": {"type": "Point", "coordinates": [-2.8531, 48.5364]}}, {"type": "Feature", "id": "LFRU", "properties": {"elevation": 83.36307, "sname": "Morlaix", "time_domain": "(2014-Now)", "archive_begin": "2014-12-30", "archive_end": null, "state": null, "country": "FR", "climate_site": null, "wfo": null, "tzname": "Europe/Paris", "ncdc81": null, "ncei91": null, "ugc_county": null, "ugc_zone": null, "county": null, "sid": "LFRU", "network": "FR__ASOS", "online": true, "synop": 9999, "attributes": {"METAR_RESET_MINUTE": "0", "GHCNH_ID": "FRI0000LFRU"}}, "geometry": {"type": "Point", "coordinates": [-3.8158, 48.6032]}}, {"type": "Feature", "id": "LFRV", "properties": {"elevation": 133.45032, "sname": "Vannes", "time_domain": "(1987-Now)", "archive_begin": "1987-05-31", "archive_end": null, "state": null, "country": "FR", "climate_site": null, "wfo": null, "tzname": "Europe/Paris", "ncdc81": null, "ncei91": null, "ugc_county": null, "ugc_zone": null, "county": null, "sid": "LFRV", "network": "FR__ASOS", "online": true, "synop": 9999, "attributes": {"METAR_RESET_MINUTE": "0", "HAS_PHOUR": "1"}}, "geometry": {"type": "Point", "coordinates": [-2.7186, 47.7233]}}, {"type": "Feature", "id": "LFRZ", "properties": {"elevation": 4.0, "sname": "St.-nazaire", "time_domain": "(1957-Now)", "archive_begin": "1957-07-01", "archive_end": null, "state": null, "country": "FR", "climate_site": null, "wfo": null, "tzname": "Europe/Paris", "ncdc81": null, "ncei91": null, "ugc_county": null, "ugc_zone": null, "county": null, "sid": "LFRZ", "network": "FR__ASOS", "online": true, "synop": 99999, "attributes": {"GHCNH_ID": "FRI0000LFRZ", "METAR_RESET_MINUTE": "0", "HAS_PHOUR": "1"}}, "geometry": {"type": "Point", "coordinates": [-2.1544, 47.3139]}}, {"type": "Feature", "id": "LFSB", "properties": {"elevation": 271.0, "sname": "Mulhouse", "time_domain": "(1972-Now)", "archive_begin": "1972-12-31", "archive_end": null, "state": null, "country": "FR", "climate_site": null, "wfo": null, "tzname": "Europe/Paris", "ncdc81": null, "ncei91": null, "ugc_county": null, "ugc_zone": null, "county": null, "sid": "LFSB", "network": "FR__ASOS", "online": true, "synop": 99999, "attributes": {"METAR_RESET_MINUTE": "0", "HAS_PHOUR": "1"}}, "geometry": {"type": "Point", "coordinates": [7.5103, 47.6142]}}, {"type": "Feature", "id": "LFSD", "properties": {"elevation": 227.0, "sname": "Dijon", "time_domain": "(1931-Now)", "archive_begin": "1931-01-01", "archive_end": null, "state": null, "country": "FR", "climate_site": null, "wfo": null, "tzname": "Europe/Paris", "ncdc81": null, "ncei91": null, "ugc_county": null, "ugc_zone": null, "county": null, "sid": "LFSD", "network": "FR__ASOS", "online": true, "synop": 99999, "attributes": {"HAS_PHOUR": "1", "METAR_RESET_MINUTE": "0"}}, "geometry": {"type": "Point", "coordinates": [5.0883, 47.2778]}}, {"type": "Feature", "id": "LFSF", "properties": {"elevation": 191.0, "sname": "Metz", "time_domain": "(1936-2012)", "archive_begin": "1936-01-02", "archive_end": "2012-10-26", "state": null, "country": "FR", "climate_site": null, "wfo": null, "tzname": "Europe/Paris", "ncdc81": null, "ncei91": null, "ugc_county": null, "ugc_zone": null, "county": null, "sid": "LFSF", "network": "FR__ASOS", "online": false, "synop": 99999, "attributes": {"METAR_RESET_MINUTE": "0"}}, "geometry": {"type": "Point", "coordinates": [6.1256, 49.0731]}}, {"type": "Feature", "id": "LFSG", "properties": {"elevation": 318.7405, "sname": "Epinal", "time_domain": "(2007-Now)", "archive_begin": "2007-02-26", "archive_end": null, "state": null, "country": "FR", "climate_site": null, "wfo": null, "tzname": "Europe/Paris", "ncdc81": null, "ncei91": null, "ugc_county": null, "ugc_zone": null, "county": null, "sid": "LFSG", "network": "FR__ASOS", "online": true, "synop": 9999, "attributes": {"GHCNH_ID": "FRI0000LFSG", "HAS_PHOUR": "1", "METAR_RESET_MINUTE": "0"}}, "geometry": {"type": "Point", "coordinates": [6.07, 48.325]}}, {"type": "Feature", "id": "LFSI", "properties": {"elevation": 140.0, "sname": "St.-dizier", "time_domain": "(1942-Now)", "archive_begin": "1942-01-01", "archive_end": null, "state": null, "country": "FR", "climate_site": null, "wfo": null, "tzname": "Europe/Paris", "ncdc81": null, "ncei91": null, "ugc_county": null, "ugc_zone": null, "county": null, "sid": "LFSI", "network": "FR__ASOS", "online": true, "synop": 99999, "attributes": {"METAR_RESET_MINUTE": "0", "HAS_PHOUR": "1", "GHCNH_ID": "FRI0000LFSI"}}, "geometry": {"type": "Point", "coordinates": [4.9036, 48.6314]}}, {"type": "Feature", "id": "LFSL", "properties": {"elevation": 305.0, "sname": "Brive Souillac", "time_domain": "(1952-Now)", "archive_begin": "1952-03-19", "archive_end": null, "state": "  ", "country": "FR", "climate_site": null, "wfo": null, "tzname": "Europe/Paris", "ncdc81": null, "ncei91": null, "ugc_county": null, "ugc_zone": null, "county": null, "sid": "LFSL", "network": "FR__ASOS", "online": true, "synop": null, "attributes": {"GHCNH_ID": "FRW00034051", "METAR_RESET_MINUTE": "0", "HAS_PHOUR": "1"}}, "geometry": {"type": "Point", "coordinates": [1.485, 45.04]}}, {"type": "Feature", "id": "LFSM", "properties": {"elevation": 313.0, "sname": "Montbeliard", "time_domain": "(2021-Now)", "archive_begin": "2021-01-04", "archive_end": null, "state": "  ", "country": "FR", "climate_site": null, "wfo": null, "tzname": "Europe/Paris", "ncdc81": null, "ncei91": null, "ugc_county": null, "ugc_zone": null, "county": null, "sid": "LFSM", "network": "FR__ASOS", "online": true, "synop": null, "attributes": {"GHCNH_ID": "FRI0000LFSM"}}, "geometry": {"type": "Point", "coordinates": [6.791, 47.487]}}, {"type": "Feature", "id": "LFSN", "properties": {"elevation": 217.0, "sname": "Nancy", "time_domain": "(1926-Now)", "archive_begin": "1926-04-04", "archive_end": null, "state": null, "country": "FR", "climate_site": null, "wfo": null, "tzname": "Europe/Paris", "ncdc81": null, "ncei91": null, "ugc_county": null, "ugc_zone": null, "county": null, "sid": "LFSN", "network": "FR__ASOS", "online": true, "synop": 99999, "attributes": {"GHCNH_ID": "FRI0000LFSN", "METAR_RESET_MINUTE": "0", "HAS_PHOUR": "1"}}, "geometry": {"type": "Point", "coordinates": [6.2217, 48.6878]}}, {"type": "Feature", "id": "LFSO", "properties": {"elevation": 350.0, "sname": "Nancy", "time_domain": "(1966-Now)", "archive_begin": "1966-09-30", "archive_end": null, "state": null, "country": "FR", "climate_site": null, "wfo": null, "tzname": "Europe/Paris", "ncdc81": null, "ncei91": null, "ugc_county": null, "ugc_zone": null, "county": null, "sid": "LFSO", "network": "FR__ASOS", "online": true, "synop": 99999, "attributes": {"METAR_RESET_MINUTE": "0", "GHCNH_ID": "FRI0000LFSO", "HAS_PHOUR": "1"}}, "geometry": {"type": "Point", "coordinates": [5.9597, 48.5811]}}, {"type": "Feature", "id": "LFSR", "properties": {"elevation": 99.0, "sname": "Reims", "time_domain": "(1931-2012)", "archive_begin": "1931-01-05", "archive_end": "2012-05-23", "state": null, "country": "FR", "climate_site": null, "wfo": null, "tzname": "Europe/Paris", "ncdc81": null, "ncei91": null, "ugc_county": null, "ugc_zone": null, "county": null, "sid": "LFSR", "network": "FR__ASOS", "online": false, "synop": 99999, "attributes": {"METAR_RESET_MINUTE": "0", "GHCNH_ID": "FRI0000LFSR"}}, "geometry": {"type": "Point", "coordinates": [4.0506, 49.3061]}}, {"type": "Feature", "id": "LFST", "properties": {"elevation": 154.0, "sname": "Strasbourg", "time_domain": "(1931-Now)", "archive_begin": "1931-01-01", "archive_end": null, "state": null, "country": "FR", "climate_site": null, "wfo": null, "tzname": "Europe/Paris", "ncdc81": null, "ncei91": null, "ugc_county": null, "ugc_zone": null, "county": null, "sid": "LFST", "network": "FR__ASOS", "online": true, "synop": 99999, "attributes": {"METAR_RESET_MINUTE": "0", "HAS_PHOUR": "1"}}, "geometry": {"type": "Point", "coordinates": [7.6403, 48.5494]}}, {"type": "Feature", "id": "LFSX", "properties": {"elevation": 273.0, "sname": "Luxeuil", "time_domain": "(1941-Now)", "archive_begin": "1941-03-01", "archive_end": null, "state": null, "country": "FR", "climate_site": null, "wfo": null, "tzname": "Europe/Paris", "ncdc81": null, "ncei91": null, "ugc_county": null, "ugc_zone": null, "county": null, "sid": "LFSX", "network": "FR__ASOS", "online": true, "synop": 99999, "attributes": {"HAS_PHOUR": "1", "METAR_RESET_MINUTE": "0"}}, "geometry": {"type": "Point", "coordinates": [6.3639, 47.7869]}}, {"type": "Feature", "id": "LFTH", "properties": {"elevation": 4.0, "sname": "Hyeres", "time_domain": "(1965-Now)", "archive_begin": "1965-12-31", "archive_end": null, "state": null, "country": "FR", "climate_site": null, "wfo": null, "tzname": "Europe/Paris", "ncdc81": null, "ncei91": null, "ugc_county": null, "ugc_zone": null, "county": null, "sid": "LFTH", "network": "FR__ASOS", "online": true, "synop": 99999, "attributes": {"GHCNH_ID": "FRI0000LFTH", "METAR_RESET_MINUTE": "0", "HAS_PHOUR": "1"}}, "geometry": {"type": "Point", "coordinates": [6.1464, 43.0944]}}, {"type": "Feature", "id": "LFTW", "properties": {"elevation": 96.0, "sname": "Nimes", "time_domain": "(1973-Now)", "archive_begin": "1973-01-01", "archive_end": null, "state": null, "country": "FR", "climate_site": null, "wfo": null, "tzname": "Europe/Paris", "ncdc81": null, "ncei91": null, "ugc_county": null, "ugc_zone": null, "county": null, "sid": "LFTW", "network": "FR__ASOS", "online": true, "synop": 99999, "attributes": {"GHCNH_ID": "FRI0000LFTW", "METAR_RESET_MINUTE": "0", "HAS_PHOUR": "1"}}, "geometry": {"type": "Point", "coordinates": [4.4119, 43.7581]}}, {"type": "Feature", "id": "LFVP", "properties": {"elevation": 8.0, "sname": "St.-pierre", "time_domain": "(1965-Now)", "archive_begin": "1965-12-31", "archive_end": null, "state": null, "country": "FR", "climate_site": null, "wfo": null, "tzname": "America/Miquelon", "ncdc81": null, "ncei91": null, "ugc_county": null, "ugc_zone": null, "county": null, "sid": "LFVP", "network": "FR__ASOS", "online": true, "synop": 99999, "attributes": {"GHCNH_ID": "SBI0000LFVP", "METAR_RESET_MINUTE": "0", "HAS_PHOUR": "1"}}, "geometry": {"type": "Point", "coordinates": [-56.1731, 46.7629]}}, {"type": "Feature", "id": "LFXA", "properties": {"elevation": 257.0, "sname": "Amberieu", "time_domain": "(1980-2025)", "archive_begin": "1980-10-29", "archive_end": "2025-01-13", "state": null, "country": "FR", "climate_site": null, "wfo": null, "tzname": "Europe/Paris", "ncdc81": null, "ncei91": null, "ugc_county": null, "ugc_zone": null, "county": null, "sid": "LFXA", "network": "FR__ASOS", "online": false, "synop": 99999, "attributes": {"METAR_RESET_MINUTE": "0", "GHCNH_ID": "FRI0000LFXA"}}, "geometry": {"type": "Point", "coordinates": [5.3294, 45.9764]}}, {"type": "Feature", "id": "LFYR", "properties": {"elevation": 86.0, "sname": "ROMORANTIN/PRUNIERS", "time_domain": "(1923-Now)", "archive_begin": "1923-08-01", "archive_end": null, "state": null, "country": "FR", "climate_site": null, "wfo": null, "tzname": "Europe/Paris", "ncdc81": null, "ncei91": null, "ugc_county": null, "ugc_zone": null, "county": null, "sid": "LFYR", "network": "FR__ASOS", "online": true, "synop": 99999, "attributes": {"HAS_PHOUR": "1", "METAR_RESET_MINUTE": "0", "GHCNH_ID": "FRI0000LFYR"}}, "geometry": {"type": "Point", "coordinates": [1.6875, 47.3197]}}], "generated_at": "2026-08-17T15:17:12Z", "count": 127}