{"type": "FeatureCollection", "features": [{"type": "Feature", "id": "ADU", "properties": {"elevation": 399.3, "sname": "AUDUBON", "time_domain": "(1994-Now)", "archive_begin": "1994-12-25", "archive_end": null, "state": "IA", "country": "US", "climate_site": "IA0385", "wfo": "DMX", "tzname": "America/Chicago", "ncdc81": "USC00130385", "ncei91": "USC00130385", "ugc_county": "IAC009", "ugc_zone": "IAZ057", "county": "Audubon", "sid": "ADU", "network": "IA_ASOS", "online": true, "synop": 94998, "attributes": {"METAR_RESET_MINUTE": "55", "IS_AWOS": "1", "GHCNH_ID": "USW00094998", "HAS_PHOUR": "1"}}, "geometry": {"type": "Point", "coordinates": [-94.9204, 41.6994]}}, {"type": "Feature", "id": "AIO", "properties": {"elevation": 351.7, "sname": "ATLANTIC", "time_domain": "(1995-Now)", "archive_begin": "1995-04-23", "archive_end": null, "state": "IA", "country": "US", "climate_site": "IA0364", "wfo": "DMX", "tzname": "America/Chicago", "ncdc81": "USC00130364", "ncei91": "USC00130364", "ugc_county": "IAC029", "ugc_zone": "IAZ070", "county": "Cass", "sid": "AIO", "network": "IA_ASOS", "online": true, "synop": 14930, "attributes": {"FLOOR": "1995-01-01", "HAS_PHOUR": "1", "METAR_RESET_MINUTE": "55", "IS_AWOS": "1", "GHCNH_ID": "USW00014930"}}, "geometry": {"type": "Point", "coordinates": [-95.0465, 41.4059]}}, {"type": "Feature", "id": "ALO", "properties": {"elevation": 268.0, "sname": "Waterloo", "time_domain": "(1949-Now)", "archive_begin": "1949-01-01", "archive_end": null, "state": "IA", "country": "US", "climate_site": "IA8706", "wfo": "DMX", "tzname": "America/Chicago", "ncdc81": "USW00094910", "ncei91": "USW00094910", "ugc_county": "IAC013", "ugc_zone": "IAZ039", "county": "Black Hawk", "sid": "ALO", "network": "IA_ASOS", "online": true, "synop": 94910, "attributes": {"SHEF_6HR_SRC": "WLOI4", "HAS1MIN": "1", "HASTAF": "1", "METAR_RESET_MINUTE": "54", "GHCNH_ID": "USW00094910", "HAS_PHOUR": "1"}}, "geometry": {"type": "Point", "coordinates": [-92.4013, 42.5544]}}, {"type": "Feature", "id": "AMW", "properties": {"elevation": 280.0, "sname": "Ames", "time_domain": "(1996-Now)", "archive_begin": "1996-09-30", "archive_end": null, "state": "IA", "country": "US", "climate_site": "IA0200", "wfo": "DMX", "tzname": "America/Chicago", "ncdc81": "USW00094989", "ncei91": "USC00130200", "ugc_county": "IAC169", "ugc_zone": "IAZ048", "county": "Story", "sid": "AMW", "network": "IA_ASOS", "online": true, "synop": 94989, "attributes": {"GHCNH_ID": "USW00094989", "HAS_PHOUR": "1", "METAR_RESET_MINUTE": "53", "HAS1MIN": "1"}}, "geometry": {"type": "Point", "coordinates": [-93.6185, 41.9904]}}, {"type": "Feature", "id": "AWG", "properties": {"elevation": 228.9, "sname": "WASHINGTON", "time_domain": "(1994-Now)", "archive_begin": "1994-12-25", "archive_end": null, "state": "IA", "country": "US", "climate_site": "IA8688", "wfo": "DVN", "tzname": "America/Chicago", "ncdc81": "USC00138688", "ncei91": "USC00138688", "ugc_county": "IAC183", "ugc_zone": "IAZ077", "county": "Washington", "sid": "AWG", "network": "IA_ASOS", "online": true, "synop": 4903, "attributes": {"HAS_PHOUR": "1", "METAR_RESET_MINUTE": "55", "IS_AWOS": "1", "GHCNH_ID": "USW00004903"}}, "geometry": {"type": "Point", "coordinates": [-91.6748, 41.2751]}}, {"type": "Feature", "id": "AXA", "properties": {"elevation": 368.8, "sname": "Algona", "time_domain": "(1994-Now)", "archive_begin": "1994-12-25", "archive_end": null, "state": "IA", "country": "US", "climate_site": "IA0133", "wfo": "DMX", "tzname": "America/Chicago", "ncdc81": "USC00130133", "ncei91": "USC00130133", "ugc_county": "IAC109", "ugc_zone": "IAZ005", "county": "Kossuth", "sid": "AXA", "network": "IA_ASOS", "online": true, "synop": 4904, "attributes": {"HAS_PHOUR": "1", "GHCNH_ID": "USW00004904", "METAR_RESET_MINUTE": "55", "IS_AWOS": "1"}}, "geometry": {"type": "Point", "coordinates": [-94.2724, 43.0796]}}, {"type": "Feature", "id": "BNW", "properties": {"elevation": 349.3, "sname": "BOONE MUNI", "time_domain": "(1995-Now)", "archive_begin": "1995-03-01", "archive_end": null, "state": "IA", "country": "US", "climate_site": "IA0807", "wfo": "DMX", "tzname": "America/Chicago", "ncdc81": "USC00130807", "ncei91": "USC00130807", "ugc_county": "IAC015", "ugc_zone": "IAZ047", "county": "Boone", "sid": "BNW", "network": "IA_ASOS", "online": true, "synop": 4906, "attributes": {"GHCNH_ID": "USW00004906", "HAS_PHOUR": "1", "FLOOR": "1995-01-01", "IS_AWOS": "1", "METAR_RESET_MINUTE": "55"}}, "geometry": {"type": "Point", "coordinates": [-93.8486, 42.0486]}}, {"type": "Feature", "id": "BRL", "properties": {"elevation": 213.0, "sname": "BURLINGTON", "time_domain": "(1931-Now)", "archive_begin": "1931-09-01", "archive_end": null, "state": "IA", "country": "US", "climate_site": "IA1060", "wfo": "DVN", "tzname": "America/Chicago", "ncdc81": "USC00131060", "ncei91": "USC00131060", "ugc_county": "IAC057", "ugc_zone": "IAZ089", "county": "Des Moines", "sid": "BRL", "network": "IA_ASOS", "online": true, "synop": 14931, "attributes": {"HAS_PHOUR": "1", "GHCNH_ID": "USW00014931", "METAR_RESET_MINUTE": "53", "HAS1MIN": "1", "HASTAF": "1"}}, "geometry": {"type": "Point", "coordinates": [-91.1255, 40.7729]}}, {"type": "Feature", "id": "CAV", "properties": {"elevation": 350.2, "sname": "CLARION", "time_domain": "(1994-Now)", "archive_begin": "1994-12-25", "archive_end": null, "state": "IA", "country": "US", "climate_site": "IA8806", "wfo": "DMX", "tzname": "America/Chicago", "ncdc81": "USC00131541", "ncei91": "USC00131541", "ugc_county": "IAC197", "ugc_zone": "IAZ025", "county": "Wright", "sid": "CAV", "network": "IA_ASOS", "online": true, "synop": 4907, "attributes": {"GHCNH_ID": "USW00004907", "HAS_PHOUR": "1", "IS_AWOS": "1", "METAR_RESET_MINUTE": "55"}}, "geometry": {"type": "Point", "coordinates": [-93.7593, 42.743]}}, {"type": "Feature", "id": "CBF", "properties": {"elevation": 378.0, "sname": "COUNCIL BLUFFS", "time_domain": "(1994-Now)", "archive_begin": "1994-12-25", "archive_end": null, "state": "IA", "country": "US", "climate_site": "IA6151", "wfo": "OAX", "tzname": "America/Chicago", "ncdc81": "USW00014942", "ncei91": "USW00014942", "ugc_county": "IAC155", "ugc_zone": "IAZ069", "county": "Pottawattamie", "sid": "CBF", "network": "IA_ASOS", "online": true, "synop": 4908, "attributes": {"GHCNH_ID": "USW00004908", "HAS_PHOUR": "1", "IS_AWOS": "1", "METAR_RESET_MINUTE": "55"}}, "geometry": {"type": "Point", "coordinates": [-95.7604, 41.2611]}}, {"type": "Feature", "id": "CCY", "properties": {"elevation": 340.2, "sname": "Charles City", "time_domain": "(1994-Now)", "archive_begin": "1994-12-25", "archive_end": null, "state": "IA", "country": "US", "climate_site": "IA1402", "wfo": "ARX", "tzname": "America/Chicago", "ncdc81": "USC00131402", "ncei91": "USC00131402", "ugc_county": "IAC067", "ugc_zone": "IAZ018", "county": "Floyd", "sid": "CCY", "network": "IA_ASOS", "online": true, "synop": 14966, "attributes": {"GHCNH_ID": "USW00014966", "METAR_RESET_MINUTE": "55", "HAS_PHOUR": "1", "IS_AWOS": "1"}}, "geometry": {"type": "Point", "coordinates": [-92.6132, 43.073]}}, {"type": "Feature", "id": "CID", "properties": {"elevation": 265.0, "sname": "CEDAR RAPIDS", "time_domain": "(1972-Now)", "archive_begin": "1972-12-31", "archive_end": null, "state": "IA", "country": "US", "climate_site": "IA1319", "wfo": "DVN", "tzname": "America/Chicago", "ncdc81": "USW00014990", "ncei91": "USW00014990", "ugc_county": "IAC113", "ugc_zone": "IAZ052", "county": "Linn", "sid": "CID", "network": "IA_ASOS", "online": true, "synop": 14990, "attributes": {"HAS1MIN": "1", "HASTAF": "1", "GHCNH_ID": "USW00014990", "HAS_PHOUR": "1", "METAR_RESET_MINUTE": "52"}}, "geometry": {"type": "Point", "coordinates": [-91.7246, 41.8829]}}, {"type": "Feature", "id": "CIN", "properties": {"elevation": 365.2, "sname": "CARROLL", "time_domain": "(1994-Now)", "archive_begin": "1994-12-25", "archive_end": null, "state": "IA", "country": "US", "climate_site": "IA1233", "wfo": "DMX", "tzname": "America/Chicago", "ncdc81": "USC00131233", "ncei91": "USC00131233", "ugc_county": "IAC027", "ugc_zone": "IAZ045", "county": "Carroll", "sid": "CIN", "network": "IA_ASOS", "online": true, "synop": 4910, "attributes": {"GHCNH_ID": "USW00004910", "HAS_PHOUR": "1", "METAR_RESET_MINUTE": "55", "IS_AWOS": "1"}}, "geometry": {"type": "Point", "coordinates": [-94.7889, 42.0444]}}, {"type": "Feature", "id": "CKP", "properties": {"elevation": 373.7, "sname": "Cherokee", "time_domain": "(2004-Now)", "archive_begin": "2004-10-22", "archive_end": null, "state": "IA", "country": "US", "climate_site": "IA1442", "wfo": "FSD", "tzname": "America/Chicago", "ncdc81": "USC00131442", "ncei91": "USC00131442", "ugc_county": "IAC035", "ugc_zone": "IAZ301", "county": "Cherokee", "sid": "CKP", "network": "IA_ASOS", "online": true, "synop": 54920, "attributes": {"METAR_RESET_MINUTE": "55", "IS_AWOS": "1", "HAS_PHOUR": "1", "GHCNH_ID": "USW00054920"}}, "geometry": {"type": "Point", "coordinates": [-95.5538, 42.7304]}}, {"type": "Feature", "id": "CNC", "properties": {"elevation": 319.1, "sname": "CHARITON", "time_domain": "(1994-Now)", "archive_begin": "1994-12-25", "archive_end": null, "state": "IA", "country": "US", "climate_site": "IA1394", "wfo": "DMX", "tzname": "America/Chicago", "ncdc81": "USC00131394", "ncei91": "USC00131394", "ugc_county": "IAC117", "ugc_zone": "IAZ084", "county": "Lucas", "sid": "CNC", "network": "IA_ASOS", "online": true, "synop": 4913, "attributes": {"METAR_RESET_MINUTE": "55", "IS_AWOS": "1", "HAS_PHOUR": "1", "GHCNH_ID": "USW00004913"}}, "geometry": {"type": "Point", "coordinates": [-93.3608, 41.0184]}}, {"type": "Feature", "id": "CSQ", "properties": {"elevation": 393.2, "sname": "CRESTON", "time_domain": "(1994-Now)", "archive_begin": "1994-12-25", "archive_end": null, "state": "IA", "country": "US", "climate_site": "IA1962", "wfo": "DMX", "tzname": "America/Chicago", "ncdc81": "USC00131962", "ncei91": "USC00131962", "ugc_county": "IAC175", "ugc_zone": "IAZ082", "county": "Union", "sid": "CSQ", "network": "IA_ASOS", "online": true, "synop": 4915, "attributes": {"GHCNH_ID": "USW00004915", "METAR_RESET_MINUTE": "55", "HAS_PHOUR": "1", "IS_AWOS": "1"}}, "geometry": {"type": "Point", "coordinates": [-94.3608, 41.0188]}}, {"type": "Feature", "id": "CWI", "properties": {"elevation": 216.0, "sname": "CLINTON", "time_domain": "(1988-Now)", "archive_begin": "1988-02-01", "archive_end": null, "state": "IA", "country": "US", "climate_site": "IA1635", "wfo": "DVN", "tzname": "America/Chicago", "ncdc81": "USC00131635", "ncei91": "USC00131635", "ugc_county": "IAC045", "ugc_zone": "IAZ066", "county": "Clinton", "sid": "CWI", "network": "IA_ASOS", "online": true, "synop": 94979, "attributes": {"IS_AWOS": "1", "HAS_PHOUR": "1", "GHCNH_ID": "USW00094979", "METAR_RESET_MINUTE": "56"}}, "geometry": {"type": "Point", "coordinates": [-90.3328, 41.8295]}}, {"type": "Feature", "id": "DBQ", "properties": {"elevation": 329.0, "sname": "DUBUQUE", "time_domain": "(1951-Now)", "archive_begin": "1951-02-01", "archive_end": null, "state": "IA", "country": "US", "climate_site": "IA2364", "wfo": "DVN", "tzname": "America/Chicago", "ncdc81": "USW00094908", "ncei91": "USW00094908", "ugc_county": "IAC061", "ugc_zone": "IAZ042", "county": "Dubuque", "sid": "DBQ", "network": "IA_ASOS", "online": true, "synop": 94908, "attributes": {"SHEF_6HR_SRC": "DUBI4", "GHCNH_ID": "USW00094908", "HAS_PHOUR": "1", "METAR_RESET_MINUTE": "53", "HAS1MIN": "1", "HASTAF": "1"}}, "geometry": {"type": "Point", "coordinates": [-90.7091, 42.3984]}}, {"type": "Feature", "id": "DEH", "properties": {"elevation": 352.7, "sname": "DECORAH", "time_domain": "(1994-Now)", "archive_begin": "1994-12-25", "archive_end": null, "state": "IA", "country": "US", "climate_site": "IA2110", "wfo": "ARX", "tzname": "America/Chicago", "ncdc81": "USC00132110", "ncei91": "USC00132110", "ugc_county": "IAC191", "ugc_zone": "IAZ010", "county": "Winneshiek", "sid": "DEH", "network": "IA_ASOS", "online": true, "synop": 4916, "attributes": {"IS_AWOS": "1", "HAS_PHOUR": "1", "METAR_RESET_MINUTE": "55", "GHCNH_ID": "USW00004916"}}, "geometry": {"type": "Point", "coordinates": [-91.7433, 43.2755]}}, {"type": "Feature", "id": "DNS", "properties": {"elevation": 381.0, "sname": "DENISON", "time_domain": "(1994-Now)", "archive_begin": "1994-12-25", "archive_end": null, "state": "IA", "country": "US", "climate_site": "IA2171", "wfo": "DMX", "tzname": "America/Chicago", "ncdc81": "USC00132171", "ncei91": "USC00132171", "ugc_county": "IAC047", "ugc_zone": "IAZ044", "county": "Crawford", "sid": "DNS", "network": "IA_ASOS", "online": true, "synop": 4917, "attributes": {"METAR_RESET_MINUTE": "55", "HAS_PHOUR": "1", "GHCNH_ID": "USW00004917", "IS_AWOS": "1"}}, "geometry": {"type": "Point", "coordinates": [-95.38, 41.9842]}}, {"type": "Feature", "id": "DSM", "properties": {"elevation": 294.0, "sname": "Des Moines", "time_domain": "(1928-Now)", "archive_begin": "1928-01-01", "archive_end": null, "state": "IA", "country": "US", "climate_site": "IA2203", "wfo": "DMX", "tzname": "America/Chicago", "ncdc81": "USW00014933", "ncei91": "USW00014933", "ugc_county": "IAC153", "ugc_zone": "IAZ060", "county": "Polk", "sid": "DSM", "network": "IA_ASOS", "online": true, "synop": 14933, "attributes": {"GHCNH_ID": "USW00014933", "SHEF_6HR_SRC": "DSXI4", "HASTAF": "1", "METAR_RESET_MINUTE": "54", "HAS1MIN": "1", "HAS_PHOUR": "1"}}, "geometry": {"type": "Point", "coordinates": [-93.6531, 41.534]}}, {"type": "Feature", "id": "DVN", "properties": {"elevation": 229.0, "sname": "QUAD CITIES", "time_domain": "(1996-Now)", "archive_begin": "1996-07-01", "archive_end": null, "state": "IA", "country": "US", "climate_site": "IA4705", "wfo": "DVN", "tzname": "America/Chicago", "ncdc81": "USW00094982", "ncei91": "USW00094982", "ugc_county": "IAC163", "ugc_zone": "IAZ068", "county": "Scott", "sid": "DVN", "network": "IA_ASOS", "online": true, "synop": 94982, "attributes": {"HAS1MIN": "1", "SHEF_6HR_SRC": "DVNI4", "GHCNH_ID": "USW00094982", "HAS_PHOUR": "1", "METAR_RESET_MINUTE": "52"}}, "geometry": {"type": "Point", "coordinates": [-90.5948, 41.6133]}}, {"type": "Feature", "id": "EBS", "properties": {"elevation": 337.4, "sname": "Webster City", "time_domain": "(1994-Now)", "archive_begin": "1994-12-25", "archive_end": null, "state": "IA", "country": "US", "climate_site": "IA8806", "wfo": "DMX", "tzname": "America/Chicago", "ncdc81": "USC00138806", "ncei91": "USC00138806", "ugc_county": "IAC079", "ugc_zone": "IAZ036", "county": "Hamilton", "sid": "EBS", "network": "IA_ASOS", "online": true, "synop": 4920, "attributes": {"METAR_RESET_MINUTE": "55", "HAS_PHOUR": "1", "GHCNH_ID": "USW00004920", "IS_AWOS": "1"}}, "geometry": {"type": "Point", "coordinates": [-93.8691, 42.4392]}}, {"type": "Feature", "id": "EOK", "properties": {"elevation": 204.5, "sname": "KEOKUK MUNI", "time_domain": "(1994-Now)", "archive_begin": "1994-12-25", "archive_end": null, "state": "IA", "country": "US", "climate_site": "IA4381", "wfo": "DVN", "tzname": "America/Chicago", "ncdc81": "USC00134381", "ncei91": "USC00134381", "ugc_county": "IAC111", "ugc_zone": "IAZ099", "county": "Lee", "sid": "EOK", "network": "IA_ASOS", "online": true, "synop": 4921, "attributes": {"IS_AWOS": "1", "GHCNH_ID": "USW00004921", "METAR_RESET_MINUTE": "55", "HAS_PHOUR": "1"}}, "geometry": {"type": "Point", "coordinates": [-91.4274, 40.4615]}}, {"type": "Feature", "id": "EST", "properties": {"elevation": 401.0, "sname": "ESTHERVILLE", "time_domain": "(1987-Now)", "archive_begin": "1987-06-29", "archive_end": null, "state": "IA", "country": "US", "climate_site": "IA2724", "wfo": "DMX", "tzname": "America/Chicago", "ncdc81": "USC00132724", "ncei91": "USC00132724", "ugc_county": "IAC063", "ugc_zone": "IAZ004", "county": "Emmet", "sid": "EST", "network": "IA_ASOS", "online": true, "synop": 94971, "attributes": {"GHCNH_ID": "USW00094971", "HAS1MIN": "1", "METAR_RESET_MINUTE": "52", "HAS_PHOUR": "1"}}, "geometry": {"type": "Point", "coordinates": [-94.7476, 43.4008]}}, {"type": "Feature", "id": "FFL", "properties": {"elevation": 242.3, "sname": "FAIRFIELD", "time_domain": "(1994-Now)", "archive_begin": "1994-12-25", "archive_end": null, "state": "IA", "country": "US", "climate_site": "IA2789", "wfo": "DVN", "tzname": "America/Chicago", "ncdc81": "USC00132789", "ncei91": "USC00132789", "ugc_county": "IAC101", "ugc_zone": "IAZ087", "county": "Jefferson", "sid": "FFL", "network": "IA_ASOS", "online": true, "synop": 4925, "attributes": {"GHCNH_ID": "USW00004925", "METAR_RESET_MINUTE": "55", "HAS_PHOUR": "1", "IS_AWOS": "1"}}, "geometry": {"type": "Point", "coordinates": [-91.9834, 41.0521]}}, {"type": "Feature", "id": "FOD", "properties": {"elevation": 355.0, "sname": "FORT DODGE", "time_domain": "(1978-Now)", "archive_begin": "1978-04-01", "archive_end": null, "state": "IA", "country": "US", "climate_site": "IA2999", "wfo": "DMX", "tzname": "America/Chicago", "ncdc81": "USC00132999", "ncei91": "USC00132999", "ugc_county": "IAC187", "ugc_zone": "IAZ035", "county": "Webster", "sid": "FOD", "network": "IA_ASOS", "online": true, "synop": 94933, "attributes": {"HAS_PHOUR": "1", "HASTAF": "1", "IS_AWOS": "1", "METAR_RESET_MINUTE": "56", "GHCNH_ID": "USW00094933"}}, "geometry": {"type": "Point", "coordinates": [-94.2032, 42.5497]}}, {"type": "Feature", "id": "FSW", "properties": {"elevation": 220.1, "sname": "FORT MADISON", "time_domain": "(1995-Now)", "archive_begin": "1995-05-01", "archive_end": null, "state": "IA", "country": "US", "climate_site": "IA3007", "wfo": "DVN", "tzname": "America/Chicago", "ncdc81": "USC00133007", "ncei91": "USC00133007", "ugc_county": "IAC111", "ugc_zone": "IAZ099", "county": "Lee", "sid": "FSW", "network": "IA_ASOS", "online": true, "synop": 4930, "attributes": {"METAR_RESET_MINUTE": "55", "HAS_PHOUR": "1", "GHCNH_ID": "USW00004930", "IS_AWOS": "1"}}, "geometry": {"type": "Point", "coordinates": [-91.3267, 40.6615]}}, {"type": "Feature", "id": "FXY", "properties": {"elevation": 374.6, "sname": "Forest City", "time_domain": "(2009-Now)", "archive_begin": "2009-02-23", "archive_end": null, "state": "IA", "country": "US", "climate_site": "IA2977", "wfo": "DMX", "tzname": "America/Chicago", "ncdc81": "USC00132977", "ncei91": "USC00132977", "ugc_county": "IAC081", "ugc_zone": "IAZ016", "county": "Hancock", "sid": "FXY", "network": "IA_ASOS", "online": true, "synop": 54940, "attributes": {"METAR_RESET_MINUTE": "55", "HAS_PHOUR": "1", "GHCNH_ID": "USW00054940", "IS_AWOS": "1"}}, "geometry": {"type": "Point", "coordinates": [-93.6237, 43.2323]}}, {"type": "Feature", "id": "GGI", "properties": {"elevation": 307.0, "sname": "Grinnell", "time_domain": "(2006-Now)", "archive_begin": "2006-08-28", "archive_end": null, "state": "IA", "country": "US", "climate_site": "IA8296", "wfo": "DMX", "tzname": "America/Chicago", "ncdc81": "USC00133473", "ncei91": "USC00133473", "ugc_county": "IAC157", "ugc_zone": "IAZ062", "county": "Poweshiek", "sid": "GGI", "network": "IA_ASOS", "online": true, "synop": 14976, "attributes": {"METAR_RESET_MINUTE": "55", "HAS_PHOUR": "1", "GHCNH_ID": "USW00014976", "IS_AWOS": "1"}}, "geometry": {"type": "Point", "coordinates": [-92.7332, 41.7097]}}, {"type": "Feature", "id": "HNR", "properties": {"elevation": 364.5, "sname": "HARLAN", "time_domain": "(2000-Now)", "archive_begin": "2000-03-01", "archive_end": null, "state": "IA", "country": "US", "climate_site": "IA6151", "wfo": "OAX", "tzname": "America/Chicago", "ncdc81": "USC00133632", "ncei91": "USC00133632", "ugc_county": "IAC165", "ugc_zone": "IAZ056", "county": "Shelby", "sid": "HNR", "network": "IA_ASOS", "online": true, "synop": 4936, "attributes": {"GHCNH_ID": "USW00004936", "IS_AWOS": "1", "HAS_PHOUR": "1", "METAR_RESET_MINUTE": "55"}}, "geometry": {"type": "Point", "coordinates": [-95.3355, 41.5834]}}, {"type": "Feature", "id": "HPT", "properties": {"elevation": 350.1681, "sname": "Hampton", "time_domain": "(2018-Now)", "archive_begin": "2018-04-27", "archive_end": null, "state": "IA", "country": "US", "climate_site": "IA3584", "wfo": "DMX", "tzname": "America/Chicago", "ncdc81": "USC00133584", "ncei91": "USC00133584", "ugc_county": "IAC069", "ugc_zone": "IAZ026", "county": "Franklin", "sid": "HPT", "network": "IA_ASOS", "online": true, "synop": null, "attributes": {"IS_AWOS": "1", "METAR_RESET_MINUTE": "55", "HAS_PHOUR": "1", "GHCNH_ID": "USI0000KHPT"}}, "geometry": {"type": "Point", "coordinates": [-93.2244, 42.7175]}}, {"type": "Feature", "id": "I75", "properties": {"elevation": 338.3, "sname": "Osceola", "time_domain": "(2009-Now)", "archive_begin": "2009-10-09", "archive_end": null, "state": "IA", "country": "US", "climate_site": "IA6316", "wfo": "DMX", "tzname": "America/Chicago", "ncdc81": "USC00136316", "ncei91": "USC00136316", "ugc_county": "IAC039", "ugc_zone": "IAZ083", "county": "Clarke", "sid": "I75", "network": "IA_ASOS", "online": true, "synop": 54942, "attributes": {"HAS_PHOUR": "1", "METAR_RESET_MINUTE": "55", "IS_AWOS": "1", "GHCNH_ID": "USW00054942"}}, "geometry": {"type": "Point", "coordinates": [-93.6876, 41.0472]}}, {"type": "Feature", "id": "ICL", "properties": {"elevation": 298.1, "sname": "CLARINDA", "time_domain": "(1994-Now)", "archive_begin": "1994-12-25", "archive_end": null, "state": "IA", "country": "US", "climate_site": "IA1533", "wfo": "OAX", "tzname": "America/Chicago", "ncdc81": "USC00131533", "ncei91": "USC00131533", "ugc_county": "IAC145", "ugc_zone": "IAZ091", "county": "Page", "sid": "ICL", "network": "IA_ASOS", "online": true, "synop": 4937, "attributes": {"HAS_PHOUR": "1", "METAR_RESET_MINUTE": "55", "IS_AWOS": "1", "GHCNH_ID": "USW00004937"}}, "geometry": {"type": "Point", "coordinates": [-95.0223, 40.7242]}}, {"type": "Feature", "id": "IFA", "properties": {"elevation": 346.6, "sname": "Iowa Falls", "time_domain": "(2007-Now)", "archive_begin": "2007-06-20", "archive_end": null, "state": "IA", "country": "US", "climate_site": "IA4142", "wfo": "DMX", "tzname": "America/Chicago", "ncdc81": "USC00134142", "ncei91": "USC00134142", "ugc_county": "IAC083", "ugc_zone": "IAZ037", "county": "Hardin", "sid": "IFA", "network": "IA_ASOS", "online": true, "synop": 54941, "attributes": {"HAS_PHOUR": "1", "METAR_RESET_MINUTE": "55", "IS_AWOS": "1", "GHCNH_ID": "USW00054941"}}, "geometry": {"type": "Point", "coordinates": [-93.2651, 42.4691]}}, {"type": "Feature", "id": "IIB", "properties": {"elevation": 294.0, "sname": "INDEPENDENCE", "time_domain": "(2002-Now)", "archive_begin": "2002-08-05", "archive_end": null, "state": "IA", "country": "US", "climate_site": "IA8568", "wfo": "DVN", "tzname": "America/Chicago", "ncdc81": "USC00134049", "ncei91": "USC00134049", "ugc_county": "IAC019", "ugc_zone": "IAZ040", "county": "Buchanan", "sid": "IIB", "network": "IA_ASOS", "online": true, "synop": 4989, "attributes": {"GHCNH_ID": "USW00004989", "IS_AWOS": "1", "HAS_PHOUR": "1", "METAR_RESET_MINUTE": "55"}}, "geometry": {"type": "Point", "coordinates": [-91.9504, 42.4544]}}, {"type": "Feature", "id": "IKV", "properties": {"elevation": 270.7, "sname": "ANKENY", "time_domain": "(1994-Now)", "archive_begin": "1994-11-16", "archive_end": null, "state": "IA", "country": "US", "climate_site": "IA2203", "wfo": "DMX", "tzname": "America/Chicago", "ncdc81": "USC00130241", "ncei91": "USC00130241", "ugc_county": "IAC153", "ugc_zone": "IAZ060", "county": "Polk", "sid": "IKV", "network": "IA_ASOS", "online": true, "synop": 4938, "attributes": {"HAS_PHOUR": "1", "METAR_RESET_MINUTE": "55", "IS_AWOS": "1", "GHCNH_ID": "USW00004938"}}, "geometry": {"type": "Point", "coordinates": [-93.5695, 41.6878]}}, {"type": "Feature", "id": "IOW", "properties": {"elevation": 204.0, "sname": "IOWA CITY", "time_domain": "(1996-Now)", "archive_begin": "1996-07-01", "archive_end": null, "state": "IA", "country": "US", "climate_site": "IA4101", "wfo": "DVN", "tzname": "America/Chicago", "ncdc81": "USW00014937", "ncei91": "USW00014937", "ugc_county": "IAC103", "ugc_zone": "IAZ064", "county": "Johnson", "sid": "IOW", "network": "IA_ASOS", "online": true, "synop": 14937, "attributes": {"METAR_RESET_MINUTE": "52", "HAS1MIN": "1", "GHCNH_ID": "USW00014937", "FLOOR": "1996-07-01", "HAS_PHOUR": "1"}}, "geometry": {"type": "Point", "coordinates": [-91.5445, 41.6394]}}, {"type": "Feature", "id": "LRJ", "properties": {"elevation": 362.4, "sname": "LE MARS", "time_domain": "(1994-Now)", "archive_begin": "1994-12-25", "archive_end": null, "state": "IA", "country": "US", "climate_site": "IA4735", "wfo": "FSD", "tzname": "America/Chicago", "ncdc81": "USC00134735", "ncei91": "USC00134735", "ugc_county": "IAC149", "ugc_zone": "IAZ020", "county": "Plymouth", "sid": "LRJ", "network": "IA_ASOS", "online": true, "synop": 4942, "attributes": {"GHCNH_ID": "USW00004942", "HAS_PHOUR": "1", "METAR_RESET_MINUTE": "55", "IS_AWOS": "1"}}, "geometry": {"type": "Point", "coordinates": [-96.1922, 42.7754]}}, {"type": "Feature", "id": "LWD", "properties": {"elevation": 333.0, "sname": "LAMONI", "time_domain": "(1973-Now)", "archive_begin": "1973-01-01", "archive_end": null, "state": "IA", "country": "US", "climate_site": "IA4585", "wfo": "DMX", "tzname": "America/Chicago", "ncdc81": "USW00094991", "ncei91": "USW00094991", "ugc_county": "IAC053", "ugc_zone": "IAZ094", "county": "Decatur", "sid": "LWD", "network": "IA_ASOS", "online": true, "synop": 94991, "attributes": {"METAR_RESET_MINUTE": "53", "HAS_PHOUR": "1", "GHCNH_ID": "USW00094991", "HAS1MIN": "1"}}, "geometry": {"type": "Point", "coordinates": [-93.9005, 40.6306]}}, {"type": "Feature", "id": "MCW", "properties": {"elevation": 370.0, "sname": "MASON CITY", "time_domain": "(1940-Now)", "archive_begin": "1940-10-15", "archive_end": null, "state": "IA", "country": "US", "climate_site": "IA5230", "wfo": "DMX", "tzname": "America/Chicago", "ncdc81": "USW00014940", "ncei91": "USW00014940", "ugc_county": "IAC033", "ugc_zone": "IAZ017", "county": "Cerro Gordo", "sid": "MCW", "network": "IA_ASOS", "online": true, "synop": 14940, "attributes": {"HAS1MIN": "1", "HAS_PHOUR": "1", "GHCNH_ID": "USW00014940", "HASTAF": "1", "METAR_RESET_MINUTE": "53"}}, "geometry": {"type": "Point", "coordinates": [-93.3261, 43.1544]}}, {"type": "Feature", "id": "MIW", "properties": {"elevation": 297.0, "sname": "MARSHALLTOWN", "time_domain": "(1996-Now)", "archive_begin": "1996-09-30", "archive_end": null, "state": "IA", "country": "US", "climate_site": "IA5198", "wfo": "DMX", "tzname": "America/Chicago", "ncdc81": "USW00094988", "ncei91": "USW00094988", "ugc_county": "IAC127", "ugc_zone": "IAZ049", "county": "Marshall", "sid": "MIW", "network": "IA_ASOS", "online": true, "synop": 94988, "attributes": {"HAS1MIN": "1", "GHCNH_ID": "USW00094988", "HAS_PHOUR": "1", "METAR_RESET_MINUTE": "53"}}, "geometry": {"type": "Point", "coordinates": [-92.9163, 42.1106]}}, {"type": "Feature", "id": "MPZ", "properties": {"elevation": 222.0, "sname": "MOUNT PLEASANT", "time_domain": "(2002-Now)", "archive_begin": "2002-05-04", "archive_end": null, "state": "IA", "country": "US", "climate_site": "IA5796", "wfo": "DVN", "tzname": "America/Chicago", "ncdc81": "USC00135796", "ncei91": "USC00135796", "ugc_county": "IAC087", "ugc_zone": "IAZ088", "county": "Henry", "sid": "MPZ", "network": "IA_ASOS", "online": true, "synop": 4947, "attributes": {"GHCNH_ID": "USW00004947", "HAS_PHOUR": "1", "IS_AWOS": "1", "METAR_RESET_MINUTE": "55"}}, "geometry": {"type": "Point", "coordinates": [-91.5122, 40.9453]}}, {"type": "Feature", "id": "MUT", "properties": {"elevation": 165.5, "sname": "MUSCATINE", "time_domain": "(1994-Now)", "archive_begin": "1994-12-25", "archive_end": null, "state": "IA", "country": "US", "climate_site": "IA5837", "wfo": "DVN", "tzname": "America/Chicago", "ncdc81": "USC00135837", "ncei91": "USC00135837", "ugc_county": "IAC139", "ugc_zone": "IAZ067", "county": "Muscatine", "sid": "MUT", "network": "IA_ASOS", "online": true, "synop": 4950, "attributes": {"HAS_PHOUR": "1", "METAR_RESET_MINUTE": "55", "GHCNH_ID": "USW00004950", "IS_AWOS": "1"}}, "geometry": {"type": "Point", "coordinates": [-91.1406, 41.367]}}, {"type": "Feature", "id": "MXO", "properties": {"elevation": 254.5, "sname": "MONTICELLO MUNI", "time_domain": "(1994-Now)", "archive_begin": "1994-12-25", "archive_end": null, "state": "IA", "country": "US", "climate_site": "IA1257", "wfo": "DVN", "tzname": "America/Chicago", "ncdc81": "USC00130213", "ncei91": "USC00131257", "ugc_county": "IAC105", "ugc_zone": "IAZ053", "county": "Jones", "sid": "MXO", "network": "IA_ASOS", "online": true, "synop": 4953, "attributes": {"METAR_RESET_MINUTE": "55", "GHCNH_ID": "USW00004953", "HAS_PHOUR": "1", "IS_AWOS": "1"}}, "geometry": {"type": "Point", "coordinates": [-91.1605, 42.2204]}}, {"type": "Feature", "id": "OLZ", "properties": {"elevation": 328.0, "sname": "OELWEIN", "time_domain": "(1994-Now)", "archive_begin": "1994-12-25", "archive_end": null, "state": "IA", "country": "US", "climate_site": "IA2864", "wfo": "ARX", "tzname": "America/Chicago", "ncdc81": "USC00136200", "ncei91": "USC00136199", "ugc_county": "IAC065", "ugc_zone": "IAZ029", "county": "Fayette", "sid": "OLZ", "network": "IA_ASOS", "online": true, "synop": 4955, "attributes": {"HAS_PHOUR": "1", "METAR_RESET_MINUTE": "55", "IS_AWOS": "1", "GHCNH_ID": "USW00004955"}}, "geometry": {"type": "Point", "coordinates": [-91.976, 42.6831]}}, {"type": "Feature", "id": "OOA", "properties": {"elevation": 256.0, "sname": "Oskaloosa", "time_domain": "(2005-Now)", "archive_begin": "2005-05-03", "archive_end": null, "state": "IA", "country": "US", "climate_site": "IA6389", "wfo": "DMX", "tzname": "America/Chicago", "ncdc81": "USW00014950", "ncei91": "USW00014950", "ugc_county": "IAC123", "ugc_zone": "IAZ075", "county": "Mahaska", "sid": "OOA", "network": "IA_ASOS", "online": true, "synop": 54919, "attributes": {"GHCNH_ID": "USW00054919", "HAS_PHOUR": "1", "IS_AWOS": "1", "METAR_RESET_MINUTE": "55"}}, "geometry": {"type": "Point", "coordinates": [-92.4919, 41.2273]}}, {"type": "Feature", "id": "ORC", "properties": {"elevation": 429.97208, "sname": "Orange City", "time_domain": "(1994-2019)", "archive_begin": "1994-12-25", "archive_end": "2019-02-28", "state": "IA", "country": "US", "climate_site": "IA4735", "wfo": "FSD", "tzname": "America/Chicago", "ncdc81": "USC00137700", "ncei91": "USC00137700", "ugc_county": "IAC167", "ugc_zone": "IAZ012", "county": "Woodbury", "sid": "ORC", "network": "IA_ASOS", "online": false, "synop": 4959, "attributes": {"METAR_RESET_MINUTE": "55", "GHCNH_ID": "USW00004959", "IS_AWOS": "1"}}, "geometry": {"type": "Point", "coordinates": [-96.0606, 42.9895]}}, {"type": "Feature", "id": "OTM", "properties": {"elevation": 258.0, "sname": "OTTUMWA", "time_domain": "(1940-Now)", "archive_begin": "1940-10-15", "archive_end": null, "state": "IA", "country": "US", "climate_site": "IA6389", "wfo": "DMX", "tzname": "America/Chicago", "ncdc81": "USW00014950", "ncei91": "USW00014950", "ugc_county": "IAC179", "ugc_zone": "IAZ086", "county": "Jasper", "sid": "OTM", "network": "IA_ASOS", "online": true, "synop": 14950, "attributes": {"HAS1MIN": "1", "HAS_PHOUR": "1", "GHCNH_ID": "USW00014950", "HASTAF": "1", "METAR_RESET_MINUTE": "53"}}, "geometry": {"type": "Point", "coordinates": [-92.4446, 41.1008]}}, {"type": "Feature", "id": "OXV", "properties": {"elevation": 281.9, "sname": "Knoxville", "time_domain": "(1994-Now)", "archive_begin": "1994-12-25", "archive_end": null, "state": "IA", "country": "US", "climate_site": "IA1394", "wfo": "DMX", "tzname": "America/Chicago", "ncdc81": "USC00134502", "ncei91": "USC00134502", "ugc_county": "IAC125", "ugc_zone": "IAZ074", "county": "Marion", "sid": "OXV", "network": "IA_ASOS", "online": true, "synop": 4962, "attributes": {"METAR_RESET_MINUTE": "55", "HAS_PHOUR": "1", "GHCNH_ID": "USW00004962", "IS_AWOS": "1"}}, "geometry": {"type": "Point", "coordinates": [-93.1114, 41.2984]}}, {"type": "Feature", "id": "PEA", "properties": {"elevation": 265.0, "sname": "PELLA", "time_domain": "(2002-Now)", "archive_begin": "2002-05-04", "archive_end": null, "state": "IA", "country": "US", "climate_site": "IA6327", "wfo": "DMX", "tzname": "America/Chicago", "ncdc81": "USC00134502", "ncei91": "USC00134502", "ugc_county": "IAC125", "ugc_zone": "IAZ074", "county": "Marion", "sid": "PEA", "network": "IA_ASOS", "online": true, "synop": 4964, "attributes": {"METAR_RESET_MINUTE": "55", "IS_AWOS": "1", "GHCNH_ID": "USW00004964", "HAS_PHOUR": "1"}}, "geometry": {"type": "Point", "coordinates": [-92.9431, 41.3989]}}, {"type": "Feature", "id": "PRO", "properties": {"elevation": 309.0, "sname": "Perry", "time_domain": "(2007-Now)", "archive_begin": "2007-09-14", "archive_end": null, "state": "IA", "country": "US", "climate_site": "IA6566", "wfo": "DMX", "tzname": "America/Chicago", "ncdc81": "USC00136566", "ncei91": "USC00136566", "ugc_county": "IAC049", "ugc_zone": "IAZ059", "county": "Dallas", "sid": "PRO", "network": "IA_ASOS", "online": true, "synop": 54943, "attributes": {"GHCNH_ID": "USW00054943", "HAS_PHOUR": "1", "IS_AWOS": "1", "METAR_RESET_MINUTE": "55"}}, "geometry": {"type": "Point", "coordinates": [-94.1637, 41.8278]}}, {"type": "Feature", "id": "RDK", "properties": {"elevation": 317.0, "sname": "RED OAK", "time_domain": "(1994-Now)", "archive_begin": "1994-12-25", "archive_end": null, "state": "IA", "country": "US", "climate_site": "IA6940", "wfo": "OAX", "tzname": "America/Chicago", "ncdc81": "USC00136940", "ncei91": "USC00136940", "ugc_county": "IAC137", "ugc_zone": "IAZ080", "county": "Montgomery", "sid": "RDK", "network": "IA_ASOS", "online": true, "synop": 4966, "attributes": {"METAR_RESET_MINUTE": "55", "GHCNH_ID": "USW00004966", "IS_AWOS": "1"}}, "geometry": {"type": "Point", "coordinates": [-95.2624, 41.0106]}}, {"type": "Feature", "id": "SDA", "properties": {"elevation": 296.0, "sname": "Shenandoah", "time_domain": "(1994-Now)", "archive_begin": "1994-12-25", "archive_end": null, "state": "IA", "country": "US", "climate_site": "IA7613", "wfo": "OAX", "tzname": "America/Chicago", "ncdc81": "USC00137613", "ncei91": "USC00137613", "ugc_county": "IAC071", "ugc_zone": "IAZ090", "county": "Fremont", "sid": "SDA", "network": "IA_ASOS", "online": true, "synop": 4973, "attributes": {"HAS_PHOUR": "1", "GHCNH_ID": "USW00004973", "IS_AWOS": "1", "METAR_RESET_MINUTE": "55"}}, "geometry": {"type": "Point", "coordinates": [-95.4112, 40.7533]}}, {"type": "Feature", "id": "SHL", "properties": {"elevation": 432.2, "sname": "SHELDON", "time_domain": "(1994-Now)", "archive_begin": "1994-12-25", "archive_end": null, "state": "IA", "country": "US", "climate_site": "IA7386", "wfo": "FSD", "tzname": "America/Chicago", "ncdc81": "USC00137594", "ncei91": "USC00137594", "ugc_county": "IAC141", "ugc_zone": "IAZ301", "county": "Obrien", "sid": "SHL", "network": "IA_ASOS", "online": true, "synop": 4975, "attributes": {"IS_AWOS": "1", "METAR_RESET_MINUTE": "55", "HAS_PHOUR": "1", "GHCNH_ID": "USW00004975"}}, "geometry": {"type": "Point", "coordinates": [-95.8353, 43.2082]}}, {"type": "Feature", "id": "SLB", "properties": {"elevation": 449.9, "sname": "Storm Lake", "time_domain": "(1994-Now)", "archive_begin": "1994-12-25", "archive_end": null, "state": "IA", "country": "US", "climate_site": "IA7979", "wfo": "FSD", "tzname": "America/Chicago", "ncdc81": "USC00137979", "ncei91": "USC00137979", "ugc_county": "IAC021", "ugc_zone": "IAZ301", "county": "Buena Vista", "sid": "SLB", "network": "IA_ASOS", "online": true, "synop": 4976, "attributes": {"METAR_RESET_MINUTE": "55", "HAS_PHOUR": "1", "GHCNH_ID": "USW00004976", "IS_AWOS": "1"}}, "geometry": {"type": "Point", "coordinates": [-95.2399, 42.5972]}}, {"type": "Feature", "id": "SPW", "properties": {"elevation": 403.0, "sname": "SPENCER", "time_domain": "(1972-Now)", "archive_begin": "1972-12-31", "archive_end": null, "state": "IA", "country": "US", "climate_site": "IA7844", "wfo": "FSD", "tzname": "America/Chicago", "ncdc81": "USW00014972", "ncei91": "USW00014972", "ugc_county": "IAC041", "ugc_zone": "IAZ301", "county": "Clay", "sid": "SPW", "network": "IA_ASOS", "online": true, "synop": 14972, "attributes": {"HAS1MIN": "1", "METAR_RESET_MINUTE": "53", "HAS_PHOUR": "1", "GHCNH_ID": "USW00014972"}}, "geometry": {"type": "Point", "coordinates": [-95.2101, 43.1682]}}, {"type": "Feature", "id": "SUX", "properties": {"elevation": 336.0, "sname": "SIOUX CITY", "time_domain": "(1939-Now)", "archive_begin": "1939-12-04", "archive_end": null, "state": "IA", "country": "US", "climate_site": "IA7708", "wfo": "FSD", "tzname": "America/Chicago", "ncdc81": "USW00014943", "ncei91": "USW00014943", "ugc_county": "IAC193", "ugc_zone": "IAZ031", "county": "Woodbury", "sid": "SUX", "network": "IA_ASOS", "online": true, "synop": 14943, "attributes": {"GHCNH_ID": "USW00014943", "HAS1MIN": "1", "HASTAF": "1", "SHEF_6HR_SRC": "SUXI4", "HAS_PHOUR": "1", "METAR_RESET_MINUTE": "52"}}, "geometry": {"type": "Point", "coordinates": [-96.3795, 42.3917]}}, {"type": "Feature", "id": "SXK", "properties": {"elevation": 427.62628, "sname": "Sioux County", "time_domain": "(2019-Now)", "archive_begin": "2019-05-02", "archive_end": null, "state": "IA", "country": "US", "climate_site": "IA4735", "wfo": "FSD", "tzname": "America/Chicago", "ncdc81": "USC00137700", "ncei91": "USC00137700", "ugc_county": "IAC167", "ugc_zone": "IAZ300", "county": "Sioux", "sid": "SXK", "network": "IA_ASOS", "online": true, "synop": null, "attributes": {"IS_AWOS": "1", "METAR_RESET_MINUTE": "55", "HAS_PHOUR": "1"}}, "geometry": {"type": "Point", "coordinates": [-96.1614, 42.9858]}}, {"type": "Feature", "id": "TNU", "properties": {"elevation": 287.0, "sname": "NEWTON MUNI", "time_domain": "(1994-Now)", "archive_begin": "1994-12-25", "archive_end": null, "state": "IA", "country": "US", "climate_site": "IA5992", "wfo": "DMX", "tzname": "America/Chicago", "ncdc81": "USC00135992", "ncei91": "USC00135992", "ugc_county": "IAC099", "ugc_zone": "IAZ061", "county": "Jasper", "sid": "TNU", "network": "IA_ASOS", "online": true, "synop": 4977, "attributes": {"METAR_RESET_MINUTE": "55", "IS_AWOS": "1", "GHCNH_ID": "USW00004977", "HAS_PHOUR": "1"}}, "geometry": {"type": "Point", "coordinates": [-93.019, 41.6701]}}, {"type": "Feature", "id": "TVK", "properties": {"elevation": 313.0, "sname": "Centerville", "time_domain": "(2007-Now)", "archive_begin": "2007-05-23", "archive_end": null, "state": "IA", "country": "US", "climate_site": "IA1354", "wfo": "DMX", "tzname": "America/Chicago", "ncdc81": "USC00131354", "ncei91": "USC00131354", "ugc_county": "IAC007", "ugc_zone": "IAZ096", "county": "Appanoose", "sid": "TVK", "network": "IA_ASOS", "online": true, "synop": 54939, "attributes": {"GHCNH_ID": "USW00054939", "IS_AWOS": "1", "METAR_RESET_MINUTE": "55", "HAS_PHOUR": "1"}}, "geometry": {"type": "Point", "coordinates": [-92.8983, 40.6832]}}, {"type": "Feature", "id": "VTI", "properties": {"elevation": 255.0, "sname": "VINTON", "time_domain": "(2002-Now)", "archive_begin": "2002-06-05", "archive_end": null, "state": "IA", "country": "US", "climate_site": "IA8568", "wfo": "DVN", "tzname": "America/Chicago", "ncdc81": "USC00138568", "ncei91": "USC00138568", "ugc_county": "IAC011", "ugc_zone": "IAZ051", "county": "Benton", "sid": "VTI", "network": "IA_ASOS", "online": true, "synop": 4981, "attributes": {"GHCNH_ID": "USW00004981", "IS_AWOS": "1", "HAS_PHOUR": "1", "METAR_RESET_MINUTE": "55"}}, "geometry": {"type": "Point", "coordinates": [-92.0248, 42.2176]}}], "generated_at": "2026-08-18T13:20:30Z", "count": 62}